{"type":"FeatureCollection","features":[{"type":"Feature","properties":{"jobs":0,"pop":451,"pointCount":1,"homeWorkCommuteMedian":5949,"workHomeCommuteMedian":-1},"geometry":{"type":"Polygon","coordinates":[[[4.257478954534433,50.82322409272552],[4.257478954534433,50.832217296362764],[4.266472158171678,50.832217296362764],[4.266472158171678,50.82322409272552],[4.257478954534433,50.82322409272552]]]}},{"type":"Feature","properties":{"jobs":12379,"pop":304,"pointCount":1,"homeWorkCommuteMedian":4157,"workHomeCommuteMedian":5263},"geometry":{"type":"Polygon","coordinates":[[[4.266472158171678,50.805237685451026],[4.266472158171678,50.81423088908827],[4.275465361808923,50.81423088908827],[4.275465361808923,50.805237685451026],[4.266472158171678,50.805237685451026]]]}},{"type":"Feature","properties":{"jobs":3938,"pop":103,"pointCount":1,"homeWorkCommuteMedian":7859,"workHomeCommuteMedian":3929},"geometry":{"type":"Polygon","coordinates":[[[4.266472158171678,50.81423088908827],[4.266472158171678,50.82322409272552],[4.275465361808923,50.82322409272552],[4.275465361808923,50.81423088908827],[4.266472158171678,50.81423088908827]]]}},{"type":"Feature","properties":{"jobs":4549,"pop":112,"pointCount":1,"homeWorkCommuteMedian":6395,"workHomeCommuteMedian":4492},"geometry":{"type":"Polygon","coordinates":[[[4.266472158171678,50.832217296362764],[4.266472158171678,50.84121050000001],[4.275465361808923,50.84121050000001],[4.275465361808923,50.832217296362764],[4.266472158171678,50.832217296362764]]]}},{"type":"Feature","properties":{"jobs":8217,"pop":54,"pointCount":1,"homeWorkCommuteMedian":4595,"workHomeCommuteMedian":4385},"geometry":{"type":"Polygon","coordinates":[[[4.275465361808923,50.805237685451026],[4.275465361808923,50.81423088908827],[4.284458565446168,50.81423088908827],[4.284458565446168,50.805237685451026],[4.275465361808923,50.805237685451026]]]}},{"type":"Feature","properties":{"jobs":2012,"pop":3657,"pointCount":2,"homeWorkCommuteMedian":1358,"workHomeCommuteMedian":5216},"geometry":{"type":"Polygon","coordinates":[[[4.275465361808923,50.81423088908827],[4.275465361808923,50.82322409272552],[4.284458565446168,50.82322409272552],[4.284458565446168,50.81423088908827],[4.275465361808923,50.81423088908827]]]}},{"type":"Feature","properties":{"jobs":80,"pop":2238,"pointCount":2,"homeWorkCommuteMedian":5188,"workHomeCommuteMedian":6445},"geometry":{"type":"Polygon","coordinates":[[[4.275465361808923,50.82322409272552],[4.275465361808923,50.832217296362764],[4.284458565446168,50.832217296362764],[4.284458565446168,50.82322409272552],[4.275465361808923,50.82322409272552]]]}},{"type":"Feature","properties":{"jobs":582,"pop":1887,"pointCount":2,"homeWorkCommuteMedian":7251,"workHomeCommuteMedian":2829},"geometry":{"type":"Polygon","coordinates":[[[4.275465361808923,50.832217296362764],[4.275465361808923,50.84121050000001],[4.284458565446168,50.84121050000001],[4.284458565446168,50.832217296362764],[4.275465361808923,50.832217296362764]]]}},{"type":"Feature","properties":{"jobs":1391,"pop":2177,"pointCount":1,"homeWorkCommuteMedian":6420,"workHomeCommuteMedian":3567},"geometry":{"type":"Polygon","coordinates":[[[4.275465361808923,50.8591969072745],[4.275465361808923,50.86819011091175],[4.284458565446168,50.86819011091175],[4.284458565446168,50.8591969072745],[4.275465361808923,50.8591969072745]]]}},{"type":"Feature","properties":{"jobs":8012,"pop":8,"pointCount":1,"homeWorkCommuteMedian":3634,"workHomeCommuteMedian":2662},"geometry":{"type":"Polygon","coordinates":[[[4.284458565446168,50.805237685451026],[4.284458565446168,50.81423088908827],[4.293451769083413,50.81423088908827],[4.293451769083413,50.805237685451026],[4.284458565446168,50.805237685451026]]]}},{"type":"Feature","properties":{"jobs":1464,"pop":3162,"pointCount":1,"homeWorkCommuteMedian":1889,"workHomeCommuteMedian":5653},"geometry":{"type":"Polygon","coordinates":[[[4.284458565446168,50.81423088908827],[4.284458565446168,50.82322409272552],[4.293451769083413,50.82322409272552],[4.293451769083413,50.81423088908827],[4.284458565446168,50.81423088908827]]]}},{"type":"Feature","properties":{"jobs":891,"pop":6854,"pointCount":5,"homeWorkCommuteMedian":4443,"workHomeCommuteMedian":3656},"geometry":{"type":"Polygon","coordinates":[[[4.284458565446168,50.82322409272552],[4.284458565446168,50.832217296362764],[4.293451769083413,50.832217296362764],[4.293451769083413,50.82322409272552],[4.284458565446168,50.82322409272552]]]}},{"type":"Feature","properties":{"jobs":904,"pop":6149,"pointCount":4,"homeWorkCommuteMedian":4447,"workHomeCommuteMedian":3908},"geometry":{"type":"Polygon","coordinates":[[[4.284458565446168,50.832217296362764],[4.284458565446168,50.84121050000001],[4.293451769083413,50.84121050000001],[4.293451769083413,50.832217296362764],[4.284458565446168,50.832217296362764]]]}},{"type":"Feature","properties":{"jobs":774,"pop":3492,"pointCount":2,"homeWorkCommuteMedian":3467,"workHomeCommuteMedian":5020},"geometry":{"type":"Polygon","coordinates":[[[4.284458565446168,50.84121050000001],[4.284458565446168,50.850203703637256],[4.293451769083413,50.850203703637256],[4.293451769083413,50.84121050000001],[4.284458565446168,50.84121050000001]]]}},{"type":"Feature","properties":{"jobs":4,"pop":258,"pointCount":2,"homeWorkCommuteMedian":3834,"workHomeCommuteMedian":8152},"geometry":{"type":"Polygon","coordinates":[[[4.284458565446168,50.850203703637256],[4.284458565446168,50.8591969072745],[4.293451769083413,50.8591969072745],[4.293451769083413,50.850203703637256],[4.284458565446168,50.850203703637256]]]}},{"type":"Feature","properties":{"jobs":179,"pop":4057,"pointCount":3,"homeWorkCommuteMedian":4897,"workHomeCommuteMedian":4866},"geometry":{"type":"Polygon","coordinates":[[[4.284458565446168,50.8591969072745],[4.284458565446168,50.86819011091175],[4.293451769083413,50.86819011091175],[4.293451769083413,50.8591969072745],[4.284458565446168,50.8591969072745]]]}},{"type":"Feature","properties":{"jobs":12344,"pop":2882,"pointCount":4,"homeWorkCommuteMedian":4610,"workHomeCommuteMedian":3258},"geometry":{"type":"Polygon","coordinates":[[[4.284458565446168,50.86819011091175],[4.284458565446168,50.877183314548994],[4.293451769083413,50.877183314548994],[4.293451769083413,50.86819011091175],[4.284458565446168,50.86819011091175]]]}},{"type":"Feature","properties":{"jobs":236,"pop":14,"pointCount":1,"homeWorkCommuteMedian":3304,"workHomeCommuteMedian":4594},"geometry":{"type":"Polygon","coordinates":[[[4.293451769083413,50.805237685451026],[4.293451769083413,50.81423088908827],[4.302444972720658,50.81423088908827],[4.302444972720658,50.805237685451026],[4.293451769083413,50.805237685451026]]]}},{"type":"Feature","properties":{"jobs":523,"pop":4749,"pointCount":3,"homeWorkCommuteMedian":3746,"workHomeCommuteMedian":6362},"geometry":{"type":"Polygon","coordinates":[[[4.293451769083413,50.81423088908827],[4.293451769083413,50.82322409272552],[4.302444972720658,50.82322409272552],[4.302444972720658,50.81423088908827],[4.293451769083413,50.81423088908827]]]}},{"type":"Feature","properties":{"jobs":1159,"pop":10692,"pointCount":6,"homeWorkCommuteMedian":3826,"workHomeCommuteMedian":3859},"geometry":{"type":"Polygon","coordinates":[[[4.293451769083413,50.82322409272552],[4.293451769083413,50.832217296362764],[4.302444972720658,50.832217296362764],[4.302444972720658,50.82322409272552],[4.293451769083413,50.82322409272552]]]}},{"type":"Feature","properties":{"jobs":347,"pop":6308,"pointCount":4,"homeWorkCommuteMedian":5813,"workHomeCommuteMedian":6092},"geometry":{"type":"Polygon","coordinates":[[[4.293451769083413,50.832217296362764],[4.293451769083413,50.84121050000001],[4.302444972720658,50.84121050000001],[4.302444972720658,50.832217296362764],[4.293451769083413,50.832217296362764]]]}},{"type":"Feature","properties":{"jobs":719,"pop":7193,"pointCount":5,"homeWorkCommuteMedian":3969,"workHomeCommuteMedian":4144},"geometry":{"type":"Polygon","coordinates":[[[4.293451769083413,50.84121050000001],[4.293451769083413,50.850203703637256],[4.302444972720658,50.850203703637256],[4.302444972720658,50.84121050000001],[4.293451769083413,50.84121050000001]]]}},{"type":"Feature","properties":{"jobs":41,"pop":1562,"pointCount":2,"homeWorkCommuteMedian":4594,"workHomeCommuteMedian":5053},"geometry":{"type":"Polygon","coordinates":[[[4.293451769083413,50.850203703637256],[4.293451769083413,50.8591969072745],[4.302444972720658,50.8591969072745],[4.302444972720658,50.850203703637256],[4.293451769083413,50.850203703637256]]]}},{"type":"Feature","properties":{"jobs":677,"pop":10703,"pointCount":5,"homeWorkCommuteMedian":4829,"workHomeCommuteMedian":6304},"geometry":{"type":"Polygon","coordinates":[[[4.293451769083413,50.8591969072745],[4.293451769083413,50.86819011091175],[4.302444972720658,50.86819011091175],[4.302444972720658,50.8591969072745],[4.293451769083413,50.8591969072745]]]}},{"type":"Feature","properties":{"jobs":187,"pop":3372,"pointCount":3,"homeWorkCommuteMedian":5338,"workHomeCommuteMedian":7264},"geometry":{"type":"Polygon","coordinates":[[[4.293451769083413,50.86819011091175],[4.293451769083413,50.877183314548994],[4.302444972720658,50.877183314548994],[4.302444972720658,50.86819011091175],[4.293451769083413,50.86819011091175]]]}},{"type":"Feature","properties":{"jobs":63,"pop":3,"pointCount":1,"homeWorkCommuteMedian":8839,"workHomeCommuteMedian":5367},"geometry":{"type":"Polygon","coordinates":[[[4.293451769083413,50.877183314548994],[4.293451769083413,50.88617651818624],[4.302444972720658,50.88617651818624],[4.302444972720658,50.877183314548994],[4.293451769083413,50.877183314548994]]]}},{"type":"Feature","properties":{"jobs":8760,"pop":61,"pointCount":1,"homeWorkCommuteMedian":5108,"workHomeCommuteMedian":3508},"geometry":{"type":"Polygon","coordinates":[[[4.302444972720658,50.79624448181378],[4.302444972720658,50.805237685451026],[4.311438176357903,50.805237685451026],[4.311438176357903,50.79624448181378],[4.302444972720658,50.79624448181378]]]}},{"type":"Feature","properties":{"jobs":1538,"pop":7233,"pointCount":4,"homeWorkCommuteMedian":4558,"workHomeCommuteMedian":2294},"geometry":{"type":"Polygon","coordinates":[[[4.302444972720658,50.82322409272552],[4.302444972720658,50.832217296362764],[4.311438176357903,50.832217296362764],[4.311438176357903,50.82322409272552],[4.302444972720658,50.82322409272552]]]}},{"type":"Feature","properties":{"jobs":3065,"pop":12006,"pointCount":7,"homeWorkCommuteMedian":4670,"workHomeCommuteMedian":2941},"geometry":{"type":"Polygon","coordinates":[[[4.302444972720658,50.832217296362764],[4.302444972720658,50.84121050000001],[4.311438176357903,50.84121050000001],[4.311438176357903,50.832217296362764],[4.302444972720658,50.832217296362764]]]}},{"type":"Feature","properties":{"jobs":1308,"pop":16126,"pointCount":5,"homeWorkCommuteMedian":3519,"workHomeCommuteMedian":3290},"geometry":{"type":"Polygon","coordinates":[[[4.302444972720658,50.84121050000001],[4.302444972720658,50.850203703637256],[4.311438176357903,50.850203703637256],[4.311438176357903,50.84121050000001],[4.302444972720658,50.84121050000001]]]}},{"type":"Feature","properties":{"jobs":940,"pop":13858,"pointCount":5,"homeWorkCommuteMedian":4184,"workHomeCommuteMedian":4156},"geometry":{"type":"Polygon","coordinates":[[[4.302444972720658,50.850203703637256],[4.302444972720658,50.8591969072745],[4.311438176357903,50.8591969072745],[4.311438176357903,50.850203703637256],[4.302444972720658,50.850203703637256]]]}},{"type":"Feature","properties":{"jobs":339,"pop":9692,"pointCount":4,"homeWorkCommuteMedian":4718,"workHomeCommuteMedian":4368},"geometry":{"type":"Polygon","coordinates":[[[4.302444972720658,50.8591969072745],[4.302444972720658,50.86819011091175],[4.311438176357903,50.86819011091175],[4.311438176357903,50.8591969072745],[4.302444972720658,50.8591969072745]]]}},{"type":"Feature","properties":{"jobs":155,"pop":10292,"pointCount":6,"homeWorkCommuteMedian":5645,"workHomeCommuteMedian":4615},"geometry":{"type":"Polygon","coordinates":[[[4.302444972720658,50.86819011091175],[4.302444972720658,50.877183314548994],[4.311438176357903,50.877183314548994],[4.311438176357903,50.86819011091175],[4.302444972720658,50.86819011091175]]]}},{"type":"Feature","properties":{"jobs":10511,"pop":22,"pointCount":1,"homeWorkCommuteMedian":2422,"workHomeCommuteMedian":3054},"geometry":{"type":"Polygon","coordinates":[[[4.302444972720658,50.877183314548994],[4.302444972720658,50.88617651818624],[4.311438176357903,50.88617651818624],[4.311438176357903,50.877183314548994],[4.302444972720658,50.877183314548994]]]}},{"type":"Feature","properties":{"jobs":246,"pop":22,"pointCount":1,"homeWorkCommuteMedian":4427,"workHomeCommuteMedian":7274},"geometry":{"type":"Polygon","coordinates":[[[4.302444972720658,50.88617651818624],[4.302444972720658,50.895169721823486],[4.311438176357903,50.895169721823486],[4.311438176357903,50.88617651818624],[4.302444972720658,50.88617651818624]]]}},{"type":"Feature","properties":{"jobs":4366,"pop":3547,"pointCount":4,"homeWorkCommuteMedian":5191,"workHomeCommuteMedian":5677},"geometry":{"type":"Polygon","coordinates":[[[4.311438176357903,50.79624448181378],[4.311438176357903,50.805237685451026],[4.320431379995148,50.805237685451026],[4.320431379995148,50.79624448181378],[4.311438176357903,50.79624448181378]]]}},{"type":"Feature","properties":{"jobs":555,"pop":5594,"pointCount":3,"homeWorkCommuteMedian":4020,"workHomeCommuteMedian":3945},"geometry":{"type":"Polygon","coordinates":[[[4.311438176357903,50.805237685451026],[4.311438176357903,50.81423088908827],[4.320431379995148,50.81423088908827],[4.320431379995148,50.805237685451026],[4.311438176357903,50.805237685451026]]]}},{"type":"Feature","properties":{"jobs":4619,"pop":1626,"pointCount":1,"homeWorkCommuteMedian":4165,"workHomeCommuteMedian":3455},"geometry":{"type":"Polygon","coordinates":[[[4.311438176357903,50.81423088908827],[4.311438176357903,50.82322409272552],[4.320431379995148,50.82322409272552],[4.320431379995148,50.81423088908827],[4.311438176357903,50.81423088908827]]]}},{"type":"Feature","properties":{"jobs":1533,"pop":1474,"pointCount":1,"homeWorkCommuteMedian":3882,"workHomeCommuteMedian":4841},"geometry":{"type":"Polygon","coordinates":[[[4.311438176357903,50.82322409272552],[4.311438176357903,50.832217296362764],[4.320431379995148,50.832217296362764],[4.320431379995148,50.82322409272552],[4.311438176357903,50.82322409272552]]]}},{"type":"Feature","properties":{"jobs":1195,"pop":7232,"pointCount":3,"homeWorkCommuteMedian":4018,"workHomeCommuteMedian":3578},"geometry":{"type":"Polygon","coordinates":[[[4.311438176357903,50.832217296362764],[4.311438176357903,50.84121050000001],[4.320431379995148,50.84121050000001],[4.320431379995148,50.832217296362764],[4.311438176357903,50.832217296362764]]]}},{"type":"Feature","properties":{"jobs":1489,"pop":7539,"pointCount":5,"homeWorkCommuteMedian":4074,"workHomeCommuteMedian":2122},"geometry":{"type":"Polygon","coordinates":[[[4.311438176357903,50.84121050000001],[4.311438176357903,50.850203703637256],[4.320431379995148,50.850203703637256],[4.320431379995148,50.84121050000001],[4.311438176357903,50.84121050000001]]]}},{"type":"Feature","properties":{"jobs":1457,"pop":9688,"pointCount":6,"homeWorkCommuteMedian":4237,"workHomeCommuteMedian":3289},"geometry":{"type":"Polygon","coordinates":[[[4.311438176357903,50.850203703637256],[4.311438176357903,50.8591969072745],[4.320431379995148,50.8591969072745],[4.320431379995148,50.850203703637256],[4.311438176357903,50.850203703637256]]]}},{"type":"Feature","properties":{"jobs":35,"pop":4998,"pointCount":4,"homeWorkCommuteMedian":4536,"workHomeCommuteMedian":5834},"geometry":{"type":"Polygon","coordinates":[[[4.311438176357903,50.8591969072745],[4.311438176357903,50.86819011091175],[4.320431379995148,50.86819011091175],[4.320431379995148,50.8591969072745],[4.311438176357903,50.8591969072745]]]}},{"type":"Feature","properties":{"jobs":446,"pop":7947,"pointCount":6,"homeWorkCommuteMedian":4122,"workHomeCommuteMedian":5050},"geometry":{"type":"Polygon","coordinates":[[[4.311438176357903,50.86819011091175],[4.311438176357903,50.877183314548994],[4.320431379995148,50.877183314548994],[4.320431379995148,50.86819011091175],[4.311438176357903,50.86819011091175]]]}},{"type":"Feature","properties":{"jobs":189,"pop":3052,"pointCount":3,"homeWorkCommuteMedian":4280,"workHomeCommuteMedian":5256},"geometry":{"type":"Polygon","coordinates":[[[4.311438176357903,50.877183314548994],[4.311438176357903,50.88617651818624],[4.320431379995148,50.88617651818624],[4.320431379995148,50.877183314548994],[4.311438176357903,50.877183314548994]]]}},{"type":"Feature","properties":{"jobs":201,"pop":6162,"pointCount":2,"homeWorkCommuteMedian":5744,"workHomeCommuteMedian":3349},"geometry":{"type":"Polygon","coordinates":[[[4.311438176357903,50.88617651818624],[4.311438176357903,50.895169721823486],[4.320431379995148,50.895169721823486],[4.320431379995148,50.88617651818624],[4.311438176357903,50.88617651818624]]]}},{"type":"Feature","properties":{"jobs":9279,"pop":3212,"pointCount":2,"homeWorkCommuteMedian":4962,"workHomeCommuteMedian":3938},"geometry":{"type":"Polygon","coordinates":[[[4.320431379995148,50.77825807453929],[4.320431379995148,50.787251278176534],[4.3294245836323935,50.787251278176534],[4.3294245836323935,50.77825807453929],[4.320431379995148,50.77825807453929]]]}},{"type":"Feature","properties":{"jobs":182,"pop":3106,"pointCount":2,"homeWorkCommuteMedian":7042,"workHomeCommuteMedian":7324},"geometry":{"type":"Polygon","coordinates":[[[4.320431379995148,50.787251278176534],[4.320431379995148,50.79624448181378],[4.3294245836323935,50.79624448181378],[4.3294245836323935,50.787251278176534],[4.320431379995148,50.787251278176534]]]}},{"type":"Feature","properties":{"jobs":322,"pop":7238,"pointCount":5,"homeWorkCommuteMedian":5250,"workHomeCommuteMedian":4488},"geometry":{"type":"Polygon","coordinates":[[[4.320431379995148,50.79624448181378],[4.320431379995148,50.805237685451026],[4.3294245836323935,50.805237685451026],[4.3294245836323935,50.79624448181378],[4.320431379995148,50.79624448181378]]]}},{"type":"Feature","properties":{"jobs":137,"pop":6060,"pointCount":7,"homeWorkCommuteMedian":4013,"workHomeCommuteMedian":4918},"geometry":{"type":"Polygon","coordinates":[[[4.320431379995148,50.805237685451026],[4.320431379995148,50.81423088908827],[4.3294245836323935,50.81423088908827],[4.3294245836323935,50.805237685451026],[4.320431379995148,50.805237685451026]]]}},{"type":"Feature","properties":{"jobs":1568,"pop":7484,"pointCount":4,"homeWorkCommuteMedian":4001,"workHomeCommuteMedian":3903},"geometry":{"type":"Polygon","coordinates":[[[4.320431379995148,50.81423088908827],[4.320431379995148,50.82322409272552],[4.3294245836323935,50.82322409272552],[4.3294245836323935,50.81423088908827],[4.320431379995148,50.81423088908827]]]}},{"type":"Feature","properties":{"jobs":2865,"pop":948,"pointCount":3,"homeWorkCommuteMedian":3791,"workHomeCommuteMedian":1375},"geometry":{"type":"Polygon","coordinates":[[[4.320431379995148,50.82322409272552],[4.320431379995148,50.832217296362764],[4.3294245836323935,50.832217296362764],[4.3294245836323935,50.82322409272552],[4.320431379995148,50.82322409272552]]]}},{"type":"Feature","properties":{"jobs":2710,"pop":7589,"pointCount":4,"homeWorkCommuteMedian":3838,"workHomeCommuteMedian":2522},"geometry":{"type":"Polygon","coordinates":[[[4.320431379995148,50.832217296362764],[4.320431379995148,50.84121050000001],[4.3294245836323935,50.84121050000001],[4.3294245836323935,50.832217296362764],[4.320431379995148,50.832217296362764]]]}},{"type":"Feature","properties":{"jobs":1935,"pop":4358,"pointCount":4,"homeWorkCommuteMedian":2974,"workHomeCommuteMedian":4056},"geometry":{"type":"Polygon","coordinates":[[[4.320431379995148,50.84121050000001],[4.320431379995148,50.850203703637256],[4.3294245836323935,50.850203703637256],[4.3294245836323935,50.84121050000001],[4.320431379995148,50.84121050000001]]]}},{"type":"Feature","properties":{"jobs":984,"pop":11383,"pointCount":6,"homeWorkCommuteMedian":4179,"workHomeCommuteMedian":4956},"geometry":{"type":"Polygon","coordinates":[[[4.320431379995148,50.850203703637256],[4.320431379995148,50.8591969072745],[4.3294245836323935,50.8591969072745],[4.3294245836323935,50.850203703637256],[4.320431379995148,50.850203703637256]]]}},{"type":"Feature","properties":{"jobs":483,"pop":9669,"pointCount":4,"homeWorkCommuteMedian":4492,"workHomeCommuteMedian":3671},"geometry":{"type":"Polygon","coordinates":[[[4.320431379995148,50.8591969072745],[4.320431379995148,50.86819011091175],[4.3294245836323935,50.86819011091175],[4.3294245836323935,50.8591969072745],[4.320431379995148,50.8591969072745]]]}},{"type":"Feature","properties":{"jobs":2447,"pop":12390,"pointCount":4,"homeWorkCommuteMedian":3624,"workHomeCommuteMedian":4592},"geometry":{"type":"Polygon","coordinates":[[[4.320431379995148,50.86819011091175],[4.320431379995148,50.877183314548994],[4.3294245836323935,50.877183314548994],[4.3294245836323935,50.86819011091175],[4.320431379995148,50.86819011091175]]]}},{"type":"Feature","properties":{"jobs":804,"pop":8901,"pointCount":4,"homeWorkCommuteMedian":2814,"workHomeCommuteMedian":5644},"geometry":{"type":"Polygon","coordinates":[[[4.320431379995148,50.877183314548994],[4.320431379995148,50.88617651818624],[4.3294245836323935,50.88617651818624],[4.3294245836323935,50.877183314548994],[4.320431379995148,50.877183314548994]]]}},{"type":"Feature","properties":{"jobs":1267,"pop":5940,"pointCount":3,"homeWorkCommuteMedian":5242,"workHomeCommuteMedian":5219},"geometry":{"type":"Polygon","coordinates":[[[4.320431379995148,50.88617651818624],[4.320431379995148,50.895169721823486],[4.3294245836323935,50.895169721823486],[4.3294245836323935,50.88617651818624],[4.320431379995148,50.88617651818624]]]}},{"type":"Feature","properties":{"jobs":19555,"pop":3670,"pointCount":1,"homeWorkCommuteMedian":7092,"workHomeCommuteMedian":4226},"geometry":{"type":"Polygon","coordinates":[[[4.320431379995148,50.895169721823486],[4.320431379995148,50.90416292546073],[4.3294245836323935,50.90416292546073],[4.3294245836323935,50.895169721823486],[4.320431379995148,50.895169721823486]]]}},{"type":"Feature","properties":{"jobs":3,"pop":2181,"pointCount":3,"homeWorkCommuteMedian":6940,"workHomeCommuteMedian":10376},"geometry":{"type":"Polygon","coordinates":[[[4.3294245836323935,50.77825807453929],[4.3294245836323935,50.787251278176534],[4.338417787269639,50.787251278176534],[4.338417787269639,50.77825807453929],[4.3294245836323935,50.77825807453929]]]}},{"type":"Feature","properties":{"jobs":871,"pop":1224,"pointCount":1,"homeWorkCommuteMedian":3389,"workHomeCommuteMedian":3613},"geometry":{"type":"Polygon","coordinates":[[[4.3294245836323935,50.787251278176534],[4.3294245836323935,50.79624448181378],[4.338417787269639,50.79624448181378],[4.338417787269639,50.787251278176534],[4.3294245836323935,50.787251278176534]]]}},{"type":"Feature","properties":{"jobs":2692,"pop":5229,"pointCount":3,"homeWorkCommuteMedian":3766,"workHomeCommuteMedian":3046},"geometry":{"type":"Polygon","coordinates":[[[4.3294245836323935,50.79624448181378],[4.3294245836323935,50.805237685451026],[4.338417787269639,50.805237685451026],[4.338417787269639,50.79624448181378],[4.3294245836323935,50.79624448181378]]]}},{"type":"Feature","properties":{"jobs":267,"pop":9544,"pointCount":5,"homeWorkCommuteMedian":4641,"workHomeCommuteMedian":4826},"geometry":{"type":"Polygon","coordinates":[[[4.3294245836323935,50.805237685451026],[4.3294245836323935,50.81423088908827],[4.338417787269639,50.81423088908827],[4.338417787269639,50.805237685451026],[4.3294245836323935,50.805237685451026]]]}},{"type":"Feature","properties":{"jobs":1205,"pop":8530,"pointCount":7,"homeWorkCommuteMedian":3751,"workHomeCommuteMedian":3699},"geometry":{"type":"Polygon","coordinates":[[[4.3294245836323935,50.81423088908827],[4.3294245836323935,50.82322409272552],[4.338417787269639,50.82322409272552],[4.338417787269639,50.81423088908827],[4.3294245836323935,50.81423088908827]]]}},{"type":"Feature","properties":{"jobs":7471,"pop":14234,"pointCount":4,"homeWorkCommuteMedian":3187,"workHomeCommuteMedian":2941},"geometry":{"type":"Polygon","coordinates":[[[4.3294245836323935,50.82322409272552],[4.3294245836323935,50.832217296362764],[4.338417787269639,50.832217296362764],[4.338417787269639,50.82322409272552],[4.3294245836323935,50.82322409272552]]]}},{"type":"Feature","properties":{"jobs":11084,"pop":13845,"pointCount":7,"homeWorkCommuteMedian":2935,"workHomeCommuteMedian":2959},"geometry":{"type":"Polygon","coordinates":[[[4.3294245836323935,50.832217296362764],[4.3294245836323935,50.84121050000001],[4.338417787269639,50.84121050000001],[4.338417787269639,50.832217296362764],[4.3294245836323935,50.832217296362764]]]}},{"type":"Feature","properties":{"jobs":2287,"pop":9181,"pointCount":4,"homeWorkCommuteMedian":2842,"workHomeCommuteMedian":3624},"geometry":{"type":"Polygon","coordinates":[[[4.3294245836323935,50.84121050000001],[4.3294245836323935,50.850203703637256],[4.338417787269639,50.850203703637256],[4.338417787269639,50.84121050000001],[4.3294245836323935,50.84121050000001]]]}},{"type":"Feature","properties":{"jobs":3317,"pop":19608,"pointCount":7,"homeWorkCommuteMedian":3729,"workHomeCommuteMedian":3688},"geometry":{"type":"Polygon","coordinates":[[[4.3294245836323935,50.850203703637256],[4.3294245836323935,50.8591969072745],[4.338417787269639,50.8591969072745],[4.338417787269639,50.850203703637256],[4.3294245836323935,50.850203703637256]]]}},{"type":"Feature","properties":{"jobs":1799,"pop":14354,"pointCount":4,"homeWorkCommuteMedian":3204,"workHomeCommuteMedian":3429},"geometry":{"type":"Polygon","coordinates":[[[4.3294245836323935,50.8591969072745],[4.3294245836323935,50.86819011091175],[4.338417787269639,50.86819011091175],[4.338417787269639,50.8591969072745],[4.3294245836323935,50.8591969072745]]]}},{"type":"Feature","properties":{"jobs":3540,"pop":15014,"pointCount":3,"homeWorkCommuteMedian":5890,"workHomeCommuteMedian":2380},"geometry":{"type":"Polygon","coordinates":[[[4.3294245836323935,50.86819011091175],[4.3294245836323935,50.877183314548994],[4.338417787269639,50.877183314548994],[4.338417787269639,50.86819011091175],[4.3294245836323935,50.86819011091175]]]}},{"type":"Feature","properties":{"jobs":792,"pop":10080,"pointCount":3,"homeWorkCommuteMedian":5648,"workHomeCommuteMedian":8038},"geometry":{"type":"Polygon","coordinates":[[[4.3294245836323935,50.877183314548994],[4.3294245836323935,50.88617651818624],[4.338417787269639,50.88617651818624],[4.338417787269639,50.877183314548994],[4.3294245836323935,50.877183314548994]]]}},{"type":"Feature","properties":{"jobs":4156,"pop":5910,"pointCount":2,"homeWorkCommuteMedian":5487,"workHomeCommuteMedian":1751},"geometry":{"type":"Polygon","coordinates":[[[4.3294245836323935,50.88617651818624],[4.3294245836323935,50.895169721823486],[4.338417787269639,50.895169721823486],[4.338417787269639,50.88617651818624],[4.3294245836323935,50.88617651818624]]]}},{"type":"Feature","properties":{"jobs":7983,"pop":1306,"pointCount":1,"homeWorkCommuteMedian":6570,"workHomeCommuteMedian":5065},"geometry":{"type":"Polygon","coordinates":[[[4.3294245836323935,50.895169721823486],[4.3294245836323935,50.90416292546073],[4.338417787269639,50.90416292546073],[4.338417787269639,50.895169721823486],[4.3294245836323935,50.895169721823486]]]}},{"type":"Feature","properties":{"jobs":0,"pop":617,"pointCount":1,"homeWorkCommuteMedian":6352,"workHomeCommuteMedian":-1},"geometry":{"type":"Polygon","coordinates":[[[4.338417787269639,50.77825807453929],[4.338417787269639,50.787251278176534],[4.347410990906884,50.787251278176534],[4.347410990906884,50.77825807453929],[4.338417787269639,50.77825807453929]]]}},{"type":"Feature","properties":{"jobs":977,"pop":4127,"pointCount":1,"homeWorkCommuteMedian":4950,"workHomeCommuteMedian":2572},"geometry":{"type":"Polygon","coordinates":[[[4.338417787269639,50.787251278176534],[4.338417787269639,50.79624448181378],[4.347410990906884,50.79624448181378],[4.347410990906884,50.787251278176534],[4.338417787269639,50.787251278176534]]]}},{"type":"Feature","properties":{"jobs":363,"pop":6002,"pointCount":3,"homeWorkCommuteMedian":5035,"workHomeCommuteMedian":4717},"geometry":{"type":"Polygon","coordinates":[[[4.338417787269639,50.79624448181378],[4.338417787269639,50.805237685451026],[4.347410990906884,50.805237685451026],[4.347410990906884,50.79624448181378],[4.338417787269639,50.79624448181378]]]}},{"type":"Feature","properties":{"jobs":1775,"pop":7336,"pointCount":2,"homeWorkCommuteMedian":4336,"workHomeCommuteMedian":2040},"geometry":{"type":"Polygon","coordinates":[[[4.338417787269639,50.805237685451026],[4.338417787269639,50.81423088908827],[4.347410990906884,50.81423088908827],[4.347410990906884,50.805237685451026],[4.338417787269639,50.805237685451026]]]}},{"type":"Feature","properties":{"jobs":1249,"pop":6096,"pointCount":3,"homeWorkCommuteMedian":3704,"workHomeCommuteMedian":3133},"geometry":{"type":"Polygon","coordinates":[[[4.338417787269639,50.81423088908827],[4.338417787269639,50.82322409272552],[4.347410990906884,50.82322409272552],[4.347410990906884,50.81423088908827],[4.338417787269639,50.81423088908827]]]}},{"type":"Feature","properties":{"jobs":16728,"pop":18391,"pointCount":9,"homeWorkCommuteMedian":3058,"workHomeCommuteMedian":3005},"geometry":{"type":"Polygon","coordinates":[[[4.338417787269639,50.82322409272552],[4.338417787269639,50.832217296362764],[4.347410990906884,50.832217296362764],[4.347410990906884,50.82322409272552],[4.338417787269639,50.82322409272552]]]}},{"type":"Feature","properties":{"jobs":10217,"pop":11200,"pointCount":5,"homeWorkCommuteMedian":1601,"workHomeCommuteMedian":2752},"geometry":{"type":"Polygon","coordinates":[[[4.338417787269639,50.832217296362764],[4.338417787269639,50.84121050000001],[4.347410990906884,50.84121050000001],[4.347410990906884,50.832217296362764],[4.338417787269639,50.832217296362764]]]}},{"type":"Feature","properties":{"jobs":9860,"pop":14429,"pointCount":4,"homeWorkCommuteMedian":3953,"workHomeCommuteMedian":2929},"geometry":{"type":"Polygon","coordinates":[[[4.338417787269639,50.84121050000001],[4.338417787269639,50.850203703637256],[4.347410990906884,50.850203703637256],[4.347410990906884,50.84121050000001],[4.338417787269639,50.84121050000001]]]}},{"type":"Feature","properties":{"jobs":12373,"pop":12506,"pointCount":6,"homeWorkCommuteMedian":2880,"workHomeCommuteMedian":3492},"geometry":{"type":"Polygon","coordinates":[[[4.338417787269639,50.850203703637256],[4.338417787269639,50.8591969072745],[4.347410990906884,50.8591969072745],[4.347410990906884,50.850203703637256],[4.338417787269639,50.850203703637256]]]}},{"type":"Feature","properties":{"jobs":2416,"pop":9170,"pointCount":3,"homeWorkCommuteMedian":4884,"workHomeCommuteMedian":3459},"geometry":{"type":"Polygon","coordinates":[[[4.338417787269639,50.8591969072745],[4.338417787269639,50.86819011091175],[4.347410990906884,50.86819011091175],[4.347410990906884,50.8591969072745],[4.338417787269639,50.8591969072745]]]}},{"type":"Feature","properties":{"jobs":6314,"pop":14911,"pointCount":3,"homeWorkCommuteMedian":3121,"workHomeCommuteMedian":3249},"geometry":{"type":"Polygon","coordinates":[[[4.338417787269639,50.86819011091175],[4.338417787269639,50.877183314548994],[4.347410990906884,50.877183314548994],[4.347410990906884,50.86819011091175],[4.338417787269639,50.86819011091175]]]}},{"type":"Feature","properties":{"jobs":1716,"pop":5355,"pointCount":1,"homeWorkCommuteMedian":5000,"workHomeCommuteMedian":7165},"geometry":{"type":"Polygon","coordinates":[[[4.338417787269639,50.877183314548994],[4.338417787269639,50.88617651818624],[4.347410990906884,50.88617651818624],[4.347410990906884,50.877183314548994],[4.338417787269639,50.877183314548994]]]}},{"type":"Feature","properties":{"jobs":2540,"pop":5502,"pointCount":1,"homeWorkCommuteMedian":4610,"workHomeCommuteMedian":4923},"geometry":{"type":"Polygon","coordinates":[[[4.338417787269639,50.88617651818624],[4.338417787269639,50.895169721823486],[4.347410990906884,50.895169721823486],[4.347410990906884,50.88617651818624],[4.338417787269639,50.88617651818624]]]}},{"type":"Feature","properties":{"jobs":6277,"pop":180,"pointCount":1,"homeWorkCommuteMedian":6226,"workHomeCommuteMedian":5956},"geometry":{"type":"Polygon","coordinates":[[[4.338417787269639,50.895169721823486],[4.338417787269639,50.90416292546073],[4.347410990906884,50.90416292546073],[4.347410990906884,50.895169721823486],[4.338417787269639,50.895169721823486]]]}},{"type":"Feature","properties":{"jobs":0,"pop":738,"pointCount":1,"homeWorkCommuteMedian":8259,"workHomeCommuteMedian":-1},"geometry":{"type":"Polygon","coordinates":[[[4.347410990906884,50.77825807453929],[4.347410990906884,50.787251278176534],[4.356404194544129,50.787251278176534],[4.356404194544129,50.77825807453929],[4.347410990906884,50.77825807453929]]]}},{"type":"Feature","properties":{"jobs":7,"pop":2581,"pointCount":1,"homeWorkCommuteMedian":5829,"workHomeCommuteMedian":8180},"geometry":{"type":"Polygon","coordinates":[[[4.347410990906884,50.787251278176534],[4.347410990906884,50.79624448181378],[4.356404194544129,50.79624448181378],[4.356404194544129,50.787251278176534],[4.347410990906884,50.787251278176534]]]}},{"type":"Feature","properties":{"jobs":19,"pop":2261,"pointCount":1,"homeWorkCommuteMedian":8986,"workHomeCommuteMedian":5127},"geometry":{"type":"Polygon","coordinates":[[[4.347410990906884,50.79624448181378],[4.347410990906884,50.805237685451026],[4.356404194544129,50.805237685451026],[4.356404194544129,50.79624448181378],[4.347410990906884,50.79624448181378]]]}},{"type":"Feature","properties":{"jobs":388,"pop":5440,"pointCount":3,"homeWorkCommuteMedian":4997,"workHomeCommuteMedian":4955},"geometry":{"type":"Polygon","coordinates":[[[4.347410990906884,50.805237685451026],[4.347410990906884,50.81423088908827],[4.356404194544129,50.81423088908827],[4.356404194544129,50.805237685451026],[4.347410990906884,50.805237685451026]]]}},{"type":"Feature","properties":{"jobs":2982,"pop":8564,"pointCount":4,"homeWorkCommuteMedian":3604,"workHomeCommuteMedian":4269},"geometry":{"type":"Polygon","coordinates":[[[4.347410990906884,50.81423088908827],[4.347410990906884,50.82322409272552],[4.356404194544129,50.82322409272552],[4.356404194544129,50.81423088908827],[4.347410990906884,50.81423088908827]]]}},{"type":"Feature","properties":{"jobs":16630,"pop":13403,"pointCount":6,"homeWorkCommuteMedian":3109,"workHomeCommuteMedian":2593},"geometry":{"type":"Polygon","coordinates":[[[4.347410990906884,50.82322409272552],[4.347410990906884,50.832217296362764],[4.356404194544129,50.832217296362764],[4.356404194544129,50.82322409272552],[4.347410990906884,50.82322409272552]]]}},{"type":"Feature","properties":{"jobs":20339,"pop":10056,"pointCount":6,"homeWorkCommuteMedian":2888,"workHomeCommuteMedian":3037},"geometry":{"type":"Polygon","coordinates":[[[4.347410990906884,50.832217296362764],[4.347410990906884,50.84121050000001],[4.356404194544129,50.84121050000001],[4.356404194544129,50.832217296362764],[4.347410990906884,50.832217296362764]]]}},{"type":"Feature","properties":{"jobs":82229,"pop":6407,"pointCount":5,"homeWorkCommuteMedian":1318,"workHomeCommuteMedian":3297},"geometry":{"type":"Polygon","coordinates":[[[4.347410990906884,50.84121050000001],[4.347410990906884,50.850203703637256],[4.356404194544129,50.850203703637256],[4.356404194544129,50.84121050000001],[4.347410990906884,50.84121050000001]]]}},{"type":"Feature","properties":{"jobs":18766,"pop":8695,"pointCount":5,"homeWorkCommuteMedian":2210,"workHomeCommuteMedian":3570},"geometry":{"type":"Polygon","coordinates":[[[4.347410990906884,50.850203703637256],[4.347410990906884,50.8591969072745],[4.356404194544129,50.8591969072745],[4.356404194544129,50.850203703637256],[4.347410990906884,50.850203703637256]]]}},{"type":"Feature","properties":{"jobs":8633,"pop":6840,"pointCount":5,"homeWorkCommuteMedian":3195,"workHomeCommuteMedian":3741},"geometry":{"type":"Polygon","coordinates":[[[4.347410990906884,50.8591969072745],[4.347410990906884,50.86819011091175],[4.356404194544129,50.86819011091175],[4.356404194544129,50.8591969072745],[4.347410990906884,50.8591969072745]]]}},{"type":"Feature","properties":{"jobs":7819,"pop":13114,"pointCount":2,"homeWorkCommuteMedian":3327,"workHomeCommuteMedian":4035},"geometry":{"type":"Polygon","coordinates":[[[4.347410990906884,50.86819011091175],[4.347410990906884,50.877183314548994],[4.356404194544129,50.877183314548994],[4.356404194544129,50.86819011091175],[4.347410990906884,50.86819011091175]]]}},{"type":"Feature","properties":{"jobs":744,"pop":4001,"pointCount":3,"homeWorkCommuteMedian":3440,"workHomeCommuteMedian":5084},"geometry":{"type":"Polygon","coordinates":[[[4.347410990906884,50.877183314548994],[4.347410990906884,50.88617651818624],[4.356404194544129,50.88617651818624],[4.356404194544129,50.877183314548994],[4.347410990906884,50.877183314548994]]]}},{"type":"Feature","properties":{"jobs":17493,"pop":3405,"pointCount":2,"homeWorkCommuteMedian":2923,"workHomeCommuteMedian":4429},"geometry":{"type":"Polygon","coordinates":[[[4.347410990906884,50.895169721823486],[4.347410990906884,50.90416292546073],[4.356404194544129,50.90416292546073],[4.356404194544129,50.895169721823486],[4.347410990906884,50.895169721823486]]]}},{"type":"Feature","properties":{"jobs":845,"pop":2773,"pointCount":1,"homeWorkCommuteMedian":6133,"workHomeCommuteMedian":2891},"geometry":{"type":"Polygon","coordinates":[[[4.356404194544129,50.787251278176534],[4.356404194544129,50.79624448181378],[4.365397398181374,50.79624448181378],[4.365397398181374,50.787251278176534],[4.356404194544129,50.787251278176534]]]}},{"type":"Feature","properties":{"jobs":1489,"pop":3593,"pointCount":3,"homeWorkCommuteMedian":3968,"workHomeCommuteMedian":3558},"geometry":{"type":"Polygon","coordinates":[[[4.356404194544129,50.79624448181378],[4.356404194544129,50.805237685451026],[4.365397398181374,50.805237685451026],[4.365397398181374,50.79624448181378],[4.356404194544129,50.79624448181378]]]}},{"type":"Feature","properties":{"jobs":443,"pop":8217,"pointCount":2,"homeWorkCommuteMedian":4308,"workHomeCommuteMedian":4636},"geometry":{"type":"Polygon","coordinates":[[[4.356404194544129,50.805237685451026],[4.356404194544129,50.81423088908827],[4.365397398181374,50.81423088908827],[4.365397398181374,50.805237685451026],[4.356404194544129,50.805237685451026]]]}},{"type":"Feature","properties":{"jobs":2143,"pop":10008,"pointCount":4,"homeWorkCommuteMedian":2805,"workHomeCommuteMedian":3502},"geometry":{"type":"Polygon","coordinates":[[[4.356404194544129,50.81423088908827],[4.356404194544129,50.82322409272552],[4.365397398181374,50.82322409272552],[4.365397398181374,50.81423088908827],[4.356404194544129,50.81423088908827]]]}},{"type":"Feature","properties":{"jobs":6526,"pop":9793,"pointCount":7,"homeWorkCommuteMedian":2493,"workHomeCommuteMedian":3427},"geometry":{"type":"Polygon","coordinates":[[[4.356404194544129,50.82322409272552],[4.356404194544129,50.832217296362764],[4.365397398181374,50.832217296362764],[4.365397398181374,50.82322409272552],[4.356404194544129,50.82322409272552]]]}},{"type":"Feature","properties":{"jobs":21021,"pop":7584,"pointCount":5,"homeWorkCommuteMedian":2691,"workHomeCommuteMedian":3658},"geometry":{"type":"Polygon","coordinates":[[[4.356404194544129,50.832217296362764],[4.356404194544129,50.84121050000001],[4.365397398181374,50.84121050000001],[4.365397398181374,50.832217296362764],[4.356404194544129,50.832217296362764]]]}},{"type":"Feature","properties":{"jobs":18983,"pop":143,"pointCount":4,"homeWorkCommuteMedian":2742,"workHomeCommuteMedian":2804},"geometry":{"type":"Polygon","coordinates":[[[4.356404194544129,50.84121050000001],[4.356404194544129,50.850203703637256],[4.365397398181374,50.850203703637256],[4.365397398181374,50.84121050000001],[4.356404194544129,50.84121050000001]]]}},{"type":"Feature","properties":{"jobs":30031,"pop":4342,"pointCount":8,"homeWorkCommuteMedian":1975,"workHomeCommuteMedian":4032},"geometry":{"type":"Polygon","coordinates":[[[4.356404194544129,50.850203703637256],[4.356404194544129,50.8591969072745],[4.365397398181374,50.8591969072745],[4.365397398181374,50.850203703637256],[4.356404194544129,50.850203703637256]]]}},{"type":"Feature","properties":{"jobs":3182,"pop":13209,"pointCount":4,"homeWorkCommuteMedian":5103,"workHomeCommuteMedian":3636},"geometry":{"type":"Polygon","coordinates":[[[4.356404194544129,50.8591969072745],[4.356404194544129,50.86819011091175],[4.365397398181374,50.86819011091175],[4.365397398181374,50.8591969072745],[4.356404194544129,50.8591969072745]]]}},{"type":"Feature","properties":{"jobs":4997,"pop":1118,"pointCount":1,"homeWorkCommuteMedian":4323,"workHomeCommuteMedian":2775},"geometry":{"type":"Polygon","coordinates":[[[4.356404194544129,50.86819011091175],[4.356404194544129,50.877183314548994],[4.365397398181374,50.877183314548994],[4.365397398181374,50.86819011091175],[4.356404194544129,50.86819011091175]]]}},{"type":"Feature","properties":{"jobs":577,"pop":2235,"pointCount":2,"homeWorkCommuteMedian":5131,"workHomeCommuteMedian":2688},"geometry":{"type":"Polygon","coordinates":[[[4.356404194544129,50.877183314548994],[4.356404194544129,50.88617651818624],[4.365397398181374,50.88617651818624],[4.365397398181374,50.877183314548994],[4.356404194544129,50.877183314548994]]]}},{"type":"Feature","properties":{"jobs":1388,"pop":5720,"pointCount":1,"homeWorkCommuteMedian":4299,"workHomeCommuteMedian":6771},"geometry":{"type":"Polygon","coordinates":[[[4.356404194544129,50.88617651818624],[4.356404194544129,50.895169721823486],[4.365397398181374,50.895169721823486],[4.365397398181374,50.88617651818624],[4.356404194544129,50.88617651818624]]]}},{"type":"Feature","properties":{"jobs":2636,"pop":946,"pointCount":1,"homeWorkCommuteMedian":4583,"workHomeCommuteMedian":2793},"geometry":{"type":"Polygon","coordinates":[[[4.356404194544129,50.895169721823486],[4.356404194544129,50.90416292546073],[4.365397398181374,50.90416292546073],[4.365397398181374,50.895169721823486],[4.356404194544129,50.895169721823486]]]}},{"type":"Feature","properties":{"jobs":776,"pop":3277,"pointCount":1,"homeWorkCommuteMedian":5266,"workHomeCommuteMedian":6383},"geometry":{"type":"Polygon","coordinates":[[[4.365397398181374,50.77825807453929],[4.365397398181374,50.787251278176534],[4.374390601818619,50.787251278176534],[4.374390601818619,50.77825807453929],[4.365397398181374,50.77825807453929]]]}},{"type":"Feature","properties":{"jobs":55,"pop":2658,"pointCount":2,"homeWorkCommuteMedian":3607,"workHomeCommuteMedian":8584},"geometry":{"type":"Polygon","coordinates":[[[4.365397398181374,50.787251278176534],[4.365397398181374,50.79624448181378],[4.374390601818619,50.79624448181378],[4.374390601818619,50.787251278176534],[4.365397398181374,50.787251278176534]]]}},{"type":"Feature","properties":{"jobs":243,"pop":1010,"pointCount":2,"homeWorkCommuteMedian":4379,"workHomeCommuteMedian":3409},"geometry":{"type":"Polygon","coordinates":[[[4.365397398181374,50.79624448181378],[4.365397398181374,50.805237685451026],[4.374390601818619,50.805237685451026],[4.374390601818619,50.79624448181378],[4.365397398181374,50.79624448181378]]]}},{"type":"Feature","properties":{"jobs":134,"pop":1502,"pointCount":1,"homeWorkCommuteMedian":4991,"workHomeCommuteMedian":4455},"geometry":{"type":"Polygon","coordinates":[[[4.365397398181374,50.805237685451026],[4.365397398181374,50.81423088908827],[4.374390601818619,50.81423088908827],[4.374390601818619,50.805237685451026],[4.365397398181374,50.805237685451026]]]}},{"type":"Feature","properties":{"jobs":2906,"pop":6920,"pointCount":5,"homeWorkCommuteMedian":3565,"workHomeCommuteMedian":3137},"geometry":{"type":"Polygon","coordinates":[[[4.365397398181374,50.81423088908827],[4.365397398181374,50.82322409272552],[4.374390601818619,50.82322409272552],[4.374390601818619,50.81423088908827],[4.365397398181374,50.81423088908827]]]}},{"type":"Feature","properties":{"jobs":6249,"pop":10151,"pointCount":6,"homeWorkCommuteMedian":2511,"workHomeCommuteMedian":2978},"geometry":{"type":"Polygon","coordinates":[[[4.365397398181374,50.82322409272552],[4.365397398181374,50.832217296362764],[4.374390601818619,50.832217296362764],[4.374390601818619,50.82322409272552],[4.365397398181374,50.82322409272552]]]}},{"type":"Feature","properties":{"jobs":9596,"pop":9471,"pointCount":5,"homeWorkCommuteMedian":2529,"workHomeCommuteMedian":3945},"geometry":{"type":"Polygon","coordinates":[[[4.365397398181374,50.832217296362764],[4.365397398181374,50.84121050000001],[4.374390601818619,50.84121050000001],[4.374390601818619,50.832217296362764],[4.365397398181374,50.832217296362764]]]}},{"type":"Feature","properties":{"jobs":73504,"pop":7195,"pointCount":6,"homeWorkCommuteMedian":2038,"workHomeCommuteMedian":2988},"geometry":{"type":"Polygon","coordinates":[[[4.365397398181374,50.84121050000001],[4.365397398181374,50.850203703637256],[4.374390601818619,50.850203703637256],[4.374390601818619,50.84121050000001],[4.365397398181374,50.84121050000001]]]}},{"type":"Feature","properties":{"jobs":31483,"pop":15540,"pointCount":5,"homeWorkCommuteMedian":1510,"workHomeCommuteMedian":3529},"geometry":{"type":"Polygon","coordinates":[[[4.365397398181374,50.850203703637256],[4.365397398181374,50.8591969072745],[4.374390601818619,50.8591969072745],[4.374390601818619,50.850203703637256],[4.365397398181374,50.850203703637256]]]}},{"type":"Feature","properties":{"jobs":6730,"pop":13732,"pointCount":4,"homeWorkCommuteMedian":4311,"workHomeCommuteMedian":2595},"geometry":{"type":"Polygon","coordinates":[[[4.365397398181374,50.8591969072745],[4.365397398181374,50.86819011091175],[4.374390601818619,50.86819011091175],[4.374390601818619,50.8591969072745],[4.365397398181374,50.8591969072745]]]}},{"type":"Feature","properties":{"jobs":598,"pop":1541,"pointCount":1,"homeWorkCommuteMedian":7416,"workHomeCommuteMedian":3652},"geometry":{"type":"Polygon","coordinates":[[[4.365397398181374,50.86819011091175],[4.365397398181374,50.877183314548994],[4.374390601818619,50.877183314548994],[4.374390601818619,50.86819011091175],[4.365397398181374,50.86819011091175]]]}},{"type":"Feature","properties":{"jobs":606,"pop":1901,"pointCount":2,"homeWorkCommuteMedian":2644,"workHomeCommuteMedian":5940},"geometry":{"type":"Polygon","coordinates":[[[4.365397398181374,50.88617651818624],[4.365397398181374,50.895169721823486],[4.374390601818619,50.895169721823486],[4.374390601818619,50.88617651818624],[4.365397398181374,50.88617651818624]]]}},{"type":"Feature","properties":{"jobs":1058,"pop":2449,"pointCount":1,"homeWorkCommuteMedian":2765,"workHomeCommuteMedian":7502},"geometry":{"type":"Polygon","coordinates":[[[4.365397398181374,50.895169721823486],[4.365397398181374,50.90416292546073],[4.374390601818619,50.90416292546073],[4.374390601818619,50.895169721823486],[4.365397398181374,50.895169721823486]]]}},{"type":"Feature","properties":{"jobs":74,"pop":338,"pointCount":1,"homeWorkCommuteMedian":6879,"workHomeCommuteMedian":982},"geometry":{"type":"Polygon","coordinates":[[[4.374390601818619,50.77825807453929],[4.374390601818619,50.787251278176534],[4.383383805455864,50.787251278176534],[4.383383805455864,50.77825807453929],[4.374390601818619,50.77825807453929]]]}},{"type":"Feature","properties":{"jobs":1037,"pop":3960,"pointCount":3,"homeWorkCommuteMedian":4902,"workHomeCommuteMedian":5833},"geometry":{"type":"Polygon","coordinates":[[[4.374390601818619,50.787251278176534],[4.374390601818619,50.79624448181378],[4.383383805455864,50.79624448181378],[4.383383805455864,50.787251278176534],[4.374390601818619,50.787251278176534]]]}},{"type":"Feature","properties":{"jobs":173,"pop":360,"pointCount":1,"homeWorkCommuteMedian":6448,"workHomeCommuteMedian":6014},"geometry":{"type":"Polygon","coordinates":[[[4.374390601818619,50.79624448181378],[4.374390601818619,50.805237685451026],[4.383383805455864,50.805237685451026],[4.383383805455864,50.79624448181378],[4.374390601818619,50.79624448181378]]]}},{"type":"Feature","properties":{"jobs":4156,"pop":8928,"pointCount":2,"homeWorkCommuteMedian":2593,"workHomeCommuteMedian":2892},"geometry":{"type":"Polygon","coordinates":[[[4.374390601818619,50.805237685451026],[4.374390601818619,50.81423088908827],[4.383383805455864,50.81423088908827],[4.383383805455864,50.805237685451026],[4.374390601818619,50.805237685451026]]]}},{"type":"Feature","properties":{"jobs":2202,"pop":4251,"pointCount":3,"homeWorkCommuteMedian":6061,"workHomeCommuteMedian":3443},"geometry":{"type":"Polygon","coordinates":[[[4.374390601818619,50.81423088908827],[4.374390601818619,50.82322409272552],[4.383383805455864,50.82322409272552],[4.383383805455864,50.81423088908827],[4.374390601818619,50.81423088908827]]]}},{"type":"Feature","properties":{"jobs":1806,"pop":12530,"pointCount":5,"homeWorkCommuteMedian":2798,"workHomeCommuteMedian":4365},"geometry":{"type":"Polygon","coordinates":[[[4.374390601818619,50.82322409272552],[4.374390601818619,50.832217296362764],[4.383383805455864,50.832217296362764],[4.383383805455864,50.82322409272552],[4.374390601818619,50.82322409272552]]]}},{"type":"Feature","properties":{"jobs":7344,"pop":6158,"pointCount":5,"homeWorkCommuteMedian":3557,"workHomeCommuteMedian":3351},"geometry":{"type":"Polygon","coordinates":[[[4.374390601818619,50.832217296362764],[4.374390601818619,50.84121050000001],[4.383383805455864,50.84121050000001],[4.383383805455864,50.832217296362764],[4.374390601818619,50.832217296362764]]]}},{"type":"Feature","properties":{"jobs":22544,"pop":9057,"pointCount":5,"homeWorkCommuteMedian":2814,"workHomeCommuteMedian":3364},"geometry":{"type":"Polygon","coordinates":[[[4.374390601818619,50.84121050000001],[4.374390601818619,50.850203703637256],[4.383383805455864,50.850203703637256],[4.383383805455864,50.84121050000001],[4.374390601818619,50.84121050000001]]]}},{"type":"Feature","properties":{"jobs":13296,"pop":16776,"pointCount":5,"homeWorkCommuteMedian":5071,"workHomeCommuteMedian":3121},"geometry":{"type":"Polygon","coordinates":[[[4.374390601818619,50.850203703637256],[4.374390601818619,50.8591969072745],[4.383383805455864,50.8591969072745],[4.383383805455864,50.850203703637256],[4.374390601818619,50.850203703637256]]]}},{"type":"Feature","properties":{"jobs":1561,"pop":12858,"pointCount":5,"homeWorkCommuteMedian":3436,"workHomeCommuteMedian":4037},"geometry":{"type":"Polygon","coordinates":[[[4.374390601818619,50.8591969072745],[4.374390601818619,50.86819011091175],[4.383383805455864,50.86819011091175],[4.383383805455864,50.8591969072745],[4.374390601818619,50.8591969072745]]]}},{"type":"Feature","properties":{"jobs":4373,"pop":20744,"pointCount":7,"homeWorkCommuteMedian":3483,"workHomeCommuteMedian":3491},"geometry":{"type":"Polygon","coordinates":[[[4.374390601818619,50.86819011091175],[4.374390601818619,50.877183314548994],[4.383383805455864,50.877183314548994],[4.383383805455864,50.86819011091175],[4.374390601818619,50.86819011091175]]]}},{"type":"Feature","properties":{"jobs":437,"pop":1787,"pointCount":2,"homeWorkCommuteMedian":4394,"workHomeCommuteMedian":4819},"geometry":{"type":"Polygon","coordinates":[[[4.374390601818619,50.877183314548994],[4.374390601818619,50.88617651818624],[4.383383805455864,50.88617651818624],[4.383383805455864,50.877183314548994],[4.374390601818619,50.877183314548994]]]}},{"type":"Feature","properties":{"jobs":388,"pop":3238,"pointCount":1,"homeWorkCommuteMedian":3885,"workHomeCommuteMedian":7776},"geometry":{"type":"Polygon","coordinates":[[[4.374390601818619,50.88617651818624],[4.374390601818619,50.895169721823486],[4.383383805455864,50.895169721823486],[4.383383805455864,50.88617651818624],[4.374390601818619,50.88617651818624]]]}},{"type":"Feature","properties":{"jobs":823,"pop":2628,"pointCount":2,"homeWorkCommuteMedian":3657,"workHomeCommuteMedian":5914},"geometry":{"type":"Polygon","coordinates":[[[4.374390601818619,50.895169721823486],[4.374390601818619,50.90416292546073],[4.383383805455864,50.90416292546073],[4.383383805455864,50.895169721823486],[4.374390601818619,50.895169721823486]]]}},{"type":"Feature","properties":{"jobs":82,"pop":2015,"pointCount":2,"homeWorkCommuteMedian":5453,"workHomeCommuteMedian":6026},"geometry":{"type":"Polygon","coordinates":[[[4.383383805455864,50.79624448181378],[4.383383805455864,50.805237685451026],[4.392377009093109,50.805237685451026],[4.392377009093109,50.79624448181378],[4.383383805455864,50.79624448181378]]]}},{"type":"Feature","properties":{"jobs":1055,"pop":5694,"pointCount":4,"homeWorkCommuteMedian":5194,"workHomeCommuteMedian":3958},"geometry":{"type":"Polygon","coordinates":[[[4.383383805455864,50.805237685451026],[4.383383805455864,50.81423088908827],[4.392377009093109,50.81423088908827],[4.392377009093109,50.805237685451026],[4.383383805455864,50.805237685451026]]]}},{"type":"Feature","properties":{"jobs":5257,"pop":12543,"pointCount":5,"homeWorkCommuteMedian":3104,"workHomeCommuteMedian":3336},"geometry":{"type":"Polygon","coordinates":[[[4.383383805455864,50.81423088908827],[4.383383805455864,50.82322409272552],[4.392377009093109,50.82322409272552],[4.392377009093109,50.81423088908827],[4.383383805455864,50.81423088908827]]]}},{"type":"Feature","properties":{"jobs":2403,"pop":12906,"pointCount":4,"homeWorkCommuteMedian":2831,"workHomeCommuteMedian":3994},"geometry":{"type":"Polygon","coordinates":[[[4.383383805455864,50.82322409272552],[4.383383805455864,50.832217296362764],[4.392377009093109,50.832217296362764],[4.392377009093109,50.82322409272552],[4.383383805455864,50.82322409272552]]]}},{"type":"Feature","properties":{"jobs":5552,"pop":10611,"pointCount":4,"homeWorkCommuteMedian":2515,"workHomeCommuteMedian":3502},"geometry":{"type":"Polygon","coordinates":[[[4.383383805455864,50.832217296362764],[4.383383805455864,50.84121050000001],[4.392377009093109,50.84121050000001],[4.392377009093109,50.832217296362764],[4.383383805455864,50.832217296362764]]]}},{"type":"Feature","properties":{"jobs":19789,"pop":10043,"pointCount":3,"homeWorkCommuteMedian":6381,"workHomeCommuteMedian":3404},"geometry":{"type":"Polygon","coordinates":[[[4.383383805455864,50.84121050000001],[4.383383805455864,50.850203703637256],[4.392377009093109,50.850203703637256],[4.392377009093109,50.84121050000001],[4.383383805455864,50.84121050000001]]]}},{"type":"Feature","properties":{"jobs":2480,"pop":11404,"pointCount":4,"homeWorkCommuteMedian":3122,"workHomeCommuteMedian":5072},"geometry":{"type":"Polygon","coordinates":[[[4.383383805455864,50.850203703637256],[4.383383805455864,50.8591969072745],[4.392377009093109,50.8591969072745],[4.392377009093109,50.850203703637256],[4.383383805455864,50.850203703637256]]]}},{"type":"Feature","properties":{"jobs":312,"pop":4356,"pointCount":3,"homeWorkCommuteMedian":4137,"workHomeCommuteMedian":4828},"geometry":{"type":"Polygon","coordinates":[[[4.383383805455864,50.8591969072745],[4.383383805455864,50.86819011091175],[4.392377009093109,50.86819011091175],[4.392377009093109,50.8591969072745],[4.383383805455864,50.8591969072745]]]}},{"type":"Feature","properties":{"jobs":1847,"pop":11489,"pointCount":4,"homeWorkCommuteMedian":3755,"workHomeCommuteMedian":2438},"geometry":{"type":"Polygon","coordinates":[[[4.383383805455864,50.86819011091175],[4.383383805455864,50.877183314548994],[4.392377009093109,50.877183314548994],[4.392377009093109,50.86819011091175],[4.383383805455864,50.86819011091175]]]}},{"type":"Feature","properties":{"jobs":806,"pop":4047,"pointCount":3,"homeWorkCommuteMedian":3957,"workHomeCommuteMedian":3979},"geometry":{"type":"Polygon","coordinates":[[[4.383383805455864,50.877183314548994],[4.383383805455864,50.88617651818624],[4.392377009093109,50.88617651818624],[4.392377009093109,50.877183314548994],[4.383383805455864,50.877183314548994]]]}},{"type":"Feature","properties":{"jobs":6026,"pop":6269,"pointCount":3,"homeWorkCommuteMedian":2589,"workHomeCommuteMedian":5694},"geometry":{"type":"Polygon","coordinates":[[[4.383383805455864,50.88617651818624],[4.383383805455864,50.895169721823486],[4.392377009093109,50.895169721823486],[4.392377009093109,50.88617651818624],[4.383383805455864,50.88617651818624]]]}},{"type":"Feature","properties":{"jobs":692,"pop":4254,"pointCount":3,"homeWorkCommuteMedian":3113,"workHomeCommuteMedian":6588},"geometry":{"type":"Polygon","coordinates":[[[4.383383805455864,50.895169721823486],[4.383383805455864,50.90416292546073],[4.392377009093109,50.90416292546073],[4.392377009093109,50.895169721823486],[4.383383805455864,50.895169721823486]]]}},{"type":"Feature","properties":{"jobs":0,"pop":9,"pointCount":1,"homeWorkCommuteMedian":4873,"workHomeCommuteMedian":-1},"geometry":{"type":"Polygon","coordinates":[[[4.392377009093109,50.77825807453929],[4.392377009093109,50.787251278176534],[4.401370212730354,50.787251278176534],[4.401370212730354,50.77825807453929],[4.392377009093109,50.77825807453929]]]}},{"type":"Feature","properties":{"jobs":683,"pop":4284,"pointCount":4,"homeWorkCommuteMedian":6091,"workHomeCommuteMedian":5892},"geometry":{"type":"Polygon","coordinates":[[[4.392377009093109,50.79624448181378],[4.392377009093109,50.805237685451026],[4.401370212730354,50.805237685451026],[4.401370212730354,50.79624448181378],[4.392377009093109,50.79624448181378]]]}},{"type":"Feature","properties":{"jobs":714,"pop":3218,"pointCount":5,"homeWorkCommuteMedian":4691,"workHomeCommuteMedian":2252},"geometry":{"type":"Polygon","coordinates":[[[4.392377009093109,50.805237685451026],[4.392377009093109,50.81423088908827],[4.401370212730354,50.81423088908827],[4.401370212730354,50.805237685451026],[4.392377009093109,50.805237685451026]]]}},{"type":"Feature","properties":{"jobs":3901,"pop":2036,"pointCount":3,"homeWorkCommuteMedian":4342,"workHomeCommuteMedian":2640},"geometry":{"type":"Polygon","coordinates":[[[4.392377009093109,50.81423088908827],[4.392377009093109,50.82322409272552],[4.401370212730354,50.82322409272552],[4.401370212730354,50.81423088908827],[4.392377009093109,50.81423088908827]]]}},{"type":"Feature","properties":{"jobs":3936,"pop":8481,"pointCount":3,"homeWorkCommuteMedian":3680,"workHomeCommuteMedian":2358},"geometry":{"type":"Polygon","coordinates":[[[4.392377009093109,50.82322409272552],[4.392377009093109,50.832217296362764],[4.401370212730354,50.832217296362764],[4.401370212730354,50.82322409272552],[4.392377009093109,50.82322409272552]]]}},{"type":"Feature","properties":{"jobs":5880,"pop":7173,"pointCount":4,"homeWorkCommuteMedian":6742,"workHomeCommuteMedian":2264},"geometry":{"type":"Polygon","coordinates":[[[4.392377009093109,50.832217296362764],[4.392377009093109,50.84121050000001],[4.401370212730354,50.84121050000001],[4.401370212730354,50.832217296362764],[4.392377009093109,50.832217296362764]]]}},{"type":"Feature","properties":{"jobs":4009,"pop":11249,"pointCount":4,"homeWorkCommuteMedian":3014,"workHomeCommuteMedian":3623},"geometry":{"type":"Polygon","coordinates":[[[4.392377009093109,50.84121050000001],[4.392377009093109,50.850203703637256],[4.401370212730354,50.850203703637256],[4.401370212730354,50.84121050000001],[4.392377009093109,50.84121050000001]]]}},{"type":"Feature","properties":{"jobs":1333,"pop":8858,"pointCount":3,"homeWorkCommuteMedian":2545,"workHomeCommuteMedian":5216},"geometry":{"type":"Polygon","coordinates":[[[4.392377009093109,50.850203703637256],[4.392377009093109,50.8591969072745],[4.401370212730354,50.8591969072745],[4.401370212730354,50.850203703637256],[4.392377009093109,50.850203703637256]]]}},{"type":"Feature","properties":{"jobs":832,"pop":4594,"pointCount":5,"homeWorkCommuteMedian":3773,"workHomeCommuteMedian":4666},"geometry":{"type":"Polygon","coordinates":[[[4.392377009093109,50.8591969072745],[4.392377009093109,50.86819011091175],[4.401370212730354,50.86819011091175],[4.401370212730354,50.8591969072745],[4.392377009093109,50.8591969072745]]]}},{"type":"Feature","properties":{"jobs":4300,"pop":8587,"pointCount":3,"homeWorkCommuteMedian":3413,"workHomeCommuteMedian":3862},"geometry":{"type":"Polygon","coordinates":[[[4.392377009093109,50.86819011091175],[4.392377009093109,50.877183314548994],[4.401370212730354,50.877183314548994],[4.401370212730354,50.86819011091175],[4.392377009093109,50.86819011091175]]]}},{"type":"Feature","properties":{"jobs":2250,"pop":5802,"pointCount":4,"homeWorkCommuteMedian":3278,"workHomeCommuteMedian":3894},"geometry":{"type":"Polygon","coordinates":[[[4.392377009093109,50.877183314548994],[4.392377009093109,50.88617651818624],[4.401370212730354,50.88617651818624],[4.401370212730354,50.877183314548994],[4.392377009093109,50.877183314548994]]]}},{"type":"Feature","properties":{"jobs":29,"pop":514,"pointCount":3,"homeWorkCommuteMedian":6607,"workHomeCommuteMedian":5507},"geometry":{"type":"Polygon","coordinates":[[[4.401370212730354,50.787251278176534],[4.401370212730354,50.79624448181378],[4.410363416367599,50.79624448181378],[4.410363416367599,50.787251278176534],[4.401370212730354,50.787251278176534]]]}},{"type":"Feature","properties":{"jobs":797,"pop":4433,"pointCount":4,"homeWorkCommuteMedian":6332,"workHomeCommuteMedian":3061},"geometry":{"type":"Polygon","coordinates":[[[4.401370212730354,50.79624448181378],[4.401370212730354,50.805237685451026],[4.410363416367599,50.805237685451026],[4.410363416367599,50.79624448181378],[4.401370212730354,50.79624448181378]]]}},{"type":"Feature","properties":{"jobs":313,"pop":5369,"pointCount":8,"homeWorkCommuteMedian":5470,"workHomeCommuteMedian":4149},"geometry":{"type":"Polygon","coordinates":[[[4.401370212730354,50.805237685451026],[4.401370212730354,50.81423088908827],[4.410363416367599,50.81423088908827],[4.410363416367599,50.805237685451026],[4.401370212730354,50.805237685451026]]]}},{"type":"Feature","properties":{"jobs":2647,"pop":3103,"pointCount":3,"homeWorkCommuteMedian":3801,"workHomeCommuteMedian":3014},"geometry":{"type":"Polygon","coordinates":[[[4.401370212730354,50.81423088908827],[4.401370212730354,50.82322409272552],[4.410363416367599,50.82322409272552],[4.410363416367599,50.81423088908827],[4.401370212730354,50.81423088908827]]]}},{"type":"Feature","properties":{"jobs":1794,"pop":10299,"pointCount":6,"homeWorkCommuteMedian":4771,"workHomeCommuteMedian":3299},"geometry":{"type":"Polygon","coordinates":[[[4.401370212730354,50.82322409272552],[4.401370212730354,50.832217296362764],[4.410363416367599,50.832217296362764],[4.410363416367599,50.82322409272552],[4.401370212730354,50.82322409272552]]]}},{"type":"Feature","properties":{"jobs":3999,"pop":4181,"pointCount":2,"homeWorkCommuteMedian":2945,"workHomeCommuteMedian":2289},"geometry":{"type":"Polygon","coordinates":[[[4.401370212730354,50.832217296362764],[4.401370212730354,50.84121050000001],[4.410363416367599,50.84121050000001],[4.410363416367599,50.832217296362764],[4.401370212730354,50.832217296362764]]]}},{"type":"Feature","properties":{"jobs":1028,"pop":6605,"pointCount":3,"homeWorkCommuteMedian":4756,"workHomeCommuteMedian":4078},"geometry":{"type":"Polygon","coordinates":[[[4.401370212730354,50.84121050000001],[4.401370212730354,50.850203703637256],[4.410363416367599,50.850203703637256],[4.410363416367599,50.84121050000001],[4.401370212730354,50.84121050000001]]]}},{"type":"Feature","properties":{"jobs":3989,"pop":4027,"pointCount":3,"homeWorkCommuteMedian":3270,"workHomeCommuteMedian":4746},"geometry":{"type":"Polygon","coordinates":[[[4.401370212730354,50.850203703637256],[4.401370212730354,50.8591969072745],[4.410363416367599,50.8591969072745],[4.410363416367599,50.850203703637256],[4.401370212730354,50.850203703637256]]]}},{"type":"Feature","properties":{"jobs":2999,"pop":8685,"pointCount":5,"homeWorkCommuteMedian":3103,"workHomeCommuteMedian":5624},"geometry":{"type":"Polygon","coordinates":[[[4.401370212730354,50.8591969072745],[4.401370212730354,50.86819011091175],[4.410363416367599,50.86819011091175],[4.410363416367599,50.8591969072745],[4.401370212730354,50.8591969072745]]]}},{"type":"Feature","properties":{"jobs":2775,"pop":6006,"pointCount":4,"homeWorkCommuteMedian":3650,"workHomeCommuteMedian":5016},"geometry":{"type":"Polygon","coordinates":[[[4.401370212730354,50.86819011091175],[4.401370212730354,50.877183314548994],[4.410363416367599,50.877183314548994],[4.410363416367599,50.86819011091175],[4.401370212730354,50.86819011091175]]]}},{"type":"Feature","properties":{"jobs":162,"pop":2106,"pointCount":2,"homeWorkCommuteMedian":4014,"workHomeCommuteMedian":2208},"geometry":{"type":"Polygon","coordinates":[[[4.401370212730354,50.877183314548994],[4.401370212730354,50.88617651818624],[4.410363416367599,50.88617651818624],[4.410363416367599,50.877183314548994],[4.401370212730354,50.877183314548994]]]}},{"type":"Feature","properties":{"jobs":0,"pop":1,"pointCount":1,"homeWorkCommuteMedian":1053,"workHomeCommuteMedian":-1},"geometry":{"type":"Polygon","coordinates":[[[4.401370212730354,50.895169721823486],[4.401370212730354,50.90416292546073],[4.410363416367599,50.90416292546073],[4.410363416367599,50.895169721823486],[4.401370212730354,50.895169721823486]]]}},{"type":"Feature","properties":{"jobs":785,"pop":1239,"pointCount":3,"homeWorkCommuteMedian":5923,"workHomeCommuteMedian":6880},"geometry":{"type":"Polygon","coordinates":[[[4.410363416367599,50.787251278176534],[4.410363416367599,50.79624448181378],[4.419356620004844,50.79624448181378],[4.419356620004844,50.787251278176534],[4.410363416367599,50.787251278176534]]]}},{"type":"Feature","properties":{"jobs":536,"pop":2814,"pointCount":3,"homeWorkCommuteMedian":6450,"workHomeCommuteMedian":6423},"geometry":{"type":"Polygon","coordinates":[[[4.410363416367599,50.79624448181378],[4.410363416367599,50.805237685451026],[4.419356620004844,50.805237685451026],[4.419356620004844,50.79624448181378],[4.410363416367599,50.79624448181378]]]}},{"type":"Feature","properties":{"jobs":445,"pop":5130,"pointCount":5,"homeWorkCommuteMedian":6071,"workHomeCommuteMedian":3803},"geometry":{"type":"Polygon","coordinates":[[[4.410363416367599,50.805237685451026],[4.410363416367599,50.81423088908827],[4.419356620004844,50.81423088908827],[4.419356620004844,50.805237685451026],[4.410363416367599,50.805237685451026]]]}},{"type":"Feature","properties":{"jobs":548,"pop":6501,"pointCount":4,"homeWorkCommuteMedian":5302,"workHomeCommuteMedian":3849},"geometry":{"type":"Polygon","coordinates":[[[4.410363416367599,50.81423088908827],[4.410363416367599,50.82322409272552],[4.419356620004844,50.82322409272552],[4.419356620004844,50.81423088908827],[4.410363416367599,50.81423088908827]]]}},{"type":"Feature","properties":{"jobs":183,"pop":4856,"pointCount":3,"homeWorkCommuteMedian":4837,"workHomeCommuteMedian":6348},"geometry":{"type":"Polygon","coordinates":[[[4.410363416367599,50.82322409272552],[4.410363416367599,50.832217296362764],[4.419356620004844,50.832217296362764],[4.419356620004844,50.82322409272552],[4.410363416367599,50.82322409272552]]]}},{"type":"Feature","properties":{"jobs":1896,"pop":10990,"pointCount":6,"homeWorkCommuteMedian":5474,"workHomeCommuteMedian":3559},"geometry":{"type":"Polygon","coordinates":[[[4.410363416367599,50.832217296362764],[4.410363416367599,50.84121050000001],[4.419356620004844,50.84121050000001],[4.419356620004844,50.832217296362764],[4.410363416367599,50.832217296362764]]]}},{"type":"Feature","properties":{"jobs":1009,"pop":6867,"pointCount":2,"homeWorkCommuteMedian":3116,"workHomeCommuteMedian":3033},"geometry":{"type":"Polygon","coordinates":[[[4.410363416367599,50.84121050000001],[4.410363416367599,50.850203703637256],[4.419356620004844,50.850203703637256],[4.419356620004844,50.84121050000001],[4.410363416367599,50.84121050000001]]]}},{"type":"Feature","properties":{"jobs":2121,"pop":5168,"pointCount":3,"homeWorkCommuteMedian":4048,"workHomeCommuteMedian":4084},"geometry":{"type":"Polygon","coordinates":[[[4.410363416367599,50.850203703637256],[4.410363416367599,50.8591969072745],[4.419356620004844,50.8591969072745],[4.419356620004844,50.850203703637256],[4.410363416367599,50.850203703637256]]]}},{"type":"Feature","properties":{"jobs":2557,"pop":5037,"pointCount":2,"homeWorkCommuteMedian":4333,"workHomeCommuteMedian":3324},"geometry":{"type":"Polygon","coordinates":[[[4.410363416367599,50.8591969072745],[4.410363416367599,50.86819011091175],[4.419356620004844,50.86819011091175],[4.419356620004844,50.8591969072745],[4.410363416367599,50.8591969072745]]]}},{"type":"Feature","properties":{"jobs":4292,"pop":1927,"pointCount":4,"homeWorkCommuteMedian":3960,"workHomeCommuteMedian":5283},"geometry":{"type":"Polygon","coordinates":[[[4.410363416367599,50.86819011091175],[4.410363416367599,50.877183314548994],[4.419356620004844,50.877183314548994],[4.419356620004844,50.86819011091175],[4.410363416367599,50.86819011091175]]]}},{"type":"Feature","properties":{"jobs":1185,"pop":4953,"pointCount":2,"homeWorkCommuteMedian":4429,"workHomeCommuteMedian":6114},"geometry":{"type":"Polygon","coordinates":[[[4.410363416367599,50.88617651818624],[4.410363416367599,50.895169721823486],[4.419356620004844,50.895169721823486],[4.419356620004844,50.88617651818624],[4.410363416367599,50.88617651818624]]]}},{"type":"Feature","properties":{"jobs":134,"pop":1926,"pointCount":1,"homeWorkCommuteMedian":8052,"workHomeCommuteMedian":4576},"geometry":{"type":"Polygon","coordinates":[[[4.419356620004844,50.77825807453929],[4.419356620004844,50.787251278176534],[4.4283498236420895,50.787251278176534],[4.4283498236420895,50.77825807453929],[4.419356620004844,50.77825807453929]]]}},{"type":"Feature","properties":{"jobs":265,"pop":1644,"pointCount":2,"homeWorkCommuteMedian":7606,"workHomeCommuteMedian":3688},"geometry":{"type":"Polygon","coordinates":[[[4.419356620004844,50.787251278176534],[4.419356620004844,50.79624448181378],[4.4283498236420895,50.79624448181378],[4.4283498236420895,50.787251278176534],[4.419356620004844,50.787251278176534]]]}},{"type":"Feature","properties":{"jobs":20,"pop":1030,"pointCount":2,"homeWorkCommuteMedian":6207,"workHomeCommuteMedian":2276},"geometry":{"type":"Polygon","coordinates":[[[4.419356620004844,50.79624448181378],[4.419356620004844,50.805237685451026],[4.4283498236420895,50.805237685451026],[4.4283498236420895,50.79624448181378],[4.419356620004844,50.79624448181378]]]}},{"type":"Feature","properties":{"jobs":1216,"pop":3962,"pointCount":3,"homeWorkCommuteMedian":6630,"workHomeCommuteMedian":3014},"geometry":{"type":"Polygon","coordinates":[[[4.419356620004844,50.805237685451026],[4.419356620004844,50.81423088908827],[4.4283498236420895,50.81423088908827],[4.4283498236420895,50.805237685451026],[4.419356620004844,50.805237685451026]]]}},{"type":"Feature","properties":{"jobs":824,"pop":4016,"pointCount":4,"homeWorkCommuteMedian":4672,"workHomeCommuteMedian":3985},"geometry":{"type":"Polygon","coordinates":[[[4.419356620004844,50.81423088908827],[4.419356620004844,50.82322409272552],[4.4283498236420895,50.82322409272552],[4.4283498236420895,50.81423088908827],[4.419356620004844,50.81423088908827]]]}},{"type":"Feature","properties":{"jobs":49,"pop":1391,"pointCount":3,"homeWorkCommuteMedian":3525,"workHomeCommuteMedian":3015},"geometry":{"type":"Polygon","coordinates":[[[4.419356620004844,50.82322409272552],[4.419356620004844,50.832217296362764],[4.4283498236420895,50.832217296362764],[4.4283498236420895,50.82322409272552],[4.419356620004844,50.82322409272552]]]}},{"type":"Feature","properties":{"jobs":446,"pop":5462,"pointCount":5,"homeWorkCommuteMedian":4758,"workHomeCommuteMedian":4868},"geometry":{"type":"Polygon","coordinates":[[[4.419356620004844,50.832217296362764],[4.419356620004844,50.84121050000001],[4.4283498236420895,50.84121050000001],[4.4283498236420895,50.832217296362764],[4.419356620004844,50.832217296362764]]]}},{"type":"Feature","properties":{"jobs":643,"pop":7349,"pointCount":5,"homeWorkCommuteMedian":3748,"workHomeCommuteMedian":3745},"geometry":{"type":"Polygon","coordinates":[[[4.419356620004844,50.84121050000001],[4.419356620004844,50.850203703637256],[4.4283498236420895,50.850203703637256],[4.4283498236420895,50.84121050000001],[4.419356620004844,50.84121050000001]]]}},{"type":"Feature","properties":{"jobs":1395,"pop":2445,"pointCount":2,"homeWorkCommuteMedian":5055,"workHomeCommuteMedian":5604},"geometry":{"type":"Polygon","coordinates":[[[4.419356620004844,50.850203703637256],[4.419356620004844,50.8591969072745],[4.4283498236420895,50.8591969072745],[4.4283498236420895,50.850203703637256],[4.419356620004844,50.850203703637256]]]}},{"type":"Feature","properties":{"jobs":1264,"pop":2978,"pointCount":3,"homeWorkCommuteMedian":3552,"workHomeCommuteMedian":5367},"geometry":{"type":"Polygon","coordinates":[[[4.419356620004844,50.8591969072745],[4.419356620004844,50.86819011091175],[4.4283498236420895,50.86819011091175],[4.4283498236420895,50.8591969072745],[4.419356620004844,50.8591969072745]]]}},{"type":"Feature","properties":{"jobs":17575,"pop":580,"pointCount":1,"homeWorkCommuteMedian":4958,"workHomeCommuteMedian":4924},"geometry":{"type":"Polygon","coordinates":[[[4.419356620004844,50.877183314548994],[4.419356620004844,50.88617651818624],[4.4283498236420895,50.88617651818624],[4.4283498236420895,50.877183314548994],[4.419356620004844,50.877183314548994]]]}},{"type":"Feature","properties":{"jobs":57378,"pop":1167,"pointCount":1,"homeWorkCommuteMedian":1093,"workHomeCommuteMedian":6965},"geometry":{"type":"Polygon","coordinates":[[[4.419356620004844,50.88617651818624],[4.419356620004844,50.895169721823486],[4.4283498236420895,50.895169721823486],[4.4283498236420895,50.88617651818624],[4.419356620004844,50.88617651818624]]]}},{"type":"Feature","properties":{"jobs":86623,"pop":530,"pointCount":1,"homeWorkCommuteMedian":4625,"workHomeCommuteMedian":7074},"geometry":{"type":"Polygon","coordinates":[[[4.419356620004844,50.895169721823486],[4.419356620004844,50.90416292546073],[4.4283498236420895,50.90416292546073],[4.4283498236420895,50.895169721823486],[4.419356620004844,50.895169721823486]]]}},{"type":"Feature","properties":{"jobs":784,"pop":9,"pointCount":1,"homeWorkCommuteMedian":8311,"workHomeCommuteMedian":5997},"geometry":{"type":"Polygon","coordinates":[[[4.4283498236420895,50.77825807453929],[4.4283498236420895,50.787251278176534],[4.437343027279335,50.787251278176534],[4.437343027279335,50.77825807453929],[4.4283498236420895,50.77825807453929]]]}},{"type":"Feature","properties":{"jobs":267,"pop":1717,"pointCount":2,"homeWorkCommuteMedian":7627,"workHomeCommuteMedian":1749},"geometry":{"type":"Polygon","coordinates":[[[4.4283498236420895,50.79624448181378],[4.4283498236420895,50.805237685451026],[4.437343027279335,50.805237685451026],[4.437343027279335,50.79624448181378],[4.4283498236420895,50.79624448181378]]]}},{"type":"Feature","properties":{"jobs":192,"pop":3822,"pointCount":3,"homeWorkCommuteMedian":8571,"workHomeCommuteMedian":8081},"geometry":{"type":"Polygon","coordinates":[[[4.4283498236420895,50.805237685451026],[4.4283498236420895,50.81423088908827],[4.437343027279335,50.81423088908827],[4.437343027279335,50.805237685451026],[4.4283498236420895,50.805237685451026]]]}},{"type":"Feature","properties":{"jobs":1730,"pop":5131,"pointCount":5,"homeWorkCommuteMedian":6471,"workHomeCommuteMedian":3915},"geometry":{"type":"Polygon","coordinates":[[[4.4283498236420895,50.81423088908827],[4.4283498236420895,50.82322409272552],[4.437343027279335,50.82322409272552],[4.437343027279335,50.81423088908827],[4.4283498236420895,50.81423088908827]]]}},{"type":"Feature","properties":{"jobs":26,"pop":104,"pointCount":1,"homeWorkCommuteMedian":4967,"workHomeCommuteMedian":5639},"geometry":{"type":"Polygon","coordinates":[[[4.4283498236420895,50.82322409272552],[4.4283498236420895,50.832217296362764],[4.437343027279335,50.832217296362764],[4.437343027279335,50.82322409272552],[4.4283498236420895,50.82322409272552]]]}},{"type":"Feature","properties":{"jobs":377,"pop":3019,"pointCount":4,"homeWorkCommuteMedian":4067,"workHomeCommuteMedian":4119},"geometry":{"type":"Polygon","coordinates":[[[4.4283498236420895,50.832217296362764],[4.4283498236420895,50.84121050000001],[4.437343027279335,50.84121050000001],[4.437343027279335,50.832217296362764],[4.4283498236420895,50.832217296362764]]]}},{"type":"Feature","properties":{"jobs":2562,"pop":8075,"pointCount":6,"homeWorkCommuteMedian":5048,"workHomeCommuteMedian":2743},"geometry":{"type":"Polygon","coordinates":[[[4.4283498236420895,50.84121050000001],[4.4283498236420895,50.850203703637256],[4.437343027279335,50.850203703637256],[4.437343027279335,50.84121050000001],[4.4283498236420895,50.84121050000001]]]}},{"type":"Feature","properties":{"jobs":434,"pop":7045,"pointCount":3,"homeWorkCommuteMedian":4351,"workHomeCommuteMedian":4249},"geometry":{"type":"Polygon","coordinates":[[[4.4283498236420895,50.850203703637256],[4.4283498236420895,50.8591969072745],[4.437343027279335,50.8591969072745],[4.437343027279335,50.850203703637256],[4.4283498236420895,50.850203703637256]]]}},{"type":"Feature","properties":{"jobs":177,"pop":1528,"pointCount":1,"homeWorkCommuteMedian":7761,"workHomeCommuteMedian":5966},"geometry":{"type":"Polygon","coordinates":[[[4.437343027279335,50.805237685451026],[4.437343027279335,50.81423088908827],[4.44633623091658,50.81423088908827],[4.44633623091658,50.805237685451026],[4.437343027279335,50.805237685451026]]]}},{"type":"Feature","properties":{"jobs":33,"pop":800,"pointCount":2,"homeWorkCommuteMedian":5721,"workHomeCommuteMedian":9630},"geometry":{"type":"Polygon","coordinates":[[[4.437343027279335,50.81423088908827],[4.437343027279335,50.82322409272552],[4.44633623091658,50.82322409272552],[4.44633623091658,50.81423088908827],[4.437343027279335,50.81423088908827]]]}},{"type":"Feature","properties":{"jobs":27,"pop":1914,"pointCount":2,"homeWorkCommuteMedian":7013,"workHomeCommuteMedian":1598},"geometry":{"type":"Polygon","coordinates":[[[4.437343027279335,50.82322409272552],[4.437343027279335,50.832217296362764],[4.44633623091658,50.832217296362764],[4.44633623091658,50.82322409272552],[4.437343027279335,50.82322409272552]]]}},{"type":"Feature","properties":{"jobs":326,"pop":5271,"pointCount":5,"homeWorkCommuteMedian":5599,"workHomeCommuteMedian":2881},"geometry":{"type":"Polygon","coordinates":[[[4.437343027279335,50.832217296362764],[4.437343027279335,50.84121050000001],[4.44633623091658,50.84121050000001],[4.44633623091658,50.832217296362764],[4.437343027279335,50.832217296362764]]]}},{"type":"Feature","properties":{"jobs":316,"pop":1642,"pointCount":3,"homeWorkCommuteMedian":6026,"workHomeCommuteMedian":5208},"geometry":{"type":"Polygon","coordinates":[[[4.437343027279335,50.84121050000001],[4.437343027279335,50.850203703637256],[4.44633623091658,50.850203703637256],[4.44633623091658,50.84121050000001],[4.437343027279335,50.84121050000001]]]}},{"type":"Feature","properties":{"jobs":11486,"pop":4492,"pointCount":3,"homeWorkCommuteMedian":4969,"workHomeCommuteMedian":4512},"geometry":{"type":"Polygon","coordinates":[[[4.437343027279335,50.850203703637256],[4.437343027279335,50.8591969072745],[4.44633623091658,50.8591969072745],[4.44633623091658,50.850203703637256],[4.437343027279335,50.850203703637256]]]}},{"type":"Feature","properties":{"jobs":0,"pop":7,"pointCount":1,"homeWorkCommuteMedian":5406,"workHomeCommuteMedian":-1},"geometry":{"type":"Polygon","coordinates":[[[4.44633623091658,50.805237685451026],[4.44633623091658,50.81423088908827],[4.455329434553825,50.81423088908827],[4.455329434553825,50.805237685451026],[4.44633623091658,50.805237685451026]]]}},{"type":"Feature","properties":{"jobs":0,"pop":2213,"pointCount":2,"homeWorkCommuteMedian":6873,"workHomeCommuteMedian":-1},"geometry":{"type":"Polygon","coordinates":[[[4.44633623091658,50.81423088908827],[4.44633623091658,50.82322409272552],[4.455329434553825,50.82322409272552],[4.455329434553825,50.81423088908827],[4.44633623091658,50.81423088908827]]]}},{"type":"Feature","properties":{"jobs":845,"pop":1619,"pointCount":1,"homeWorkCommuteMedian":8232,"workHomeCommuteMedian":5595},"geometry":{"type":"Polygon","coordinates":[[[4.44633623091658,50.82322409272552],[4.44633623091658,50.832217296362764],[4.455329434553825,50.832217296362764],[4.455329434553825,50.82322409272552],[4.44633623091658,50.82322409272552]]]}},{"type":"Feature","properties":{"jobs":40,"pop":4399,"pointCount":3,"homeWorkCommuteMedian":7097,"workHomeCommuteMedian":2021},"geometry":{"type":"Polygon","coordinates":[[[4.44633623091658,50.832217296362764],[4.44633623091658,50.84121050000001],[4.455329434553825,50.84121050000001],[4.455329434553825,50.832217296362764],[4.44633623091658,50.832217296362764]]]}},{"type":"Feature","properties":{"jobs":283,"pop":3202,"pointCount":3,"homeWorkCommuteMedian":2333,"workHomeCommuteMedian":3507},"geometry":{"type":"Polygon","coordinates":[[[4.44633623091658,50.84121050000001],[4.44633623091658,50.850203703637256],[4.455329434553825,50.850203703637256],[4.455329434553825,50.84121050000001],[4.44633623091658,50.84121050000001]]]}},{"type":"Feature","properties":{"jobs":27119,"pop":1206,"pointCount":1,"homeWorkCommuteMedian":6023,"workHomeCommuteMedian":4659},"geometry":{"type":"Polygon","coordinates":[[[4.44633623091658,50.850203703637256],[4.44633623091658,50.8591969072745],[4.455329434553825,50.8591969072745],[4.455329434553825,50.850203703637256],[4.44633623091658,50.850203703637256]]]}},{"type":"Feature","properties":{"jobs":4247,"pop":46,"pointCount":1,"homeWorkCommuteMedian":9726,"workHomeCommuteMedian":4709},"geometry":{"type":"Polygon","coordinates":[[[4.455329434553825,50.79624448181378],[4.455329434553825,50.805237685451026],[4.46432263819107,50.805237685451026],[4.46432263819107,50.79624448181378],[4.455329434553825,50.79624448181378]]]}},{"type":"Feature","properties":{"jobs":0,"pop":2,"pointCount":1,"homeWorkCommuteMedian":3472,"workHomeCommuteMedian":-1},"geometry":{"type":"Polygon","coordinates":[[[4.455329434553825,50.81423088908827],[4.455329434553825,50.82322409272552],[4.46432263819107,50.82322409272552],[4.46432263819107,50.81423088908827],[4.455329434553825,50.81423088908827]]]}},{"type":"Feature","properties":{"jobs":248,"pop":5292,"pointCount":3,"homeWorkCommuteMedian":4746,"workHomeCommuteMedian":3014},"geometry":{"type":"Polygon","coordinates":[[[4.455329434553825,50.82322409272552],[4.455329434553825,50.832217296362764],[4.46432263819107,50.832217296362764],[4.46432263819107,50.82322409272552],[4.455329434553825,50.82322409272552]]]}},{"type":"Feature","properties":{"jobs":2158,"pop":4229,"pointCount":3,"homeWorkCommuteMedian":5484,"workHomeCommuteMedian":6332},"geometry":{"type":"Polygon","coordinates":[[[4.455329434553825,50.832217296362764],[4.455329434553825,50.84121050000001],[4.46432263819107,50.84121050000001],[4.46432263819107,50.832217296362764],[4.455329434553825,50.832217296362764]]]}},{"type":"Feature","properties":{"jobs":13549,"pop":1654,"pointCount":1,"homeWorkCommuteMedian":5988,"workHomeCommuteMedian":5936},"geometry":{"type":"Polygon","coordinates":[[[4.455329434553825,50.84121050000001],[4.455329434553825,50.850203703637256],[4.46432263819107,50.850203703637256],[4.46432263819107,50.84121050000001],[4.455329434553825,50.84121050000001]]]}},{"type":"Feature","properties":{"jobs":22,"pop":559,"pointCount":1,"homeWorkCommuteMedian":6979,"workHomeCommuteMedian":11033},"geometry":{"type":"Polygon","coordinates":[[[4.46432263819107,50.82322409272552],[4.46432263819107,50.832217296362764],[4.473315841828315,50.832217296362764],[4.473315841828315,50.82322409272552],[4.46432263819107,50.82322409272552]]]}}],"properties":{"residentWeightedNearestNeighborKm":{"p10":0.20521754637742146,"p25":0.239204631097217,"p50":0.301654917038444,"p75":0.363162930324257,"p90":0.43874337496822924,"mean":0.31357662265935626},"workerWeightedNearestNeighborKm":{"p10":0.20661328059536596,"p25":0.23971548548150629,"p50":0.33278092430267703,"p75":0.6102988039114872,"p90":0.6626524395498858,"mean":0.4796389215736958},"commuteDistanceKm":{"p10":1482,"p25":2490,"p50":4074,"p75":6168,"p90":8217,"mean":4546.621685659483},"residentCellDensity":{"p10":451,"p25":1926,"p50":4492,"p75":8530,"p90":12390,"mean":5570.699115044248},"workerCellDensity":{"p10":137,"p25":443,"p50":1388,"p75":4247,"p90":12373,"mean":4950.454128440367},"detail":{"radiusKm":0.3168359230145798,"expectedPointSpacingKm":0.5583226109795613,"normalizedRadius":0.5674782227764341,"activityPerPoint":1745.5337931034483,"playableAreaKm2":196,"playableAreaPerPointKm2":0.27034482758620687,"playableCatchmentRadiusKm":0.29334865143603783,"localityScore":0.48831247808294687,"deaggregationScore":1,"score":0.6987935876086349},"polycentrism":{"activity":{"score":0,"continuousScore":0.1632662968851863,"detectedCenterCount":1,"effectiveCenterCount":1,"largestCenterShare":1,"bandwidthKm":1.3,"reliabilityScore":1,"supportLevel":"high","usedFallback":false,"topCenters":[{"longitude":4.367324250094032,"latitude":50.85196827757427,"massShare":1,"assignedMass":2531024,"assignedPointCount":725,"prominenceRatio":1}],"debug":{"rawPeakCount":3,"mergedPeakCount":3,"filteredPeakCount":1,"prominenceThreshold":0.22,"minPointsPerCenter":10,"rejectedCenters":[{"longitude":4.408679631483872,"latitude":50.88995179654372,"massShare":0.20384397777342292,"assignedMass":515934,"assignedPointCount":62,"prominenceRatio":0.999988056038519,"strongestCompetitorDistanceKm":6.4012580195745015,"strongestCompetitorPotential":484624.407825624,"localConsolidatedShare":0.20384397777342292,"localConsolidatedMass":515934,"localContributorCount":1,"localContributorDistancesKm":[],"rejectionReasons":["too_close_for_protected_share_center"]},{"longitude":4.4844,"latitude":50.9014,"massShare":0.009482328101195406,"assignedMass":24000,"assignedPointCount":1,"prominenceRatio":0.9999999999999444,"strongestCompetitorDistanceKm":10.645093211048668,"strongestCompetitorPotential":484624.407825624,"localConsolidatedShare":0.009482328101195406,"localConsolidatedMass":24000,"localContributorCount":1,"localContributorDistancesKm":[],"rejectionReasons":["below_min_points_per_center"]}]}}}}}
