{"type":"FeatureCollection","features":[{"type":"Feature","properties":{"jobs":780,"pop":0,"pointCount":2,"homeWorkCommuteMedian":-1,"workHomeCommuteMedian":42152},"geometry":{"type":"Polygon","coordinates":[[[128.66440781634336,37.64989625999031],[128.66440781634336,37.65888946362755],[128.6734010199806,37.65888946362755],[128.6734010199806,37.64989625999031],[128.66440781634336,37.64989625999031]]]}},{"type":"Feature","properties":{"jobs":24,"pop":7610,"pointCount":1,"homeWorkCommuteMedian":6524,"workHomeCommuteMedian":-1},"geometry":{"type":"Polygon","coordinates":[[[128.66440781634336,37.68586907453929],[128.66440781634336,37.69486227817654],[128.6734010199806,37.69486227817654],[128.6734010199806,37.68586907453929],[128.66440781634336,37.68586907453929]]]}},{"type":"Feature","properties":{"jobs":1214,"pop":0,"pointCount":2,"homeWorkCommuteMedian":-1,"workHomeCommuteMedian":34327},"geometry":{"type":"Polygon","coordinates":[[[128.6734010199806,37.64090305635306],[128.6734010199806,37.64989625999031],[128.68239422361782,37.64989625999031],[128.68239422361782,37.64090305635306],[128.6734010199806,37.64090305635306]]]}},{"type":"Feature","properties":{"jobs":238,"pop":0,"pointCount":1,"homeWorkCommuteMedian":-1,"workHomeCommuteMedian":38641},"geometry":{"type":"Polygon","coordinates":[[[128.6734010199806,37.64989625999031],[128.6734010199806,37.65888946362755],[128.68239422361782,37.65888946362755],[128.68239422361782,37.64989625999031],[128.6734010199806,37.64989625999031]]]}},{"type":"Feature","properties":{"jobs":55,"pop":0,"pointCount":1,"homeWorkCommuteMedian":-1,"workHomeCommuteMedian":29662},"geometry":{"type":"Polygon","coordinates":[[[128.6734010199806,37.65888946362755],[128.6734010199806,37.6678826672648],[128.68239422361782,37.6678826672648],[128.68239422361782,37.65888946362755],[128.6734010199806,37.65888946362755]]]}},{"type":"Feature","properties":{"jobs":312,"pop":20,"pointCount":1,"homeWorkCommuteMedian":29506,"workHomeCommuteMedian":39613},"geometry":{"type":"Polygon","coordinates":[[[128.6734010199806,37.83875353637247],[128.6734010199806,37.84774674000972],[128.68239422361782,37.84774674000972],[128.68239422361782,37.83875353637247],[128.6734010199806,37.83875353637247]]]}},{"type":"Feature","properties":{"jobs":652,"pop":0,"pointCount":2,"homeWorkCommuteMedian":-1,"workHomeCommuteMedian":31784},"geometry":{"type":"Polygon","coordinates":[[[128.68239422361782,37.64090305635306],[128.68239422361782,37.64989625999031],[128.69138742725505,37.64989625999031],[128.69138742725505,37.64090305635306],[128.68239422361782,37.64090305635306]]]}},{"type":"Feature","properties":{"jobs":6040,"pop":0,"pointCount":1,"homeWorkCommuteMedian":-1,"workHomeCommuteMedian":6524},"geometry":{"type":"Polygon","coordinates":[[[128.69138742725505,37.65888946362755],[128.69138742725505,37.6678826672648],[128.70038063089228,37.6678826672648],[128.70038063089228,37.65888946362755],[128.69138742725505,37.65888946362755]]]}},{"type":"Feature","properties":{"jobs":347,"pop":20,"pointCount":2,"homeWorkCommuteMedian":36504,"workHomeCommuteMedian":36504},"geometry":{"type":"Polygon","coordinates":[[[128.69138742725505,37.6678826672648],[128.69138742725505,37.676875870902045],[128.70038063089228,37.676875870902045],[128.70038063089228,37.6678826672648],[128.69138742725505,37.6678826672648]]]}},{"type":"Feature","properties":{"jobs":7,"pop":0,"pointCount":1,"homeWorkCommuteMedian":-1,"workHomeCommuteMedian":2266},"geometry":{"type":"Polygon","coordinates":[[[128.69138742725505,37.68586907453929],[128.69138742725505,37.69486227817654],[128.70038063089228,37.69486227817654],[128.70038063089228,37.68586907453929],[128.69138742725505,37.68586907453929]]]}},{"type":"Feature","properties":{"jobs":354,"pop":22,"pointCount":1,"homeWorkCommuteMedian":37504,"workHomeCommuteMedian":36127},"geometry":{"type":"Polygon","coordinates":[[[128.69138742725505,37.69486227817654],[128.69138742725505,37.70385548181378],[128.70038063089228,37.70385548181378],[128.70038063089228,37.69486227817654],[128.69138742725505,37.69486227817654]]]}},{"type":"Feature","properties":{"jobs":1274,"pop":44,"pointCount":4,"homeWorkCommuteMedian":30106,"workHomeCommuteMedian":4807},"geometry":{"type":"Polygon","coordinates":[[[128.70038063089228,37.6678826672648],[128.70038063089228,37.676875870902045],[128.70937383452952,37.676875870902045],[128.70937383452952,37.6678826672648],[128.70038063089228,37.6678826672648]]]}},{"type":"Feature","properties":{"jobs":390,"pop":24,"pointCount":1,"homeWorkCommuteMedian":32323,"workHomeCommuteMedian":33006},"geometry":{"type":"Polygon","coordinates":[[[128.70038063089228,37.811773925460734],[128.70038063089228,37.82076712909798],[128.70937383452952,37.82076712909798],[128.70937383452952,37.811773925460734],[128.70038063089228,37.811773925460734]]]}},{"type":"Feature","properties":{"jobs":416,"pop":26,"pointCount":1,"homeWorkCommuteMedian":36363,"workHomeCommuteMedian":36363},"geometry":{"type":"Polygon","coordinates":[[[128.70038063089228,37.83875353637247],[128.70038063089228,37.84774674000972],[128.70937383452952,37.84774674000972],[128.70937383452952,37.83875353637247],[128.70038063089228,37.83875353637247]]]}},{"type":"Feature","properties":{"jobs":425,"pop":0,"pointCount":1,"homeWorkCommuteMedian":-1,"workHomeCommuteMedian":5583},"geometry":{"type":"Polygon","coordinates":[[[128.70937383452952,37.65888946362755],[128.70937383452952,37.6678826672648],[128.71836703816675,37.6678826672648],[128.71836703816675,37.65888946362755],[128.70937383452952,37.65888946362755]]]}},{"type":"Feature","properties":{"jobs":542,"pop":44,"pointCount":1,"homeWorkCommuteMedian":34803,"workHomeCommuteMedian":5050},"geometry":{"type":"Polygon","coordinates":[[[128.70937383452952,37.6678826672648],[128.70937383452952,37.676875870902045],[128.71836703816675,37.676875870902045],[128.71836703816675,37.6678826672648],[128.70937383452952,37.6678826672648]]]}},{"type":"Feature","properties":{"jobs":253,"pop":0,"pointCount":1,"homeWorkCommuteMedian":-1,"workHomeCommuteMedian":30136},"geometry":{"type":"Polygon","coordinates":[[[128.70937383452952,37.82076712909798],[128.70937383452952,37.829760332735226],[128.71836703816675,37.829760332735226],[128.71836703816675,37.82076712909798],[128.70937383452952,37.82076712909798]]]}},{"type":"Feature","properties":{"jobs":807,"pop":72,"pointCount":1,"homeWorkCommuteMedian":29816,"workHomeCommuteMedian":28705},"geometry":{"type":"Polygon","coordinates":[[[128.70937383452952,37.856739943646964],[128.70937383452952,37.86573314728421],[128.71836703816675,37.86573314728421],[128.71836703816675,37.856739943646964],[128.70937383452952,37.856739943646964]]]}},{"type":"Feature","properties":{"jobs":567,"pop":0,"pointCount":1,"homeWorkCommuteMedian":-1,"workHomeCommuteMedian":31624},"geometry":{"type":"Polygon","coordinates":[[[128.71836703816675,37.721841889088275],[128.71836703816675,37.73083509272552],[128.72736024180398,37.73083509272552],[128.72736024180398,37.721841889088275],[128.71836703816675,37.721841889088275]]]}},{"type":"Feature","properties":{"jobs":832,"pop":52,"pointCount":2,"homeWorkCommuteMedian":33163,"workHomeCommuteMedian":26769},"geometry":{"type":"Polygon","coordinates":[[[128.71836703816675,37.83875353637247],[128.71836703816675,37.84774674000972],[128.72736024180398,37.84774674000972],[128.72736024180398,37.83875353637247],[128.71836703816675,37.83875353637247]]]}},{"type":"Feature","properties":{"jobs":573,"pop":36,"pointCount":1,"homeWorkCommuteMedian":25916,"workHomeCommuteMedian":26598},"geometry":{"type":"Polygon","coordinates":[[[128.71836703816675,37.84774674000972],[128.71836703816675,37.856739943646964],[128.72736024180398,37.856739943646964],[128.72736024180398,37.84774674000972],[128.71836703816675,37.84774674000972]]]}},{"type":"Feature","properties":{"jobs":382,"pop":0,"pointCount":1,"homeWorkCommuteMedian":-1,"workHomeCommuteMedian":33889},"geometry":{"type":"Polygon","coordinates":[[[128.72736024180398,37.70385548181378],[128.72736024180398,37.71284868545103],[128.7363534454412,37.71284868545103],[128.7363534454412,37.70385548181378],[128.72736024180398,37.70385548181378]]]}},{"type":"Feature","properties":{"jobs":781,"pop":69,"pointCount":1,"homeWorkCommuteMedian":32837,"workHomeCommuteMedian":32837},"geometry":{"type":"Polygon","coordinates":[[[128.72736024180398,37.84774674000972],[128.72736024180398,37.856739943646964],[128.7363534454412,37.856739943646964],[128.7363534454412,37.84774674000972],[128.72736024180398,37.84774674000972]]]}},{"type":"Feature","properties":{"jobs":910,"pop":0,"pointCount":1,"homeWorkCommuteMedian":-1,"workHomeCommuteMedian":21353},"geometry":{"type":"Polygon","coordinates":[[[128.74534664907844,37.68586907453929],[128.74534664907844,37.69486227817654],[128.75433985271567,37.69486227817654],[128.75433985271567,37.68586907453929],[128.74534664907844,37.68586907453929]]]}},{"type":"Feature","properties":{"jobs":48,"pop":339,"pointCount":1,"homeWorkCommuteMedian":18273,"workHomeCommuteMedian":-1},"geometry":{"type":"Polygon","coordinates":[[[128.7633330563529,37.874726350921456],[128.7633330563529,37.8837195545587],[128.77232625999014,37.8837195545587],[128.77232625999014,37.874726350921456],[128.7633330563529,37.874726350921456]]]}},{"type":"Feature","properties":{"jobs":575,"pop":0,"pointCount":1,"homeWorkCommuteMedian":-1,"workHomeCommuteMedian":14247},"geometry":{"type":"Polygon","coordinates":[[[128.78131946362737,37.70385548181378],[128.78131946362737,37.71284868545103],[128.7903126672646,37.71284868545103],[128.7903126672646,37.70385548181378],[128.78131946362737,37.70385548181378]]]}},{"type":"Feature","properties":{"jobs":30,"pop":0,"pointCount":1,"homeWorkCommuteMedian":-1,"workHomeCommuteMedian":10634},"geometry":{"type":"Polygon","coordinates":[[[128.79930587090183,37.71284868545103],[128.79930587090183,37.721841889088275],[128.80829907453906,37.721841889088275],[128.80829907453906,37.71284868545103],[128.79930587090183,37.71284868545103]]]}},{"type":"Feature","properties":{"jobs":34,"pop":188,"pointCount":1,"homeWorkCommuteMedian":12000,"workHomeCommuteMedian":-1},"geometry":{"type":"Polygon","coordinates":[[[128.79930587090183,37.73083509272552],[128.79930587090183,37.73982829636277],[128.80829907453906,37.73982829636277],[128.80829907453906,37.73083509272552],[128.79930587090183,37.73083509272552]]]}},{"type":"Feature","properties":{"jobs":9,"pop":464,"pointCount":1,"homeWorkCommuteMedian":15306,"workHomeCommuteMedian":-1},"geometry":{"type":"Polygon","coordinates":[[[128.80829907453906,37.79378751818624],[128.80829907453906,37.80278072182349],[128.8172922781763,37.80278072182349],[128.8172922781763,37.79378751818624],[128.80829907453906,37.79378751818624]]]}},{"type":"Feature","properties":{"jobs":627,"pop":39,"pointCount":1,"homeWorkCommuteMedian":20120,"workHomeCommuteMedian":20874},"geometry":{"type":"Polygon","coordinates":[[[128.80829907453906,37.8837195545587],[128.80829907453906,37.89271275819595],[128.8172922781763,37.89271275819595],[128.8172922781763,37.8837195545587],[128.80829907453906,37.8837195545587]]]}},{"type":"Feature","properties":{"jobs":2774,"pop":410,"pointCount":3,"homeWorkCommuteMedian":18242,"workHomeCommuteMedian":18017},"geometry":{"type":"Polygon","coordinates":[[[128.8172922781763,37.86573314728421],[128.8172922781763,37.874726350921456],[128.82628548181353,37.874726350921456],[128.82628548181353,37.86573314728421],[128.8172922781763,37.86573314728421]]]}},{"type":"Feature","properties":{"jobs":4594,"pop":1045,"pointCount":4,"homeWorkCommuteMedian":18808,"workHomeCommuteMedian":18802},"geometry":{"type":"Polygon","coordinates":[[[128.8172922781763,37.874726350921456],[128.8172922781763,37.8837195545587],[128.82628548181353,37.8837195545587],[128.82628548181353,37.874726350921456],[128.8172922781763,37.874726350921456]]]}},{"type":"Feature","properties":{"jobs":4289,"pop":881,"pointCount":4,"homeWorkCommuteMedian":19621,"workHomeCommuteMedian":20313},"geometry":{"type":"Polygon","coordinates":[[[128.8172922781763,37.8837195545587],[128.8172922781763,37.89271275819595],[128.82628548181353,37.89271275819595],[128.82628548181353,37.8837195545587],[128.8172922781763,37.8837195545587]]]}},{"type":"Feature","properties":{"jobs":1126,"pop":162,"pointCount":1,"homeWorkCommuteMedian":19429,"workHomeCommuteMedian":19501},"geometry":{"type":"Polygon","coordinates":[[[128.8172922781763,37.89271275819595],[128.8172922781763,37.901705961833194],[128.82628548181353,37.901705961833194],[128.82628548181353,37.89271275819595],[128.8172922781763,37.89271275819595]]]}},{"type":"Feature","properties":{"jobs":501,"pop":31,"pointCount":1,"homeWorkCommuteMedian":21405,"workHomeCommuteMedian":16237},"geometry":{"type":"Polygon","coordinates":[[[128.82628548181353,37.856739943646964],[128.82628548181353,37.86573314728421],[128.83527868545076,37.86573314728421],[128.83527868545076,37.856739943646964],[128.82628548181353,37.856739943646964]]]}},{"type":"Feature","properties":{"jobs":831,"pop":73,"pointCount":1,"homeWorkCommuteMedian":16747,"workHomeCommuteMedian":20709},"geometry":{"type":"Polygon","coordinates":[[[128.82628548181353,37.86573314728421],[128.82628548181353,37.874726350921456],[128.83527868545076,37.874726350921456],[128.83527868545076,37.86573314728421],[128.82628548181353,37.86573314728421]]]}},{"type":"Feature","properties":{"jobs":207,"pop":0,"pointCount":2,"homeWorkCommuteMedian":-1,"workHomeCommuteMedian":6829},"geometry":{"type":"Polygon","coordinates":[[[128.82628548181353,37.874726350921456],[128.82628548181353,37.8837195545587],[128.83527868545076,37.8837195545587],[128.83527868545076,37.874726350921456],[128.82628548181353,37.874726350921456]]]}},{"type":"Feature","properties":{"jobs":100,"pop":0,"pointCount":1,"homeWorkCommuteMedian":-1,"workHomeCommuteMedian":18621},"geometry":{"type":"Polygon","coordinates":[[[128.82628548181353,37.8837195545587],[128.82628548181353,37.89271275819595],[128.83527868545076,37.89271275819595],[128.83527868545076,37.8837195545587],[128.82628548181353,37.8837195545587]]]}},{"type":"Feature","properties":{"jobs":748,"pop":47,"pointCount":1,"homeWorkCommuteMedian":25798,"workHomeCommuteMedian":25798},"geometry":{"type":"Polygon","coordinates":[[[128.82628548181353,37.89271275819595],[128.82628548181353,37.901705961833194],[128.83527868545076,37.901705961833194],[128.83527868545076,37.89271275819595],[128.82628548181353,37.89271275819595]]]}},{"type":"Feature","properties":{"jobs":2886,"pop":1354,"pointCount":1,"homeWorkCommuteMedian":15902,"workHomeCommuteMedian":15831},"geometry":{"type":"Polygon","coordinates":[[[128.83527868545076,37.86573314728421],[128.83527868545076,37.874726350921456],[128.844271889088,37.874726350921456],[128.844271889088,37.86573314728421],[128.83527868545076,37.86573314728421]]]}},{"type":"Feature","properties":{"jobs":11,"pop":0,"pointCount":1,"homeWorkCommuteMedian":-1,"workHomeCommuteMedian":3462},"geometry":{"type":"Polygon","coordinates":[[[128.844271889088,37.75781470363726],[128.844271889088,37.766807907274504],[128.85326509272522,37.766807907274504],[128.85326509272522,37.75781470363726],[128.844271889088,37.75781470363726]]]}},{"type":"Feature","properties":{"jobs":595,"pop":0,"pointCount":1,"homeWorkCommuteMedian":-1,"workHomeCommuteMedian":5113},"geometry":{"type":"Polygon","coordinates":[[[128.844271889088,37.766807907274504],[128.844271889088,37.77580111091175],[128.85326509272522,37.77580111091175],[128.85326509272522,37.766807907274504],[128.844271889088,37.766807907274504]]]}},{"type":"Feature","properties":{"jobs":565,"pop":24,"pointCount":2,"homeWorkCommuteMedian":9539,"workHomeCommuteMedian":9566},"geometry":{"type":"Polygon","coordinates":[[[128.844271889088,37.784794314548996],[128.844271889088,37.79378751818624],[128.85326509272522,37.79378751818624],[128.85326509272522,37.784794314548996],[128.844271889088,37.784794314548996]]]}},{"type":"Feature","properties":{"jobs":105,"pop":0,"pointCount":1,"homeWorkCommuteMedian":-1,"workHomeCommuteMedian":5478},"geometry":{"type":"Polygon","coordinates":[[[128.844271889088,37.811773925460734],[128.844271889088,37.82076712909798],[128.85326509272522,37.82076712909798],[128.85326509272522,37.811773925460734],[128.844271889088,37.811773925460734]]]}},{"type":"Feature","properties":{"jobs":335,"pop":21,"pointCount":1,"homeWorkCommuteMedian":15336,"workHomeCommuteMedian":11142},"geometry":{"type":"Polygon","coordinates":[[[128.844271889088,37.82076712909798],[128.844271889088,37.829760332735226],[128.85326509272522,37.829760332735226],[128.85326509272522,37.82076712909798],[128.844271889088,37.82076712909798]]]}},{"type":"Feature","properties":{"jobs":666,"pop":0,"pointCount":1,"homeWorkCommuteMedian":-1,"workHomeCommuteMedian":12123},"geometry":{"type":"Polygon","coordinates":[[[128.85326509272522,37.69486227817654],[128.85326509272522,37.70385548181378],[128.86225829636246,37.70385548181378],[128.86225829636246,37.69486227817654],[128.85326509272522,37.69486227817654]]]}},{"type":"Feature","properties":{"jobs":6571,"pop":3781,"pointCount":1,"homeWorkCommuteMedian":6587,"workHomeCommuteMedian":6547},"geometry":{"type":"Polygon","coordinates":[[[128.85326509272522,37.73083509272552],[128.85326509272522,37.73982829636277],[128.86225829636246,37.73982829636277],[128.86225829636246,37.73083509272552],[128.85326509272522,37.73083509272552]]]}},{"type":"Feature","properties":{"jobs":1256,"pop":103,"pointCount":2,"homeWorkCommuteMedian":9090,"workHomeCommuteMedian":7943},"geometry":{"type":"Polygon","coordinates":[[[128.85326509272522,37.74882150000001],[128.85326509272522,37.75781470363726],[128.86225829636246,37.75781470363726],[128.86225829636246,37.74882150000001],[128.85326509272522,37.74882150000001]]]}},{"type":"Feature","properties":{"jobs":324,"pop":20,"pointCount":1,"homeWorkCommuteMedian":7493,"workHomeCommuteMedian":6574},"geometry":{"type":"Polygon","coordinates":[[[128.85326509272522,37.75781470363726],[128.85326509272522,37.766807907274504],[128.86225829636246,37.766807907274504],[128.86225829636246,37.75781470363726],[128.85326509272522,37.75781470363726]]]}},{"type":"Feature","properties":{"jobs":5251,"pop":0,"pointCount":1,"homeWorkCommuteMedian":-1,"workHomeCommuteMedian":6454},"geometry":{"type":"Polygon","coordinates":[[[128.85326509272522,37.79378751818624],[128.85326509272522,37.80278072182349],[128.86225829636246,37.80278072182349],[128.86225829636246,37.79378751818624],[128.85326509272522,37.79378751818624]]]}},{"type":"Feature","properties":{"jobs":930,"pop":38,"pointCount":2,"homeWorkCommuteMedian":10069,"workHomeCommuteMedian":11307},"geometry":{"type":"Polygon","coordinates":[[[128.85326509272522,37.811773925460734],[128.85326509272522,37.82076712909798],[128.86225829636246,37.82076712909798],[128.86225829636246,37.811773925460734],[128.85326509272522,37.811773925460734]]]}},{"type":"Feature","properties":{"jobs":337,"pop":21,"pointCount":1,"homeWorkCommuteMedian":8415,"workHomeCommuteMedian":8458},"geometry":{"type":"Polygon","coordinates":[[[128.86225829636246,37.70385548181378],[128.86225829636246,37.71284868545103],[128.8712514999997,37.71284868545103],[128.8712514999997,37.70385548181378],[128.86225829636246,37.70385548181378]]]}},{"type":"Feature","properties":{"jobs":98,"pop":0,"pointCount":1,"homeWorkCommuteMedian":-1,"workHomeCommuteMedian":5683},"geometry":{"type":"Polygon","coordinates":[[[128.86225829636246,37.721841889088275],[128.86225829636246,37.73083509272552],[128.8712514999997,37.73083509272552],[128.8712514999997,37.721841889088275],[128.86225829636246,37.721841889088275]]]}},{"type":"Feature","properties":{"jobs":575,"pop":36,"pointCount":1,"homeWorkCommuteMedian":6102,"workHomeCommuteMedian":6131},"geometry":{"type":"Polygon","coordinates":[[[128.86225829636246,37.73083509272552],[128.86225829636246,37.73982829636277],[128.8712514999997,37.73982829636277],[128.8712514999997,37.73083509272552],[128.86225829636246,37.73083509272552]]]}},{"type":"Feature","properties":{"jobs":4283,"pop":5051,"pointCount":4,"homeWorkCommuteMedian":4268,"workHomeCommuteMedian":4268},"geometry":{"type":"Polygon","coordinates":[[[128.86225829636246,37.74882150000001],[128.86225829636246,37.75781470363726],[128.8712514999997,37.75781470363726],[128.8712514999997,37.74882150000001],[128.86225829636246,37.74882150000001]]]}},{"type":"Feature","properties":{"jobs":20776,"pop":1803,"pointCount":7,"homeWorkCommuteMedian":5221,"workHomeCommuteMedian":3293},"geometry":{"type":"Polygon","coordinates":[[[128.86225829636246,37.75781470363726],[128.86225829636246,37.766807907274504],[128.8712514999997,37.766807907274504],[128.8712514999997,37.75781470363726],[128.86225829636246,37.75781470363726]]]}},{"type":"Feature","properties":{"jobs":1326,"pop":86,"pointCount":2,"homeWorkCommuteMedian":6045,"workHomeCommuteMedian":6809},"geometry":{"type":"Polygon","coordinates":[[[128.86225829636246,37.766807907274504],[128.86225829636246,37.77580111091175],[128.8712514999997,37.77580111091175],[128.8712514999997,37.766807907274504],[128.86225829636246,37.766807907274504]]]}},{"type":"Feature","properties":{"jobs":2148,"pop":290,"pointCount":2,"homeWorkCommuteMedian":3584,"workHomeCommuteMedian":5150},"geometry":{"type":"Polygon","coordinates":[[[128.86225829636246,37.77580111091175],[128.86225829636246,37.784794314548996],[128.8712514999997,37.784794314548996],[128.8712514999997,37.77580111091175],[128.86225829636246,37.77580111091175]]]}},{"type":"Feature","properties":{"jobs":502,"pop":3853,"pointCount":2,"homeWorkCommuteMedian":4464,"workHomeCommuteMedian":6315},"geometry":{"type":"Polygon","coordinates":[[[128.86225829636246,37.784794314548996],[128.86225829636246,37.79378751818624],[128.8712514999997,37.79378751818624],[128.8712514999997,37.784794314548996],[128.86225829636246,37.784794314548996]]]}},{"type":"Feature","properties":{"jobs":2840,"pop":1337,"pointCount":1,"homeWorkCommuteMedian":11518,"workHomeCommuteMedian":11387},"geometry":{"type":"Polygon","coordinates":[[[128.86225829636246,37.829760332735226],[128.86225829636246,37.83875353637247],[128.8712514999997,37.83875353637247],[128.8712514999997,37.829760332735226],[128.86225829636246,37.829760332735226]]]}},{"type":"Feature","properties":{"jobs":345,"pop":22,"pointCount":1,"homeWorkCommuteMedian":7765,"workHomeCommuteMedian":9408},"geometry":{"type":"Polygon","coordinates":[[[128.8712514999997,37.71284868545103],[128.8712514999997,37.721841889088275],[128.88024470363692,37.721841889088275],[128.88024470363692,37.71284868545103],[128.8712514999997,37.71284868545103]]]}},{"type":"Feature","properties":{"jobs":47,"pop":0,"pointCount":1,"homeWorkCommuteMedian":-1,"workHomeCommuteMedian":4290},"geometry":{"type":"Polygon","coordinates":[[[128.8712514999997,37.721841889088275],[128.8712514999997,37.73083509272552],[128.88024470363692,37.73083509272552],[128.88024470363692,37.721841889088275],[128.8712514999997,37.721841889088275]]]}},{"type":"Feature","properties":{"jobs":6473,"pop":8907,"pointCount":5,"homeWorkCommuteMedian":4502,"workHomeCommuteMedian":4691},"geometry":{"type":"Polygon","coordinates":[[[128.8712514999997,37.73083509272552],[128.8712514999997,37.73982829636277],[128.88024470363692,37.73982829636277],[128.88024470363692,37.73083509272552],[128.8712514999997,37.73083509272552]]]}},{"type":"Feature","properties":{"jobs":7386,"pop":3567,"pointCount":3,"homeWorkCommuteMedian":4910,"workHomeCommuteMedian":4790},"geometry":{"type":"Polygon","coordinates":[[[128.8712514999997,37.73982829636277],[128.8712514999997,37.74882150000001],[128.88024470363692,37.74882150000001],[128.88024470363692,37.73982829636277],[128.8712514999997,37.73982829636277]]]}},{"type":"Feature","properties":{"jobs":4548,"pop":1447,"pointCount":3,"homeWorkCommuteMedian":3763,"workHomeCommuteMedian":3891},"geometry":{"type":"Polygon","coordinates":[[[128.8712514999997,37.74882150000001],[128.8712514999997,37.75781470363726],[128.88024470363692,37.75781470363726],[128.88024470363692,37.74882150000001],[128.8712514999997,37.74882150000001]]]}},{"type":"Feature","properties":{"jobs":23751,"pop":4658,"pointCount":11,"homeWorkCommuteMedian":5148,"workHomeCommuteMedian":3864},"geometry":{"type":"Polygon","coordinates":[[[128.8712514999997,37.75781470363726],[128.8712514999997,37.766807907274504],[128.88024470363692,37.766807907274504],[128.88024470363692,37.75781470363726],[128.8712514999997,37.75781470363726]]]}},{"type":"Feature","properties":{"jobs":10934,"pop":2025,"pointCount":8,"homeWorkCommuteMedian":4906,"workHomeCommuteMedian":4217},"geometry":{"type":"Polygon","coordinates":[[[128.8712514999997,37.766807907274504],[128.8712514999997,37.77580111091175],[128.88024470363692,37.77580111091175],[128.88024470363692,37.766807907274504],[128.8712514999997,37.766807907274504]]]}},{"type":"Feature","properties":{"jobs":338,"pop":21,"pointCount":1,"homeWorkCommuteMedian":7564,"workHomeCommuteMedian":5351},"geometry":{"type":"Polygon","coordinates":[[[128.8712514999997,37.77580111091175],[128.8712514999997,37.784794314548996],[128.88024470363692,37.784794314548996],[128.88024470363692,37.77580111091175],[128.8712514999997,37.77580111091175]]]}},{"type":"Feature","properties":{"jobs":481,"pop":30,"pointCount":1,"homeWorkCommuteMedian":14399,"workHomeCommuteMedian":14223},"geometry":{"type":"Polygon","coordinates":[[[128.8712514999997,37.829760332735226],[128.8712514999997,37.83875353637247],[128.88024470363692,37.83875353637247],[128.88024470363692,37.829760332735226],[128.8712514999997,37.829760332735226]]]}},{"type":"Feature","properties":{"jobs":545,"pop":32,"pointCount":2,"homeWorkCommuteMedian":16824,"workHomeCommuteMedian":9475},"geometry":{"type":"Polygon","coordinates":[[[128.88024470363692,37.69486227817654],[128.88024470363692,37.70385548181378],[128.88923790727415,37.70385548181378],[128.88923790727415,37.69486227817654],[128.88024470363692,37.69486227817654]]]}},{"type":"Feature","properties":{"jobs":2231,"pop":301,"pointCount":2,"homeWorkCommuteMedian":4253,"workHomeCommuteMedian":4067},"geometry":{"type":"Polygon","coordinates":[[[128.88024470363692,37.73982829636277],[128.88024470363692,37.74882150000001],[128.88923790727415,37.74882150000001],[128.88923790727415,37.73982829636277],[128.88024470363692,37.73982829636277]]]}},{"type":"Feature","properties":{"jobs":1202,"pop":0,"pointCount":6,"homeWorkCommuteMedian":-1,"workHomeCommuteMedian":1296},"geometry":{"type":"Polygon","coordinates":[[[128.88024470363692,37.74882150000001],[128.88024470363692,37.75781470363726],[128.88923790727415,37.75781470363726],[128.88923790727415,37.74882150000001],[128.88024470363692,37.74882150000001]]]}},{"type":"Feature","properties":{"jobs":27036,"pop":13691,"pointCount":12,"homeWorkCommuteMedian":3626,"workHomeCommuteMedian":3127},"geometry":{"type":"Polygon","coordinates":[[[128.88024470363692,37.75781470363726],[128.88024470363692,37.766807907274504],[128.88923790727415,37.766807907274504],[128.88923790727415,37.75781470363726],[128.88024470363692,37.75781470363726]]]}},{"type":"Feature","properties":{"jobs":16364,"pop":1067,"pointCount":4,"homeWorkCommuteMedian":4400,"workHomeCommuteMedian":2672},"geometry":{"type":"Polygon","coordinates":[[[128.88024470363692,37.766807907274504],[128.88024470363692,37.77580111091175],[128.88923790727415,37.77580111091175],[128.88923790727415,37.766807907274504],[128.88024470363692,37.766807907274504]]]}},{"type":"Feature","properties":{"jobs":1748,"pop":0,"pointCount":1,"homeWorkCommuteMedian":-1,"workHomeCommuteMedian":3806},"geometry":{"type":"Polygon","coordinates":[[[128.88024470363692,37.77580111091175],[128.88024470363692,37.784794314548996],[128.88923790727415,37.784794314548996],[128.88923790727415,37.77580111091175],[128.88024470363692,37.77580111091175]]]}},{"type":"Feature","properties":{"jobs":313,"pop":0,"pointCount":1,"homeWorkCommuteMedian":-1,"workHomeCommuteMedian":4143},"geometry":{"type":"Polygon","coordinates":[[[128.88024470363692,37.784794314548996],[128.88024470363692,37.79378751818624],[128.88923790727415,37.79378751818624],[128.88923790727415,37.784794314548996],[128.88024470363692,37.784794314548996]]]}},{"type":"Feature","properties":{"jobs":507,"pop":20,"pointCount":2,"homeWorkCommuteMedian":6645,"workHomeCommuteMedian":6660},"geometry":{"type":"Polygon","coordinates":[[[128.88024470363692,37.79378751818624],[128.88024470363692,37.80278072182349],[128.88923790727415,37.80278072182349],[128.88923790727415,37.79378751818624],[128.88024470363692,37.79378751818624]]]}},{"type":"Feature","properties":{"jobs":344,"pop":21,"pointCount":2,"homeWorkCommuteMedian":7843,"workHomeCommuteMedian":16824},"geometry":{"type":"Polygon","coordinates":[[[128.88923790727415,37.71284868545103],[128.88923790727415,37.721841889088275],[128.89823111091138,37.721841889088275],[128.89823111091138,37.71284868545103],[128.88923790727415,37.71284868545103]]]}},{"type":"Feature","properties":{"jobs":538,"pop":34,"pointCount":1,"homeWorkCommuteMedian":6015,"workHomeCommuteMedian":5313},"geometry":{"type":"Polygon","coordinates":[[[128.88923790727415,37.721841889088275],[128.88923790727415,37.73083509272552],[128.89823111091138,37.73083509272552],[128.89823111091138,37.721841889088275],[128.88923790727415,37.721841889088275]]]}},{"type":"Feature","properties":{"jobs":678,"pop":43,"pointCount":1,"homeWorkCommuteMedian":4097,"workHomeCommuteMedian":4139},"geometry":{"type":"Polygon","coordinates":[[[128.88923790727415,37.73083509272552],[128.88923790727415,37.73982829636277],[128.89823111091138,37.73982829636277],[128.89823111091138,37.73083509272552],[128.88923790727415,37.73083509272552]]]}},{"type":"Feature","properties":{"jobs":11128,"pop":69,"pointCount":7,"homeWorkCommuteMedian":3364,"workHomeCommuteMedian":1376},"geometry":{"type":"Polygon","coordinates":[[[128.88923790727415,37.73982829636277],[128.88923790727415,37.74882150000001],[128.89823111091138,37.74882150000001],[128.89823111091138,37.73982829636277],[128.88923790727415,37.73982829636277]]]}},{"type":"Feature","properties":{"jobs":4072,"pop":110825,"pointCount":5,"homeWorkCommuteMedian":2672,"workHomeCommuteMedian":628},"geometry":{"type":"Polygon","coordinates":[[[128.88923790727415,37.74882150000001],[128.88923790727415,37.75781470363726],[128.89823111091138,37.75781470363726],[128.89823111091138,37.74882150000001],[128.88923790727415,37.74882150000001]]]}},{"type":"Feature","properties":{"jobs":16817,"pop":523,"pointCount":7,"homeWorkCommuteMedian":3820,"workHomeCommuteMedian":1788},"geometry":{"type":"Polygon","coordinates":[[[128.88923790727415,37.75781470363726],[128.88923790727415,37.766807907274504],[128.89823111091138,37.766807907274504],[128.89823111091138,37.75781470363726],[128.88923790727415,37.75781470363726]]]}},{"type":"Feature","properties":{"jobs":9002,"pop":7562,"pointCount":5,"homeWorkCommuteMedian":3690,"workHomeCommuteMedian":3645},"geometry":{"type":"Polygon","coordinates":[[[128.88923790727415,37.766807907274504],[128.88923790727415,37.77580111091175],[128.89823111091138,37.77580111091175],[128.89823111091138,37.766807907274504],[128.88923790727415,37.766807907274504]]]}},{"type":"Feature","properties":{"jobs":1082,"pop":137,"pointCount":1,"homeWorkCommuteMedian":7317,"workHomeCommuteMedian":7332},"geometry":{"type":"Polygon","coordinates":[[[128.88923790727415,37.79378751818624],[128.88923790727415,37.80278072182349],[128.89823111091138,37.80278072182349],[128.89823111091138,37.79378751818624],[128.88923790727415,37.79378751818624]]]}},{"type":"Feature","properties":{"jobs":409,"pop":26,"pointCount":1,"homeWorkCommuteMedian":6254,"workHomeCommuteMedian":5814},"geometry":{"type":"Polygon","coordinates":[[[128.89823111091138,37.71284868545103],[128.89823111091138,37.721841889088275],[128.9072243145486,37.721841889088275],[128.9072243145486,37.71284868545103],[128.89823111091138,37.71284868545103]]]}},{"type":"Feature","properties":{"jobs":1345,"pop":107,"pointCount":2,"homeWorkCommuteMedian":5325,"workHomeCommuteMedian":5069},"geometry":{"type":"Polygon","coordinates":[[[128.89823111091138,37.721841889088275],[128.89823111091138,37.73083509272552],[128.9072243145486,37.73083509272552],[128.9072243145486,37.721841889088275],[128.89823111091138,37.721841889088275]]]}},{"type":"Feature","properties":{"jobs":1549,"pop":210,"pointCount":3,"homeWorkCommuteMedian":4173,"workHomeCommuteMedian":4154},"geometry":{"type":"Polygon","coordinates":[[[128.89823111091138,37.73083509272552],[128.89823111091138,37.73982829636277],[128.9072243145486,37.73982829636277],[128.9072243145486,37.73083509272552],[128.89823111091138,37.73083509272552]]]}},{"type":"Feature","properties":{"jobs":4035,"pop":1536,"pointCount":5,"homeWorkCommuteMedian":4885,"workHomeCommuteMedian":4648},"geometry":{"type":"Polygon","coordinates":[[[128.89823111091138,37.73982829636277],[128.89823111091138,37.74882150000001],[128.9072243145486,37.74882150000001],[128.9072243145486,37.73982829636277],[128.89823111091138,37.73982829636277]]]}},{"type":"Feature","properties":{"jobs":15098,"pop":59,"pointCount":8,"homeWorkCommuteMedian":3011,"workHomeCommuteMedian":1614},"geometry":{"type":"Polygon","coordinates":[[[128.89823111091138,37.74882150000001],[128.89823111091138,37.75781470363726],[128.9072243145486,37.75781470363726],[128.9072243145486,37.74882150000001],[128.89823111091138,37.74882150000001]]]}},{"type":"Feature","properties":{"jobs":4593,"pop":3668,"pointCount":9,"homeWorkCommuteMedian":2882,"workHomeCommuteMedian":2308},"geometry":{"type":"Polygon","coordinates":[[[128.89823111091138,37.75781470363726],[128.89823111091138,37.766807907274504],[128.9072243145486,37.766807907274504],[128.9072243145486,37.75781470363726],[128.89823111091138,37.75781470363726]]]}},{"type":"Feature","properties":{"jobs":17849,"pop":1281,"pointCount":9,"homeWorkCommuteMedian":3963,"workHomeCommuteMedian":2800},"geometry":{"type":"Polygon","coordinates":[[[128.89823111091138,37.766807907274504],[128.89823111091138,37.77580111091175],[128.9072243145486,37.77580111091175],[128.9072243145486,37.766807907274504],[128.89823111091138,37.766807907274504]]]}},{"type":"Feature","properties":{"jobs":129,"pop":3493,"pointCount":1,"homeWorkCommuteMedian":3554,"workHomeCommuteMedian":-1},"geometry":{"type":"Polygon","coordinates":[[[128.89823111091138,37.77580111091175],[128.89823111091138,37.784794314548996],[128.9072243145486,37.784794314548996],[128.9072243145486,37.77580111091175],[128.89823111091138,37.77580111091175]]]}},{"type":"Feature","properties":{"jobs":917,"pop":0,"pointCount":3,"homeWorkCommuteMedian":-1,"workHomeCommuteMedian":4410},"geometry":{"type":"Polygon","coordinates":[[[128.89823111091138,37.80278072182349],[128.89823111091138,37.811773925460734],[128.9072243145486,37.811773925460734],[128.9072243145486,37.80278072182349],[128.89823111091138,37.80278072182349]]]}},{"type":"Feature","properties":{"jobs":409,"pop":26,"pointCount":1,"homeWorkCommuteMedian":7818,"workHomeCommuteMedian":7818},"geometry":{"type":"Polygon","coordinates":[[[128.9072243145486,37.70385548181378],[128.9072243145486,37.71284868545103],[128.91621751818585,37.71284868545103],[128.91621751818585,37.70385548181378],[128.9072243145486,37.70385548181378]]]}},{"type":"Feature","properties":{"jobs":538,"pop":34,"pointCount":1,"homeWorkCommuteMedian":3127,"workHomeCommuteMedian":3127},"geometry":{"type":"Polygon","coordinates":[[[128.9072243145486,37.73083509272552],[128.9072243145486,37.73982829636277],[128.91621751818585,37.73982829636277],[128.91621751818585,37.73083509272552],[128.9072243145486,37.73083509272552]]]}},{"type":"Feature","properties":{"jobs":1414,"pop":43,"pointCount":2,"homeWorkCommuteMedian":2042,"workHomeCommuteMedian":2247},"geometry":{"type":"Polygon","coordinates":[[[128.9072243145486,37.73982829636277],[128.9072243145486,37.74882150000001],[128.91621751818585,37.74882150000001],[128.91621751818585,37.73982829636277],[128.9072243145486,37.73982829636277]]]}},{"type":"Feature","properties":{"jobs":9425,"pop":700,"pointCount":6,"homeWorkCommuteMedian":4495,"workHomeCommuteMedian":3566},"geometry":{"type":"Polygon","coordinates":[[[128.9072243145486,37.74882150000001],[128.9072243145486,37.75781470363726],[128.91621751818585,37.75781470363726],[128.91621751818585,37.74882150000001],[128.9072243145486,37.74882150000001]]]}},{"type":"Feature","properties":{"jobs":3413,"pop":663,"pointCount":3,"homeWorkCommuteMedian":3565,"workHomeCommuteMedian":3591},"geometry":{"type":"Polygon","coordinates":[[[128.9072243145486,37.75781470363726],[128.9072243145486,37.766807907274504],[128.91621751818585,37.766807907274504],[128.91621751818585,37.75781470363726],[128.9072243145486,37.75781470363726]]]}},{"type":"Feature","properties":{"jobs":9168,"pop":1965,"pointCount":12,"homeWorkCommuteMedian":4960,"workHomeCommuteMedian":3437},"geometry":{"type":"Polygon","coordinates":[[[128.9072243145486,37.766807907274504],[128.9072243145486,37.77580111091175],[128.91621751818585,37.77580111091175],[128.91621751818585,37.766807907274504],[128.9072243145486,37.766807907274504]]]}},{"type":"Feature","properties":{"jobs":14499,"pop":3686,"pointCount":8,"homeWorkCommuteMedian":5461,"workHomeCommuteMedian":4114},"geometry":{"type":"Polygon","coordinates":[[[128.9072243145486,37.77580111091175],[128.9072243145486,37.784794314548996],[128.91621751818585,37.784794314548996],[128.91621751818585,37.77580111091175],[128.9072243145486,37.77580111091175]]]}},{"type":"Feature","properties":{"jobs":1100,"pop":572,"pointCount":3,"homeWorkCommuteMedian":4387,"workHomeCommuteMedian":4994},"geometry":{"type":"Polygon","coordinates":[[[128.9072243145486,37.784794314548996],[128.9072243145486,37.79378751818624],[128.91621751818585,37.79378751818624],[128.91621751818585,37.784794314548996],[128.9072243145486,37.784794314548996]]]}},{"type":"Feature","properties":{"jobs":14534,"pop":0,"pointCount":3,"homeWorkCommuteMedian":-1,"workHomeCommuteMedian":5953},"geometry":{"type":"Polygon","coordinates":[[[128.9072243145486,37.79378751818624],[128.9072243145486,37.80278072182349],[128.91621751818585,37.80278072182349],[128.91621751818585,37.79378751818624],[128.9072243145486,37.79378751818624]]]}},{"type":"Feature","properties":{"jobs":2013,"pop":337,"pointCount":2,"homeWorkCommuteMedian":7433,"workHomeCommuteMedian":6637},"geometry":{"type":"Polygon","coordinates":[[[128.91621751818585,37.721841889088275],[128.91621751818585,37.73083509272552],[128.92521072182308,37.73083509272552],[128.92521072182308,37.721841889088275],[128.91621751818585,37.721841889088275]]]}},{"type":"Feature","properties":{"jobs":603,"pop":6193,"pointCount":1,"homeWorkCommuteMedian":5337,"workHomeCommuteMedian":3496},"geometry":{"type":"Polygon","coordinates":[[[128.91621751818585,37.73083509272552],[128.91621751818585,37.73982829636277],[128.92521072182308,37.73982829636277],[128.92521072182308,37.73083509272552],[128.91621751818585,37.73083509272552]]]}},{"type":"Feature","properties":{"jobs":308,"pop":0,"pointCount":1,"homeWorkCommuteMedian":-1,"workHomeCommuteMedian":5785},"geometry":{"type":"Polygon","coordinates":[[[128.91621751818585,37.73982829636277],[128.91621751818585,37.74882150000001],[128.92521072182308,37.74882150000001],[128.92521072182308,37.73982829636277],[128.91621751818585,37.73982829636277]]]}},{"type":"Feature","properties":{"jobs":19220,"pop":11659,"pointCount":3,"homeWorkCommuteMedian":5622,"workHomeCommuteMedian":6015},"geometry":{"type":"Polygon","coordinates":[[[128.91621751818585,37.74882150000001],[128.91621751818585,37.75781470363726],[128.92521072182308,37.75781470363726],[128.92521072182308,37.74882150000001],[128.91621751818585,37.74882150000001]]]}},{"type":"Feature","properties":{"jobs":91,"pop":0,"pointCount":1,"homeWorkCommuteMedian":-1,"workHomeCommuteMedian":3615},"geometry":{"type":"Polygon","coordinates":[[[128.91621751818585,37.75781470363726],[128.91621751818585,37.766807907274504],[128.92521072182308,37.766807907274504],[128.92521072182308,37.75781470363726],[128.91621751818585,37.75781470363726]]]}},{"type":"Feature","properties":{"jobs":5220,"pop":595,"pointCount":4,"homeWorkCommuteMedian":4353,"workHomeCommuteMedian":3687},"geometry":{"type":"Polygon","coordinates":[[[128.91621751818585,37.766807907274504],[128.91621751818585,37.77580111091175],[128.92521072182308,37.77580111091175],[128.92521072182308,37.766807907274504],[128.91621751818585,37.766807907274504]]]}},{"type":"Feature","properties":{"jobs":1484,"pop":0,"pointCount":1,"homeWorkCommuteMedian":-1,"workHomeCommuteMedian":6254},"geometry":{"type":"Polygon","coordinates":[[[128.91621751818585,37.784794314548996],[128.91621751818585,37.79378751818624],[128.92521072182308,37.79378751818624],[128.92521072182308,37.784794314548996],[128.91621751818585,37.784794314548996]]]}},{"type":"Feature","properties":{"jobs":355,"pop":22,"pointCount":1,"homeWorkCommuteMedian":5108,"workHomeCommuteMedian":5458},"geometry":{"type":"Polygon","coordinates":[[[128.92521072182308,37.721841889088275],[128.92521072182308,37.73083509272552],[128.9342039254603,37.73083509272552],[128.9342039254603,37.721841889088275],[128.92521072182308,37.721841889088275]]]}},{"type":"Feature","properties":{"jobs":430,"pop":27,"pointCount":1,"homeWorkCommuteMedian":4130,"workHomeCommuteMedian":4077},"geometry":{"type":"Polygon","coordinates":[[[128.92521072182308,37.73083509272552],[128.92521072182308,37.73982829636277],[128.9342039254603,37.73982829636277],[128.9342039254603,37.73083509272552],[128.92521072182308,37.73083509272552]]]}},{"type":"Feature","properties":{"jobs":131,"pop":5315,"pointCount":1,"homeWorkCommuteMedian":5434,"workHomeCommuteMedian":-1},"geometry":{"type":"Polygon","coordinates":[[[128.92521072182308,37.74882150000001],[128.92521072182308,37.75781470363726],[128.9342039254603,37.75781470363726],[128.9342039254603,37.74882150000001],[128.92521072182308,37.74882150000001]]]}},{"type":"Feature","properties":{"jobs":351,"pop":0,"pointCount":1,"homeWorkCommuteMedian":-1,"workHomeCommuteMedian":4156},"geometry":{"type":"Polygon","coordinates":[[[128.92521072182308,37.75781470363726],[128.92521072182308,37.766807907274504],[128.9342039254603,37.766807907274504],[128.9342039254603,37.75781470363726],[128.92521072182308,37.75781470363726]]]}},{"type":"Feature","properties":{"jobs":5856,"pop":2333,"pointCount":4,"homeWorkCommuteMedian":6047,"workHomeCommuteMedian":5668},"geometry":{"type":"Polygon","coordinates":[[[128.92521072182308,37.766807907274504],[128.92521072182308,37.77580111091175],[128.9342039254603,37.77580111091175],[128.9342039254603,37.766807907274504],[128.92521072182308,37.766807907274504]]]}},{"type":"Feature","properties":{"jobs":676,"pop":28571,"pointCount":1,"homeWorkCommuteMedian":4081,"workHomeCommuteMedian":3965},"geometry":{"type":"Polygon","coordinates":[[[128.92521072182308,37.77580111091175],[128.92521072182308,37.784794314548996],[128.9342039254603,37.784794314548996],[128.9342039254603,37.77580111091175],[128.92521072182308,37.77580111091175]]]}},{"type":"Feature","properties":{"jobs":613,"pop":38,"pointCount":1,"homeWorkCommuteMedian":10648,"workHomeCommuteMedian":10674},"geometry":{"type":"Polygon","coordinates":[[[128.9342039254603,37.69486227817654],[128.9342039254603,37.70385548181378],[128.94319712909754,37.70385548181378],[128.94319712909754,37.69486227817654],[128.9342039254603,37.69486227817654]]]}},{"type":"Feature","properties":{"jobs":10,"pop":0,"pointCount":1,"homeWorkCommuteMedian":-1,"workHomeCommuteMedian":4413},"geometry":{"type":"Polygon","coordinates":[[[128.9342039254603,37.721841889088275],[128.9342039254603,37.73083509272552],[128.94319712909754,37.73083509272552],[128.94319712909754,37.721841889088275],[128.9342039254603,37.721841889088275]]]}},{"type":"Feature","properties":{"jobs":2051,"pop":205,"pointCount":2,"homeWorkCommuteMedian":6400,"workHomeCommuteMedian":5461},"geometry":{"type":"Polygon","coordinates":[[[128.9342039254603,37.75781470363726],[128.9342039254603,37.766807907274504],[128.94319712909754,37.766807907274504],[128.94319712909754,37.75781470363726],[128.9342039254603,37.75781470363726]]]}},{"type":"Feature","properties":{"jobs":1482,"pop":330,"pointCount":1,"homeWorkCommuteMedian":6332,"workHomeCommuteMedian":6213},"geometry":{"type":"Polygon","coordinates":[[[128.9342039254603,37.766807907274504],[128.9342039254603,37.77580111091175],[128.94319712909754,37.77580111091175],[128.94319712909754,37.766807907274504],[128.9342039254603,37.766807907274504]]]}},{"type":"Feature","properties":{"jobs":312,"pop":20,"pointCount":1,"homeWorkCommuteMedian":7973,"workHomeCommuteMedian":7752},"geometry":{"type":"Polygon","coordinates":[[[128.94319712909754,37.71284868545103],[128.94319712909754,37.721841889088275],[128.95219033273477,37.721841889088275],[128.95219033273477,37.71284868545103],[128.94319712909754,37.71284868545103]]]}},{"type":"Feature","properties":{"jobs":581,"pop":36,"pointCount":1,"homeWorkCommuteMedian":6550,"workHomeCommuteMedian":6544},"geometry":{"type":"Polygon","coordinates":[[[128.94319712909754,37.721841889088275],[128.94319712909754,37.73083509272552],[128.95219033273477,37.73083509272552],[128.95219033273477,37.721841889088275],[128.94319712909754,37.721841889088275]]]}},{"type":"Feature","properties":{"jobs":3199,"pop":1370,"pointCount":1,"homeWorkCommuteMedian":8532,"workHomeCommuteMedian":8507},"geometry":{"type":"Polygon","coordinates":[[[128.94319712909754,37.75781470363726],[128.94319712909754,37.766807907274504],[128.95219033273477,37.766807907274504],[128.95219033273477,37.75781470363726],[128.94319712909754,37.75781470363726]]]}},{"type":"Feature","properties":{"jobs":273,"pop":0,"pointCount":1,"homeWorkCommuteMedian":-1,"workHomeCommuteMedian":2643},"geometry":{"type":"Polygon","coordinates":[[[128.94319712909754,37.766807907274504],[128.94319712909754,37.77580111091175],[128.95219033273477,37.77580111091175],[128.95219033273477,37.766807907274504],[128.94319712909754,37.766807907274504]]]}},{"type":"Feature","properties":{"jobs":8,"pop":139,"pointCount":1,"homeWorkCommuteMedian":19695,"workHomeCommuteMedian":117},"geometry":{"type":"Polygon","coordinates":[[[128.961183536372,37.676875870902045],[128.961183536372,37.68586907453929],[128.97017674000924,37.68586907453929],[128.97017674000924,37.676875870902045],[128.961183536372,37.676875870902045]]]}},{"type":"Feature","properties":{"jobs":226,"pop":0,"pointCount":1,"homeWorkCommuteMedian":-1,"workHomeCommuteMedian":12333},"geometry":{"type":"Polygon","coordinates":[[[128.961183536372,37.73982829636277],[128.961183536372,37.74882150000001],[128.97017674000924,37.74882150000001],[128.97017674000924,37.73982829636277],[128.961183536372,37.73982829636277]]]}},{"type":"Feature","properties":{"jobs":327,"pop":21,"pointCount":1,"homeWorkCommuteMedian":9159,"workHomeCommuteMedian":9206},"geometry":{"type":"Polygon","coordinates":[[[128.97916994364647,37.73083509272552],[128.97916994364647,37.73982829636277],[128.9881631472837,37.73982829636277],[128.9881631472837,37.73083509272552],[128.97916994364647,37.73083509272552]]]}},{"type":"Feature","properties":{"jobs":238,"pop":0,"pointCount":2,"homeWorkCommuteMedian":-1,"workHomeCommuteMedian":13510},"geometry":{"type":"Polygon","coordinates":[[[128.99715635092093,37.71284868545103],[128.99715635092093,37.721841889088275],[129.00614955455816,37.721841889088275],[129.00614955455816,37.71284868545103],[128.99715635092093,37.71284868545103]]]}},{"type":"Feature","properties":{"jobs":779,"pop":0,"pointCount":1,"homeWorkCommuteMedian":-1,"workHomeCommuteMedian":15336},"geometry":{"type":"Polygon","coordinates":[[[129.00614955455816,37.70385548181378],[129.00614955455816,37.71284868545103],[129.0151427581954,37.71284868545103],[129.0151427581954,37.70385548181378],[129.00614955455816,37.70385548181378]]]}},{"type":"Feature","properties":{"jobs":599,"pop":38,"pointCount":1,"homeWorkCommuteMedian":29677,"workHomeCommuteMedian":29677},"geometry":{"type":"Polygon","coordinates":[[[129.02413596183263,37.59593703816683],[129.02413596183263,37.60493024180408],[129.03312916546986,37.60493024180408],[129.03312916546986,37.59593703816683],[129.02413596183263,37.59593703816683]]]}},{"type":"Feature","properties":{"jobs":493,"pop":31,"pointCount":1,"homeWorkCommuteMedian":25545,"workHomeCommuteMedian":25866},"geometry":{"type":"Polygon","coordinates":[[[129.02413596183263,37.60493024180408],[129.02413596183263,37.61392344544132],[129.03312916546986,37.61392344544132],[129.03312916546986,37.60493024180408],[129.02413596183263,37.60493024180408]]]}},{"type":"Feature","properties":{"jobs":1016,"pop":20,"pointCount":3,"homeWorkCommuteMedian":17771,"workHomeCommuteMedian":18999},"geometry":{"type":"Polygon","coordinates":[[[129.02413596183263,37.68586907453929],[129.02413596183263,37.69486227817654],[129.03312916546986,37.69486227817654],[129.03312916546986,37.68586907453929],[129.02413596183263,37.68586907453929]]]}},{"type":"Feature","properties":{"jobs":285,"pop":0,"pointCount":1,"homeWorkCommuteMedian":-1,"workHomeCommuteMedian":19702},"geometry":{"type":"Polygon","coordinates":[[[129.03312916546986,37.676875870902045],[129.03312916546986,37.68586907453929],[129.0421223691071,37.68586907453929],[129.0421223691071,37.676875870902045],[129.03312916546986,37.676875870902045]]]}},{"type":"Feature","properties":{"jobs":752,"pop":0,"pointCount":1,"homeWorkCommuteMedian":-1,"workHomeCommuteMedian":21973},"geometry":{"type":"Polygon","coordinates":[[[129.05111557274432,37.6678826672648],[129.05111557274432,37.676875870902045],[129.06010877638155,37.676875870902045],[129.06010877638155,37.6678826672648],[129.05111557274432,37.6678826672648]]]}}],"properties":{"residentWeightedNearestNeighborKm":{"p10":0.1569201050170428,"p25":0.23730803497306405,"p50":0.23730803497306405,"p75":0.246926238217371,"p90":0.5003778610509171,"mean":0.3217759660387077},"workerWeightedNearestNeighborKm":{"p10":0.10084576487506544,"p25":0.14521669825121886,"p50":0.19177469598322577,"p75":0.3949903709899595,"p90":0.702598159943555,"mean":0.32589956517343277},"commuteDistanceKm":{"p10":1818,"p25":2922,"p50":4378,"p75":6591,"p90":15572,"mean":6561.431494336865},"residentCellDensity":{"p10":21,"p25":32,"p50":137,"p75":1370,"p90":5051,"mean":2735.863157894737},"workerCellDensity":{"p10":100,"p25":344,"p50":652,"p75":2774,"p90":9168,"mean":2875.8507462686566},"detail":{"radiusKm":0.21332997037766652,"expectedPointSpacingKm":0.6532622691972099,"normalizedRadius":0.32656098543671663,"activityPerPoint":1009.9443933325432,"playableAreaKm2":332,"playableAreaPerPointKm2":1.0573248407643312,"playableCatchmentRadiusKm":0.5801352857075571,"localityScore":1,"deaggregationScore":1,"score":1},"polycentrism":{"activity":{"score":0,"continuousScore":0.07100775957232718,"detectedCenterCount":1,"effectiveCenterCount":1,"largestCenterShare":1,"bandwidthKm":1.3,"reliabilityScore":1,"supportLevel":"high","usedFallback":false,"topCenters":[{"longitude":128.88642859762126,"latitude":37.762791538012365,"massShare":1,"assignedMass":646816,"assignedPointCount":314,"prominenceRatio":1}],"debug":{"rawPeakCount":16,"mergedPeakCount":15,"filteredPeakCount":1,"prominenceThreshold":0.22,"minPointsPerCenter":10,"rejectedCenters":[{"longitude":128.8269044321171,"latitude":37.8794421314807,"massShare":0.03644003858902686,"assignedMass":23570,"assignedPointCount":22,"prominenceRatio":1,"strongestCompetitorDistanceKm":14.561895838371335,"strongestCompetitorPotential":261763.43418621738,"localConsolidatedShare":0.03644003858902686,"localConsolidatedMass":23570,"localContributorCount":1,"localContributorDistancesKm":[],"rejectionReasons":["below_secondary_share_floor"]},{"longitude":128.69504813918633,"latitude":37.65944160077087,"massShare":0.018049955474199773,"assignedMass":11675,"assignedPointCount":17,"prominenceRatio":1,"strongestCompetitorDistanceKm":20.275417765433968,"strongestCompetitorPotential":261763.43418621738,"localConsolidatedShare":0.018049955474199773,"localConsolidatedMass":11675,"localContributorCount":1,"localContributorDistancesKm":[],"rejectionReasons":["below_secondary_share_floor"]},{"longitude":128.6739880755627,"latitude":37.68771038572842,"massShare":0.012501236827784099,"assignedMass":8086,"assignedPointCount":4,"prominenceRatio":1,"strongestCompetitorDistanceKm":20.696213716637875,"strongestCompetitorPotential":261763.43418621738,"localConsolidatedShare":0.012501236827784099,"localConsolidatedMass":8086,"localContributorCount":1,"localContributorDistancesKm":[],"rejectionReasons":["below_min_points_per_center"]},{"longitude":128.86760833627596,"latitude":37.83164188425698,"massShare":0.009457094444169594,"assignedMass":6117,"assignedPointCount":6,"prominenceRatio":0.9999999827805074,"strongestCompetitorDistanceKm":8.595789388300446,"strongestCompetitorPotential":261763.43418621738,"localConsolidatedShare":0.009457094444169594,"localConsolidatedMass":6117,"localContributorCount":1,"localContributorDistancesKm":[],"rejectionReasons":["below_min_points_per_center"]},{"longitude":128.71680773793696,"latitude":37.84490978704697,"massShare":0.00720915994656904,"assignedMass":4663,"assignedPointCount":9,"prominenceRatio":1,"strongestCompetitorDistanceKm":17.420500796104168,"strongestCompetitorPotential":261763.43418621738,"localConsolidatedShare":0.00720915994656904,"localConsolidatedMass":4663,"localContributorCount":1,"localContributorDistancesKm":[],"rejectionReasons":["below_min_points_per_center"]},{"longitude":129.04190497780996,"latitude":37.68317639845634,"massShare":0.00320492999554742,"assignedMass":2073,"assignedPointCount":5,"prominenceRatio":1,"strongestCompetitorDistanceKm":14.69818871986306,"strongestCompetitorPotential":261763.43418621738,"localConsolidatedShare":0.00320492999554742,"localConsolidatedMass":2073,"localContributorCount":1,"localContributorDistancesKm":[],"rejectionReasons":["below_min_points_per_center"]},{"longitude":128.99218831644077,"latitude":37.714924695934,"massShare":0.0026236209370207294,"assignedMass":1697,"assignedPointCount":5,"prominenceRatio":1,"strongestCompetitorDistanceKm":12.133666659836555,"strongestCompetitorPotential":261763.43418621738,"localConsolidatedShare":0.0026236209370207294,"localConsolidatedMass":1697,"localContributorCount":1,"localContributorDistancesKm":[],"rejectionReasons":["below_min_points_per_center"]},{"longitude":129.03053100775193,"latitude":37.60156201550387,"massShare":0.0017949463216741701,"assignedMass":1161,"assignedPointCount":2,"prominenceRatio":1,"strongestCompetitorDistanceKm":21.812229957118983,"strongestCompetitorPotential":261763.43418621738,"localConsolidatedShare":0.0017949463216741701,"localConsolidatedMass":1161,"localContributorCount":1,"localContributorDistancesKm":[],"rejectionReasons":["below_min_points_per_center"]},{"longitude":128.752973,"latitude":37.689788,"massShare":0.0014068916044130016,"assignedMass":910,"assignedPointCount":1,"prominenceRatio":1,"strongestCompetitorDistanceKm":14.345219497395762,"strongestCompetitorPotential":261763.43418621738,"localConsolidatedShare":0.0014068916044130016,"localConsolidatedMass":910,"localContributorCount":1,"localContributorDistancesKm":[],"rejectionReasons":["below_min_points_per_center"]},{"longitude":128.72473743519495,"latitude":37.71922157534246,"massShare":0.0014671869588878444,"assignedMass":949,"assignedPointCount":2,"prominenceRatio":1,"strongestCompetitorDistanceKm":15.469336949680622,"strongestCompetitorPotential":261763.43418621738,"localConsolidatedShare":0.0014671869588878444,"localConsolidatedMass":949,"localContributorCount":1,"localContributorDistancesKm":[],"rejectionReasons":["below_min_points_per_center"]},{"longitude":128.7925338935913,"latitude":37.71813685006046,"massShare":0.0012785707218126948,"assignedMass":827,"assignedPointCount":3,"prominenceRatio":0.9999999999977667,"strongestCompetitorDistanceKm":10.541728132275345,"strongestCompetitorPotential":261763.43418621738,"localConsolidatedShare":0.0012785707218126948,"localConsolidatedMass":827,"localContributorCount":1,"localContributorDistancesKm":[],"rejectionReasons":["below_min_points_per_center"]},{"longitude":129.07565953724247,"latitude":37.59890946751189,"massShare":0.000975547914708356,"assignedMass":631,"assignedPointCount":2,"prominenceRatio":1,"strongestCompetitorDistanceKm":24.300854426904856,"strongestCompetitorPotential":261763.43418621738,"localConsolidatedShare":0.000975547914708356,"localConsolidatedMass":631,"localContributorCount":1,"localContributorDistancesKm":[],"rejectionReasons":["below_min_points_per_center"]},{"longitude":128.7675,"latitude":37.881,"massShare":0.0005983154405580567,"assignedMass":387,"assignedPointCount":1,"prominenceRatio":1,"strongestCompetitorDistanceKm":17.208949444565476,"strongestCompetitorPotential":261763.43418621738,"localConsolidatedShare":0.0005983154405580567,"localConsolidatedMass":387,"localContributorCount":1,"localContributorDistancesKm":[],"rejectionReasons":["below_min_points_per_center"]},{"longitude":128.9441009210526,"latitude":37.69661910526316,"massShare":0.0012337357146390937,"assignedMass":798,"assignedPointCount":2,"prominenceRatio":0.9999999999999879,"strongestCompetitorDistanceKm":11.550120431433463,"strongestCompetitorPotential":261763.43418621738,"localConsolidatedShare":0.0012337357146390937,"localConsolidatedMass":798,"localContributorCount":1,"localContributorDistancesKm":[],"rejectionReasons":["below_min_points_per_center"]}]}}}}}
