{"type":"FeatureCollection","features":[{"type":"Feature","properties":{"jobs":0,"pop":11,"pointCount":1,"homeWorkCommuteMedian":17906,"workHomeCommuteMedian":-1},"geometry":{"type":"Polygon","coordinates":[[[-0.444440629097963,43.27396417635791],[-0.444440629097963,43.28295737999515],[-0.43544742546071763,43.28295737999515],[-0.43544742546071763,43.27396417635791],[-0.444440629097963,43.27396417635791]]]}},{"type":"Feature","properties":{"jobs":0,"pop":124,"pointCount":3,"homeWorkCommuteMedian":17029,"workHomeCommuteMedian":-1},"geometry":{"type":"Polygon","coordinates":[[[-0.444440629097963,43.28295737999515],[-0.444440629097963,43.2919505836324],[-0.43544742546071763,43.2919505836324],[-0.43544742546071763,43.28295737999515],[-0.444440629097963,43.28295737999515]]]}},{"type":"Feature","properties":{"jobs":88,"pop":36,"pointCount":3,"homeWorkCommuteMedian":17009,"workHomeCommuteMedian":19707},"geometry":{"type":"Polygon","coordinates":[[[-0.444440629097963,43.2919505836324],[-0.444440629097963,43.300943787269645],[-0.43544742546071763,43.300943787269645],[-0.43544742546071763,43.2919505836324],[-0.444440629097963,43.2919505836324]]]}},{"type":"Feature","properties":{"jobs":5,"pop":159,"pointCount":4,"homeWorkCommuteMedian":17487,"workHomeCommuteMedian":16776},"geometry":{"type":"Polygon","coordinates":[[[-0.444440629097963,43.300943787269645],[-0.444440629097963,43.30993699090689],[-0.43544742546071763,43.30993699090689],[-0.43544742546071763,43.300943787269645],[-0.444440629097963,43.300943787269645]]]}},{"type":"Feature","properties":{"jobs":35,"pop":65,"pointCount":2,"homeWorkCommuteMedian":16500,"workHomeCommuteMedian":17869},"geometry":{"type":"Polygon","coordinates":[[[-0.444440629097963,43.31893019454414],[-0.444440629097963,43.32792339818138],[-0.43544742546071763,43.32792339818138],[-0.43544742546071763,43.31893019454414],[-0.444440629097963,43.31893019454414]]]}},{"type":"Feature","properties":{"jobs":181,"pop":612,"pointCount":11,"homeWorkCommuteMedian":15192,"workHomeCommuteMedian":16119},"geometry":{"type":"Polygon","coordinates":[[[-0.444440629097963,43.32792339818138],[-0.444440629097963,43.33691660181863],[-0.43544742546071763,43.33691660181863],[-0.43544742546071763,43.32792339818138],[-0.444440629097963,43.32792339818138]]]}},{"type":"Feature","properties":{"jobs":116,"pop":204,"pointCount":4,"homeWorkCommuteMedian":14993,"workHomeCommuteMedian":17326},"geometry":{"type":"Polygon","coordinates":[[[-0.444440629097963,43.33691660181863],[-0.444440629097963,43.345909805455875],[-0.43544742546071763,43.345909805455875],[-0.43544742546071763,43.33691660181863],[-0.444440629097963,43.33691660181863]]]}},{"type":"Feature","properties":{"jobs":684,"pop":133,"pointCount":7,"homeWorkCommuteMedian":14671,"workHomeCommuteMedian":14572},"geometry":{"type":"Polygon","coordinates":[[[-0.444440629097963,43.390875823642105],[-0.444440629097963,43.39986902727935],[-0.43544742546071763,43.39986902727935],[-0.43544742546071763,43.390875823642105],[-0.444440629097963,43.390875823642105]]]}},{"type":"Feature","properties":{"jobs":628,"pop":39,"pointCount":8,"homeWorkCommuteMedian":15691,"workHomeCommuteMedian":14502},"geometry":{"type":"Polygon","coordinates":[[[-0.444440629097963,43.39986902727935],[-0.444440629097963,43.4088622309166],[-0.43544742546071763,43.4088622309166],[-0.43544742546071763,43.39986902727935],[-0.444440629097963,43.39986902727935]]]}},{"type":"Feature","properties":{"jobs":324,"pop":0,"pointCount":2,"homeWorkCommuteMedian":-1,"workHomeCommuteMedian":16163},"geometry":{"type":"Polygon","coordinates":[[[-0.444440629097963,43.4088622309166],[-0.444440629097963,43.41785543455384],[-0.43544742546071763,43.41785543455384],[-0.43544742546071763,43.4088622309166],[-0.444440629097963,43.4088622309166]]]}},{"type":"Feature","properties":{"jobs":0,"pop":60,"pointCount":1,"homeWorkCommuteMedian":14763,"workHomeCommuteMedian":-1},"geometry":{"type":"Polygon","coordinates":[[[-0.43544742546071763,43.24698456544617],[-0.43544742546071763,43.255977769083415],[-0.42645422182347226,43.255977769083415],[-0.42645422182347226,43.24698456544617],[-0.43544742546071763,43.24698456544617]]]}},{"type":"Feature","properties":{"jobs":0,"pop":5,"pointCount":1,"homeWorkCommuteMedian":20467,"workHomeCommuteMedian":-1},"geometry":{"type":"Polygon","coordinates":[[[-0.43544742546071763,43.26497097272066],[-0.43544742546071763,43.27396417635791],[-0.42645422182347226,43.27396417635791],[-0.42645422182347226,43.26497097272066],[-0.43544742546071763,43.26497097272066]]]}},{"type":"Feature","properties":{"jobs":84,"pop":5,"pointCount":5,"homeWorkCommuteMedian":14651,"workHomeCommuteMedian":24753},"geometry":{"type":"Polygon","coordinates":[[[-0.43544742546071763,43.27396417635791],[-0.43544742546071763,43.28295737999515],[-0.42645422182347226,43.28295737999515],[-0.42645422182347226,43.27396417635791],[-0.43544742546071763,43.27396417635791]]]}},{"type":"Feature","properties":{"jobs":0,"pop":60,"pointCount":1,"homeWorkCommuteMedian":21110,"workHomeCommuteMedian":-1},"geometry":{"type":"Polygon","coordinates":[[[-0.43544742546071763,43.28295737999515],[-0.43544742546071763,43.2919505836324],[-0.42645422182347226,43.2919505836324],[-0.42645422182347226,43.28295737999515],[-0.43544742546071763,43.28295737999515]]]}},{"type":"Feature","properties":{"jobs":0,"pop":61,"pointCount":2,"homeWorkCommuteMedian":15936,"workHomeCommuteMedian":-1},"geometry":{"type":"Polygon","coordinates":[[[-0.43544742546071763,43.2919505836324],[-0.43544742546071763,43.300943787269645],[-0.42645422182347226,43.300943787269645],[-0.42645422182347226,43.2919505836324],[-0.43544742546071763,43.2919505836324]]]}},{"type":"Feature","properties":{"jobs":120,"pop":0,"pointCount":2,"homeWorkCommuteMedian":-1,"workHomeCommuteMedian":16383},"geometry":{"type":"Polygon","coordinates":[[[-0.43544742546071763,43.300943787269645],[-0.43544742546071763,43.30993699090689],[-0.42645422182347226,43.30993699090689],[-0.42645422182347226,43.300943787269645],[-0.43544742546071763,43.300943787269645]]]}},{"type":"Feature","properties":{"jobs":106,"pop":316,"pointCount":5,"homeWorkCommuteMedian":15180,"workHomeCommuteMedian":13519},"geometry":{"type":"Polygon","coordinates":[[[-0.43544742546071763,43.31893019454414],[-0.43544742546071763,43.32792339818138],[-0.42645422182347226,43.32792339818138],[-0.42645422182347226,43.31893019454414],[-0.43544742546071763,43.31893019454414]]]}},{"type":"Feature","properties":{"jobs":176,"pop":446,"pointCount":7,"homeWorkCommuteMedian":13347,"workHomeCommuteMedian":14094},"geometry":{"type":"Polygon","coordinates":[[[-0.43544742546071763,43.32792339818138],[-0.43544742546071763,43.33691660181863],[-0.42645422182347226,43.33691660181863],[-0.42645422182347226,43.32792339818138],[-0.43544742546071763,43.32792339818138]]]}},{"type":"Feature","properties":{"jobs":53,"pop":0,"pointCount":4,"homeWorkCommuteMedian":-1,"workHomeCommuteMedian":18006},"geometry":{"type":"Polygon","coordinates":[[[-0.43544742546071763,43.33691660181863],[-0.43544742546071763,43.345909805455875],[-0.42645422182347226,43.345909805455875],[-0.42645422182347226,43.33691660181863],[-0.43544742546071763,43.33691660181863]]]}},{"type":"Feature","properties":{"jobs":1915,"pop":80,"pointCount":14,"homeWorkCommuteMedian":14947,"workHomeCommuteMedian":13590},"geometry":{"type":"Polygon","coordinates":[[[-0.43544742546071763,43.390875823642105],[-0.43544742546071763,43.39986902727935],[-0.42645422182347226,43.39986902727935],[-0.42645422182347226,43.390875823642105],[-0.43544742546071763,43.390875823642105]]]}},{"type":"Feature","properties":{"jobs":1449,"pop":5,"pointCount":8,"homeWorkCommuteMedian":14177,"workHomeCommuteMedian":14055},"geometry":{"type":"Polygon","coordinates":[[[-0.43544742546071763,43.39986902727935],[-0.43544742546071763,43.4088622309166],[-0.42645422182347226,43.4088622309166],[-0.42645422182347226,43.39986902727935],[-0.43544742546071763,43.39986902727935]]]}},{"type":"Feature","properties":{"jobs":1436,"pop":165,"pointCount":11,"homeWorkCommuteMedian":17402,"workHomeCommuteMedian":15662},"geometry":{"type":"Polygon","coordinates":[[[-0.43544742546071763,43.4088622309166],[-0.43544742546071763,43.41785543455384],[-0.42645422182347226,43.41785543455384],[-0.42645422182347226,43.4088622309166],[-0.43544742546071763,43.4088622309166]]]}},{"type":"Feature","properties":{"jobs":20,"pop":60,"pointCount":3,"homeWorkCommuteMedian":21920,"workHomeCommuteMedian":19469},"geometry":{"type":"Polygon","coordinates":[[[-0.42645422182347226,43.24698456544617],[-0.42645422182347226,43.255977769083415],[-0.4174610181862269,43.255977769083415],[-0.4174610181862269,43.24698456544617],[-0.42645422182347226,43.24698456544617]]]}},{"type":"Feature","properties":{"jobs":66,"pop":81,"pointCount":5,"homeWorkCommuteMedian":17763,"workHomeCommuteMedian":23401},"geometry":{"type":"Polygon","coordinates":[[[-0.42645422182347226,43.27396417635791],[-0.42645422182347226,43.28295737999515],[-0.4174610181862269,43.28295737999515],[-0.4174610181862269,43.27396417635791],[-0.42645422182347226,43.27396417635791]]]}},{"type":"Feature","properties":{"jobs":0,"pop":65,"pointCount":1,"homeWorkCommuteMedian":16613,"workHomeCommuteMedian":-1},"geometry":{"type":"Polygon","coordinates":[[[-0.42645422182347226,43.2919505836324],[-0.42645422182347226,43.300943787269645],[-0.4174610181862269,43.300943787269645],[-0.4174610181862269,43.2919505836324],[-0.42645422182347226,43.2919505836324]]]}},{"type":"Feature","properties":{"jobs":0,"pop":60,"pointCount":1,"homeWorkCommuteMedian":13679,"workHomeCommuteMedian":-1},"geometry":{"type":"Polygon","coordinates":[[[-0.42645422182347226,43.300943787269645],[-0.42645422182347226,43.30993699090689],[-0.4174610181862269,43.30993699090689],[-0.4174610181862269,43.300943787269645],[-0.42645422182347226,43.300943787269645]]]}},{"type":"Feature","properties":{"jobs":103,"pop":345,"pointCount":5,"homeWorkCommuteMedian":14621,"workHomeCommuteMedian":14689},"geometry":{"type":"Polygon","coordinates":[[[-0.42645422182347226,43.30993699090689],[-0.42645422182347226,43.31893019454414],[-0.4174610181862269,43.31893019454414],[-0.4174610181862269,43.30993699090689],[-0.42645422182347226,43.30993699090689]]]}},{"type":"Feature","properties":{"jobs":51,"pop":171,"pointCount":4,"homeWorkCommuteMedian":13216,"workHomeCommuteMedian":14672},"geometry":{"type":"Polygon","coordinates":[[[-0.42645422182347226,43.31893019454414],[-0.42645422182347226,43.32792339818138],[-0.4174610181862269,43.32792339818138],[-0.4174610181862269,43.31893019454414],[-0.42645422182347226,43.31893019454414]]]}},{"type":"Feature","properties":{"jobs":209,"pop":662,"pointCount":15,"homeWorkCommuteMedian":14622,"workHomeCommuteMedian":15138},"geometry":{"type":"Polygon","coordinates":[[[-0.42645422182347226,43.32792339818138],[-0.42645422182347226,43.33691660181863],[-0.4174610181862269,43.33691660181863],[-0.4174610181862269,43.32792339818138],[-0.42645422182347226,43.32792339818138]]]}},{"type":"Feature","properties":{"jobs":700,"pop":0,"pointCount":1,"homeWorkCommuteMedian":-1,"workHomeCommuteMedian":15385},"geometry":{"type":"Polygon","coordinates":[[[-0.42645422182347226,43.37288941636761],[-0.42645422182347226,43.38188262000486],[-0.4174610181862269,43.38188262000486],[-0.4174610181862269,43.37288941636761],[-0.42645422182347226,43.37288941636761]]]}},{"type":"Feature","properties":{"jobs":60,"pop":0,"pointCount":1,"homeWorkCommuteMedian":-1,"workHomeCommuteMedian":11448},"geometry":{"type":"Polygon","coordinates":[[[-0.42645422182347226,43.38188262000486],[-0.42645422182347226,43.390875823642105],[-0.4174610181862269,43.390875823642105],[-0.4174610181862269,43.38188262000486],[-0.42645422182347226,43.38188262000486]]]}},{"type":"Feature","properties":{"jobs":180,"pop":0,"pointCount":3,"homeWorkCommuteMedian":-1,"workHomeCommuteMedian":13836},"geometry":{"type":"Polygon","coordinates":[[[-0.42645422182347226,43.390875823642105],[-0.42645422182347226,43.39986902727935],[-0.4174610181862269,43.39986902727935],[-0.4174610181862269,43.390875823642105],[-0.42645422182347226,43.390875823642105]]]}},{"type":"Feature","properties":{"jobs":135,"pop":104,"pointCount":3,"homeWorkCommuteMedian":14219,"workHomeCommuteMedian":17871},"geometry":{"type":"Polygon","coordinates":[[[-0.42645422182347226,43.39986902727935],[-0.42645422182347226,43.4088622309166],[-0.4174610181862269,43.4088622309166],[-0.4174610181862269,43.39986902727935],[-0.42645422182347226,43.39986902727935]]]}},{"type":"Feature","properties":{"jobs":0,"pop":10,"pointCount":1,"homeWorkCommuteMedian":13612,"workHomeCommuteMedian":-1},"geometry":{"type":"Polygon","coordinates":[[[-0.4174610181862269,43.255977769083415],[-0.4174610181862269,43.26497097272066],[-0.4084678145489815,43.26497097272066],[-0.4084678145489815,43.255977769083415],[-0.4174610181862269,43.255977769083415]]]}},{"type":"Feature","properties":{"jobs":0,"pop":5,"pointCount":1,"homeWorkCommuteMedian":19370,"workHomeCommuteMedian":-1},"geometry":{"type":"Polygon","coordinates":[[[-0.4174610181862269,43.26497097272066],[-0.4174610181862269,43.27396417635791],[-0.4084678145489815,43.27396417635791],[-0.4084678145489815,43.26497097272066],[-0.4174610181862269,43.26497097272066]]]}},{"type":"Feature","properties":{"jobs":0,"pop":10,"pointCount":1,"homeWorkCommuteMedian":13731,"workHomeCommuteMedian":-1},"geometry":{"type":"Polygon","coordinates":[[[-0.4174610181862269,43.27396417635791],[-0.4174610181862269,43.28295737999515],[-0.4084678145489815,43.28295737999515],[-0.4084678145489815,43.27396417635791],[-0.4174610181862269,43.27396417635791]]]}},{"type":"Feature","properties":{"jobs":15,"pop":99,"pointCount":3,"homeWorkCommuteMedian":25243,"workHomeCommuteMedian":16285},"geometry":{"type":"Polygon","coordinates":[[[-0.4174610181862269,43.28295737999515],[-0.4174610181862269,43.2919505836324],[-0.4084678145489815,43.2919505836324],[-0.4084678145489815,43.28295737999515],[-0.4174610181862269,43.28295737999515]]]}},{"type":"Feature","properties":{"jobs":61,"pop":5,"pointCount":1,"homeWorkCommuteMedian":12905,"workHomeCommuteMedian":11566},"geometry":{"type":"Polygon","coordinates":[[[-0.4174610181862269,43.2919505836324],[-0.4174610181862269,43.300943787269645],[-0.4084678145489815,43.300943787269645],[-0.4084678145489815,43.2919505836324],[-0.4174610181862269,43.2919505836324]]]}},{"type":"Feature","properties":{"jobs":55,"pop":0,"pointCount":2,"homeWorkCommuteMedian":-1,"workHomeCommuteMedian":15878},"geometry":{"type":"Polygon","coordinates":[[[-0.4174610181862269,43.300943787269645],[-0.4174610181862269,43.30993699090689],[-0.4084678145489815,43.30993699090689],[-0.4084678145489815,43.300943787269645],[-0.4174610181862269,43.300943787269645]]]}},{"type":"Feature","properties":{"jobs":44,"pop":366,"pointCount":8,"homeWorkCommuteMedian":13311,"workHomeCommuteMedian":15240},"geometry":{"type":"Polygon","coordinates":[[[-0.4174610181862269,43.30993699090689],[-0.4174610181862269,43.31893019454414],[-0.4084678145489815,43.31893019454414],[-0.4084678145489815,43.30993699090689],[-0.4174610181862269,43.30993699090689]]]}},{"type":"Feature","properties":{"jobs":146,"pop":120,"pointCount":5,"homeWorkCommuteMedian":19801,"workHomeCommuteMedian":11914},"geometry":{"type":"Polygon","coordinates":[[[-0.4174610181862269,43.31893019454414],[-0.4174610181862269,43.32792339818138],[-0.4084678145489815,43.32792339818138],[-0.4084678145489815,43.31893019454414],[-0.4174610181862269,43.31893019454414]]]}},{"type":"Feature","properties":{"jobs":192,"pop":491,"pointCount":7,"homeWorkCommuteMedian":14961,"workHomeCommuteMedian":14122},"geometry":{"type":"Polygon","coordinates":[[[-0.4174610181862269,43.32792339818138],[-0.4174610181862269,43.33691660181863],[-0.4084678145489815,43.33691660181863],[-0.4084678145489815,43.32792339818138],[-0.4174610181862269,43.32792339818138]]]}},{"type":"Feature","properties":{"jobs":70,"pop":0,"pointCount":2,"homeWorkCommuteMedian":-1,"workHomeCommuteMedian":14070},"geometry":{"type":"Polygon","coordinates":[[[-0.4174610181862269,43.36389621273037],[-0.4174610181862269,43.37288941636761],[-0.4084678145489815,43.37288941636761],[-0.4084678145489815,43.36389621273037],[-0.4174610181862269,43.36389621273037]]]}},{"type":"Feature","properties":{"jobs":315,"pop":160,"pointCount":2,"homeWorkCommuteMedian":12545,"workHomeCommuteMedian":11087},"geometry":{"type":"Polygon","coordinates":[[[-0.4174610181862269,43.38188262000486],[-0.4174610181862269,43.390875823642105],[-0.4084678145489815,43.390875823642105],[-0.4084678145489815,43.38188262000486],[-0.4174610181862269,43.38188262000486]]]}},{"type":"Feature","properties":{"jobs":180,"pop":0,"pointCount":3,"homeWorkCommuteMedian":-1,"workHomeCommuteMedian":13683},"geometry":{"type":"Polygon","coordinates":[[[-0.4174610181862269,43.390875823642105],[-0.4174610181862269,43.39986902727935],[-0.4084678145489815,43.39986902727935],[-0.4084678145489815,43.390875823642105],[-0.4174610181862269,43.390875823642105]]]}},{"type":"Feature","properties":{"jobs":120,"pop":0,"pointCount":1,"homeWorkCommuteMedian":-1,"workHomeCommuteMedian":15654},"geometry":{"type":"Polygon","coordinates":[[[-0.4174610181862269,43.39986902727935],[-0.4174610181862269,43.4088622309166],[-0.4084678145489815,43.4088622309166],[-0.4084678145489815,43.39986902727935],[-0.4174610181862269,43.39986902727935]]]}},{"type":"Feature","properties":{"jobs":640,"pop":0,"pointCount":7,"homeWorkCommuteMedian":-1,"workHomeCommuteMedian":14969},"geometry":{"type":"Polygon","coordinates":[[[-0.4174610181862269,43.4088622309166],[-0.4174610181862269,43.41785543455384],[-0.4084678145489815,43.41785543455384],[-0.4084678145489815,43.4088622309166],[-0.4174610181862269,43.4088622309166]]]}},{"type":"Feature","properties":{"jobs":15,"pop":490,"pointCount":5,"homeWorkCommuteMedian":17878,"workHomeCommuteMedian":22718},"geometry":{"type":"Polygon","coordinates":[[[-0.4084678145489815,43.24698456544617],[-0.4084678145489815,43.255977769083415],[-0.39947461091173614,43.255977769083415],[-0.39947461091173614,43.24698456544617],[-0.4084678145489815,43.24698456544617]]]}},{"type":"Feature","properties":{"jobs":0,"pop":60,"pointCount":1,"homeWorkCommuteMedian":20760,"workHomeCommuteMedian":-1},"geometry":{"type":"Polygon","coordinates":[[[-0.4084678145489815,43.255977769083415],[-0.4084678145489815,43.26497097272066],[-0.39947461091173614,43.26497097272066],[-0.39947461091173614,43.255977769083415],[-0.4084678145489815,43.255977769083415]]]}},{"type":"Feature","properties":{"jobs":60,"pop":60,"pointCount":2,"homeWorkCommuteMedian":15202,"workHomeCommuteMedian":13999},"geometry":{"type":"Polygon","coordinates":[[[-0.4084678145489815,43.27396417635791],[-0.4084678145489815,43.28295737999515],[-0.39947461091173614,43.28295737999515],[-0.39947461091173614,43.27396417635791],[-0.4084678145489815,43.27396417635791]]]}},{"type":"Feature","properties":{"jobs":90,"pop":0,"pointCount":2,"homeWorkCommuteMedian":-1,"workHomeCommuteMedian":16874},"geometry":{"type":"Polygon","coordinates":[[[-0.4084678145489815,43.28295737999515],[-0.4084678145489815,43.2919505836324],[-0.39947461091173614,43.2919505836324],[-0.39947461091173614,43.28295737999515],[-0.4084678145489815,43.28295737999515]]]}},{"type":"Feature","properties":{"jobs":5,"pop":570,"pointCount":6,"homeWorkCommuteMedian":14466,"workHomeCommuteMedian":16639},"geometry":{"type":"Polygon","coordinates":[[[-0.4084678145489815,43.2919505836324],[-0.4084678145489815,43.300943787269645],[-0.39947461091173614,43.300943787269645],[-0.39947461091173614,43.2919505836324],[-0.4084678145489815,43.2919505836324]]]}},{"type":"Feature","properties":{"jobs":31,"pop":554,"pointCount":8,"homeWorkCommuteMedian":14945,"workHomeCommuteMedian":13296},"geometry":{"type":"Polygon","coordinates":[[[-0.4084678145489815,43.300943787269645],[-0.4084678145489815,43.30993699090689],[-0.39947461091173614,43.30993699090689],[-0.39947461091173614,43.300943787269645],[-0.4084678145489815,43.300943787269645]]]}},{"type":"Feature","properties":{"jobs":11,"pop":301,"pointCount":3,"homeWorkCommuteMedian":12534,"workHomeCommuteMedian":12933},"geometry":{"type":"Polygon","coordinates":[[[-0.4084678145489815,43.30993699090689],[-0.4084678145489815,43.31893019454414],[-0.39947461091173614,43.31893019454414],[-0.39947461091173614,43.30993699090689],[-0.4084678145489815,43.30993699090689]]]}},{"type":"Feature","properties":{"jobs":120,"pop":339,"pointCount":6,"homeWorkCommuteMedian":14583,"workHomeCommuteMedian":13035},"geometry":{"type":"Polygon","coordinates":[[[-0.4084678145489815,43.31893019454414],[-0.4084678145489815,43.32792339818138],[-0.39947461091173614,43.32792339818138],[-0.39947461091173614,43.31893019454414],[-0.4084678145489815,43.31893019454414]]]}},{"type":"Feature","properties":{"jobs":220,"pop":634,"pointCount":8,"homeWorkCommuteMedian":13969,"workHomeCommuteMedian":11838},"geometry":{"type":"Polygon","coordinates":[[[-0.4084678145489815,43.32792339818138],[-0.4084678145489815,43.33691660181863],[-0.39947461091173614,43.33691660181863],[-0.39947461091173614,43.32792339818138],[-0.4084678145489815,43.32792339818138]]]}},{"type":"Feature","properties":{"jobs":375,"pop":120,"pointCount":3,"homeWorkCommuteMedian":15174,"workHomeCommuteMedian":15844},"geometry":{"type":"Polygon","coordinates":[[[-0.4084678145489815,43.390875823642105],[-0.4084678145489815,43.39986902727935],[-0.39947461091173614,43.39986902727935],[-0.39947461091173614,43.390875823642105],[-0.4084678145489815,43.390875823642105]]]}},{"type":"Feature","properties":{"jobs":305,"pop":40,"pointCount":2,"homeWorkCommuteMedian":16609,"workHomeCommuteMedian":14135},"geometry":{"type":"Polygon","coordinates":[[[-0.4084678145489815,43.39986902727935],[-0.4084678145489815,43.4088622309166],[-0.39947461091173614,43.4088622309166],[-0.39947461091173614,43.39986902727935],[-0.4084678145489815,43.39986902727935]]]}},{"type":"Feature","properties":{"jobs":2550,"pop":161,"pointCount":11,"homeWorkCommuteMedian":17851,"workHomeCommuteMedian":14139},"geometry":{"type":"Polygon","coordinates":[[[-0.4084678145489815,43.4088622309166],[-0.4084678145489815,43.41785543455384],[-0.39947461091173614,43.41785543455384],[-0.39947461091173614,43.4088622309166],[-0.4084678145489815,43.4088622309166]]]}},{"type":"Feature","properties":{"jobs":85,"pop":612,"pointCount":6,"homeWorkCommuteMedian":19302,"workHomeCommuteMedian":19318},"geometry":{"type":"Polygon","coordinates":[[[-0.39947461091173614,43.24698456544617],[-0.39947461091173614,43.255977769083415],[-0.39048140727449077,43.255977769083415],[-0.39048140727449077,43.24698456544617],[-0.39947461091173614,43.24698456544617]]]}},{"type":"Feature","properties":{"jobs":80,"pop":64,"pointCount":3,"homeWorkCommuteMedian":16764,"workHomeCommuteMedian":16012},"geometry":{"type":"Polygon","coordinates":[[[-0.39947461091173614,43.255977769083415],[-0.39947461091173614,43.26497097272066],[-0.39048140727449077,43.26497097272066],[-0.39048140727449077,43.255977769083415],[-0.39947461091173614,43.255977769083415]]]}},{"type":"Feature","properties":{"jobs":0,"pop":32,"pointCount":1,"homeWorkCommuteMedian":18109,"workHomeCommuteMedian":-1},"geometry":{"type":"Polygon","coordinates":[[[-0.39947461091173614,43.27396417635791],[-0.39947461091173614,43.28295737999515],[-0.39048140727449077,43.28295737999515],[-0.39048140727449077,43.27396417635791],[-0.39947461091173614,43.27396417635791]]]}},{"type":"Feature","properties":{"jobs":705,"pop":939,"pointCount":10,"homeWorkCommuteMedian":15104,"workHomeCommuteMedian":13019},"geometry":{"type":"Polygon","coordinates":[[[-0.39947461091173614,43.28295737999515],[-0.39947461091173614,43.2919505836324],[-0.39048140727449077,43.2919505836324],[-0.39048140727449077,43.28295737999515],[-0.39947461091173614,43.28295737999515]]]}},{"type":"Feature","properties":{"jobs":15,"pop":481,"pointCount":5,"homeWorkCommuteMedian":14248,"workHomeCommuteMedian":14947},"geometry":{"type":"Polygon","coordinates":[[[-0.39947461091173614,43.2919505836324],[-0.39947461091173614,43.300943787269645],[-0.39048140727449077,43.300943787269645],[-0.39048140727449077,43.2919505836324],[-0.39947461091173614,43.2919505836324]]]}},{"type":"Feature","properties":{"jobs":311,"pop":1497,"pointCount":12,"homeWorkCommuteMedian":14539,"workHomeCommuteMedian":14302},"geometry":{"type":"Polygon","coordinates":[[[-0.39947461091173614,43.300943787269645],[-0.39947461091173614,43.30993699090689],[-0.39048140727449077,43.30993699090689],[-0.39048140727449077,43.300943787269645],[-0.39947461091173614,43.300943787269645]]]}},{"type":"Feature","properties":{"jobs":0,"pop":240,"pointCount":2,"homeWorkCommuteMedian":15956,"workHomeCommuteMedian":-1},"geometry":{"type":"Polygon","coordinates":[[[-0.39947461091173614,43.30993699090689],[-0.39947461091173614,43.31893019454414],[-0.39048140727449077,43.31893019454414],[-0.39048140727449077,43.30993699090689],[-0.39947461091173614,43.30993699090689]]]}},{"type":"Feature","properties":{"jobs":54,"pop":910,"pointCount":7,"homeWorkCommuteMedian":14116,"workHomeCommuteMedian":13904},"geometry":{"type":"Polygon","coordinates":[[[-0.39947461091173614,43.31893019454414],[-0.39947461091173614,43.32792339818138],[-0.39048140727449077,43.32792339818138],[-0.39048140727449077,43.31893019454414],[-0.39947461091173614,43.31893019454414]]]}},{"type":"Feature","properties":{"jobs":33,"pop":630,"pointCount":8,"homeWorkCommuteMedian":15219,"workHomeCommuteMedian":15645},"geometry":{"type":"Polygon","coordinates":[[[-0.39947461091173614,43.32792339818138],[-0.39947461091173614,43.33691660181863],[-0.39048140727449077,43.33691660181863],[-0.39048140727449077,43.32792339818138],[-0.39947461091173614,43.32792339818138]]]}},{"type":"Feature","properties":{"jobs":25,"pop":300,"pointCount":4,"homeWorkCommuteMedian":14988,"workHomeCommuteMedian":14341},"geometry":{"type":"Polygon","coordinates":[[[-0.39947461091173614,43.33691660181863],[-0.39947461091173614,43.345909805455875],[-0.39048140727449077,43.345909805455875],[-0.39048140727449077,43.33691660181863],[-0.39947461091173614,43.33691660181863]]]}},{"type":"Feature","properties":{"jobs":703,"pop":180,"pointCount":4,"homeWorkCommuteMedian":12229,"workHomeCommuteMedian":13005},"geometry":{"type":"Polygon","coordinates":[[[-0.39947461091173614,43.38188262000486],[-0.39947461091173614,43.390875823642105],[-0.39048140727449077,43.390875823642105],[-0.39048140727449077,43.38188262000486],[-0.39947461091173614,43.38188262000486]]]}},{"type":"Feature","properties":{"jobs":1562,"pop":85,"pointCount":11,"homeWorkCommuteMedian":12570,"workHomeCommuteMedian":13145},"geometry":{"type":"Polygon","coordinates":[[[-0.39947461091173614,43.390875823642105],[-0.39947461091173614,43.39986902727935],[-0.39048140727449077,43.39986902727935],[-0.39048140727449077,43.390875823642105],[-0.39947461091173614,43.390875823642105]]]}},{"type":"Feature","properties":{"jobs":1685,"pop":166,"pointCount":9,"homeWorkCommuteMedian":13305,"workHomeCommuteMedian":14069},"geometry":{"type":"Polygon","coordinates":[[[-0.39947461091173614,43.39986902727935],[-0.39947461091173614,43.4088622309166],[-0.39048140727449077,43.4088622309166],[-0.39048140727449077,43.39986902727935],[-0.39947461091173614,43.39986902727935]]]}},{"type":"Feature","properties":{"jobs":1385,"pop":68,"pointCount":8,"homeWorkCommuteMedian":16709,"workHomeCommuteMedian":15183},"geometry":{"type":"Polygon","coordinates":[[[-0.39947461091173614,43.4088622309166],[-0.39947461091173614,43.41785543455384],[-0.39048140727449077,43.41785543455384],[-0.39048140727449077,43.4088622309166],[-0.39947461091173614,43.4088622309166]]]}},{"type":"Feature","properties":{"jobs":0,"pop":352,"pointCount":3,"homeWorkCommuteMedian":18486,"workHomeCommuteMedian":-1},"geometry":{"type":"Polygon","coordinates":[[[-0.39048140727449077,43.24698456544617],[-0.39048140727449077,43.255977769083415],[-0.3814882036372454,43.255977769083415],[-0.3814882036372454,43.24698456544617],[-0.39048140727449077,43.24698456544617]]]}},{"type":"Feature","properties":{"jobs":70,"pop":116,"pointCount":3,"homeWorkCommuteMedian":19446,"workHomeCommuteMedian":24483},"geometry":{"type":"Polygon","coordinates":[[[-0.39048140727449077,43.255977769083415],[-0.39048140727449077,43.26497097272066],[-0.3814882036372454,43.26497097272066],[-0.3814882036372454,43.255977769083415],[-0.39048140727449077,43.255977769083415]]]}},{"type":"Feature","properties":{"jobs":60,"pop":60,"pointCount":2,"homeWorkCommuteMedian":11292,"workHomeCommuteMedian":15355},"geometry":{"type":"Polygon","coordinates":[[[-0.39048140727449077,43.26497097272066],[-0.39048140727449077,43.27396417635791],[-0.3814882036372454,43.27396417635791],[-0.3814882036372454,43.26497097272066],[-0.39048140727449077,43.26497097272066]]]}},{"type":"Feature","properties":{"jobs":185,"pop":180,"pointCount":5,"homeWorkCommuteMedian":15960,"workHomeCommuteMedian":14319},"geometry":{"type":"Polygon","coordinates":[[[-0.39048140727449077,43.27396417635791],[-0.39048140727449077,43.28295737999515],[-0.3814882036372454,43.28295737999515],[-0.3814882036372454,43.27396417635791],[-0.39048140727449077,43.27396417635791]]]}},{"type":"Feature","properties":{"jobs":334,"pop":776,"pointCount":13,"homeWorkCommuteMedian":14972,"workHomeCommuteMedian":12428},"geometry":{"type":"Polygon","coordinates":[[[-0.39048140727449077,43.28295737999515],[-0.39048140727449077,43.2919505836324],[-0.3814882036372454,43.2919505836324],[-0.3814882036372454,43.28295737999515],[-0.39048140727449077,43.28295737999515]]]}},{"type":"Feature","properties":{"jobs":220,"pop":1152,"pointCount":12,"homeWorkCommuteMedian":13315,"workHomeCommuteMedian":11915},"geometry":{"type":"Polygon","coordinates":[[[-0.39048140727449077,43.2919505836324],[-0.39048140727449077,43.300943787269645],[-0.3814882036372454,43.300943787269645],[-0.3814882036372454,43.2919505836324],[-0.39048140727449077,43.2919505836324]]]}},{"type":"Feature","properties":{"jobs":31,"pop":1526,"pointCount":13,"homeWorkCommuteMedian":12068,"workHomeCommuteMedian":17253},"geometry":{"type":"Polygon","coordinates":[[[-0.39048140727449077,43.300943787269645],[-0.39048140727449077,43.30993699090689],[-0.3814882036372454,43.30993699090689],[-0.3814882036372454,43.300943787269645],[-0.39048140727449077,43.300943787269645]]]}},{"type":"Feature","properties":{"jobs":162,"pop":1495,"pointCount":13,"homeWorkCommuteMedian":14383,"workHomeCommuteMedian":13211},"geometry":{"type":"Polygon","coordinates":[[[-0.39048140727449077,43.30993699090689],[-0.39048140727449077,43.31893019454414],[-0.3814882036372454,43.31893019454414],[-0.3814882036372454,43.30993699090689],[-0.39048140727449077,43.30993699090689]]]}},{"type":"Feature","properties":{"jobs":132,"pop":829,"pointCount":11,"homeWorkCommuteMedian":12636,"workHomeCommuteMedian":13391},"geometry":{"type":"Polygon","coordinates":[[[-0.39048140727449077,43.31893019454414],[-0.39048140727449077,43.32792339818138],[-0.3814882036372454,43.32792339818138],[-0.3814882036372454,43.31893019454414],[-0.39048140727449077,43.31893019454414]]]}},{"type":"Feature","properties":{"jobs":15,"pop":540,"pointCount":9,"homeWorkCommuteMedian":14431,"workHomeCommuteMedian":16206},"geometry":{"type":"Polygon","coordinates":[[[-0.39048140727449077,43.32792339818138],[-0.39048140727449077,43.33691660181863],[-0.3814882036372454,43.33691660181863],[-0.3814882036372454,43.32792339818138],[-0.39048140727449077,43.32792339818138]]]}},{"type":"Feature","properties":{"jobs":0,"pop":10,"pointCount":1,"homeWorkCommuteMedian":19788,"workHomeCommuteMedian":-1},"geometry":{"type":"Polygon","coordinates":[[[-0.39048140727449077,43.33691660181863],[-0.39048140727449077,43.345909805455875],[-0.3814882036372454,43.345909805455875],[-0.3814882036372454,43.33691660181863],[-0.39048140727449077,43.33691660181863]]]}},{"type":"Feature","properties":{"jobs":134,"pop":0,"pointCount":2,"homeWorkCommuteMedian":-1,"workHomeCommuteMedian":20614},"geometry":{"type":"Polygon","coordinates":[[[-0.39048140727449077,43.37288941636761],[-0.39048140727449077,43.38188262000486],[-0.3814882036372454,43.38188262000486],[-0.3814882036372454,43.37288941636761],[-0.39048140727449077,43.37288941636761]]]}},{"type":"Feature","properties":{"jobs":377,"pop":65,"pointCount":6,"homeWorkCommuteMedian":16381,"workHomeCommuteMedian":14293},"geometry":{"type":"Polygon","coordinates":[[[-0.39048140727449077,43.38188262000486],[-0.39048140727449077,43.390875823642105],[-0.3814882036372454,43.390875823642105],[-0.3814882036372454,43.38188262000486],[-0.39048140727449077,43.38188262000486]]]}},{"type":"Feature","properties":{"jobs":1194,"pop":61,"pointCount":12,"homeWorkCommuteMedian":12848,"workHomeCommuteMedian":13937},"geometry":{"type":"Polygon","coordinates":[[[-0.39048140727449077,43.390875823642105],[-0.39048140727449077,43.39986902727935],[-0.3814882036372454,43.39986902727935],[-0.3814882036372454,43.390875823642105],[-0.39048140727449077,43.390875823642105]]]}},{"type":"Feature","properties":{"jobs":1708,"pop":106,"pointCount":12,"homeWorkCommuteMedian":15974,"workHomeCommuteMedian":14154},"geometry":{"type":"Polygon","coordinates":[[[-0.39048140727449077,43.39986902727935],[-0.39048140727449077,43.4088622309166],[-0.3814882036372454,43.4088622309166],[-0.3814882036372454,43.39986902727935],[-0.39048140727449077,43.39986902727935]]]}},{"type":"Feature","properties":{"jobs":246,"pop":15,"pointCount":2,"homeWorkCommuteMedian":21562,"workHomeCommuteMedian":15344},"geometry":{"type":"Polygon","coordinates":[[[-0.39048140727449077,43.4088622309166],[-0.39048140727449077,43.41785543455384],[-0.3814882036372454,43.41785543455384],[-0.3814882036372454,43.4088622309166],[-0.39048140727449077,43.4088622309166]]]}},{"type":"Feature","properties":{"jobs":0,"pop":120,"pointCount":2,"homeWorkCommuteMedian":20153,"workHomeCommuteMedian":-1},"geometry":{"type":"Polygon","coordinates":[[[-0.3814882036372454,43.24698456544617],[-0.3814882036372454,43.255977769083415],[-0.372495,43.255977769083415],[-0.372495,43.24698456544617],[-0.3814882036372454,43.24698456544617]]]}},{"type":"Feature","properties":{"jobs":0,"pop":85,"pointCount":2,"homeWorkCommuteMedian":18700,"workHomeCommuteMedian":-1},"geometry":{"type":"Polygon","coordinates":[[[-0.3814882036372454,43.255977769083415],[-0.3814882036372454,43.26497097272066],[-0.372495,43.26497097272066],[-0.372495,43.255977769083415],[-0.3814882036372454,43.255977769083415]]]}},{"type":"Feature","properties":{"jobs":192,"pop":240,"pointCount":6,"homeWorkCommuteMedian":14886,"workHomeCommuteMedian":13465},"geometry":{"type":"Polygon","coordinates":[[[-0.3814882036372454,43.27396417635791],[-0.3814882036372454,43.28295737999515],[-0.372495,43.28295737999515],[-0.372495,43.27396417635791],[-0.3814882036372454,43.27396417635791]]]}},{"type":"Feature","properties":{"jobs":375,"pop":1698,"pointCount":13,"homeWorkCommuteMedian":14962,"workHomeCommuteMedian":11785},"geometry":{"type":"Polygon","coordinates":[[[-0.3814882036372454,43.28295737999515],[-0.3814882036372454,43.2919505836324],[-0.372495,43.2919505836324],[-0.372495,43.28295737999515],[-0.3814882036372454,43.28295737999515]]]}},{"type":"Feature","properties":{"jobs":427,"pop":1421,"pointCount":8,"homeWorkCommuteMedian":13358,"workHomeCommuteMedian":7499},"geometry":{"type":"Polygon","coordinates":[[[-0.3814882036372454,43.2919505836324],[-0.3814882036372454,43.300943787269645],[-0.372495,43.300943787269645],[-0.372495,43.2919505836324],[-0.3814882036372454,43.2919505836324]]]}},{"type":"Feature","properties":{"jobs":92,"pop":2395,"pointCount":16,"homeWorkCommuteMedian":11949,"workHomeCommuteMedian":14141},"geometry":{"type":"Polygon","coordinates":[[[-0.3814882036372454,43.300943787269645],[-0.3814882036372454,43.30993699090689],[-0.372495,43.30993699090689],[-0.372495,43.300943787269645],[-0.3814882036372454,43.300943787269645]]]}},{"type":"Feature","properties":{"jobs":62,"pop":1737,"pointCount":17,"homeWorkCommuteMedian":12074,"workHomeCommuteMedian":11202},"geometry":{"type":"Polygon","coordinates":[[[-0.3814882036372454,43.30993699090689],[-0.3814882036372454,43.31893019454414],[-0.372495,43.31893019454414],[-0.372495,43.30993699090689],[-0.3814882036372454,43.30993699090689]]]}},{"type":"Feature","properties":{"jobs":329,"pop":1472,"pointCount":12,"homeWorkCommuteMedian":12631,"workHomeCommuteMedian":12765},"geometry":{"type":"Polygon","coordinates":[[[-0.3814882036372454,43.31893019454414],[-0.3814882036372454,43.32792339818138],[-0.372495,43.32792339818138],[-0.372495,43.31893019454414],[-0.3814882036372454,43.31893019454414]]]}},{"type":"Feature","properties":{"jobs":120,"pop":480,"pointCount":8,"homeWorkCommuteMedian":13631,"workHomeCommuteMedian":14196},"geometry":{"type":"Polygon","coordinates":[[[-0.3814882036372454,43.32792339818138],[-0.3814882036372454,43.33691660181863],[-0.372495,43.33691660181863],[-0.372495,43.32792339818138],[-0.3814882036372454,43.32792339818138]]]}},{"type":"Feature","properties":{"jobs":0,"pop":60,"pointCount":1,"homeWorkCommuteMedian":18430,"workHomeCommuteMedian":-1},"geometry":{"type":"Polygon","coordinates":[[[-0.3814882036372454,43.33691660181863],[-0.3814882036372454,43.345909805455875],[-0.372495,43.345909805455875],[-0.372495,43.33691660181863],[-0.3814882036372454,43.33691660181863]]]}},{"type":"Feature","properties":{"jobs":0,"pop":60,"pointCount":1,"homeWorkCommuteMedian":14164,"workHomeCommuteMedian":-1},"geometry":{"type":"Polygon","coordinates":[[[-0.3814882036372454,43.345909805455875],[-0.3814882036372454,43.35490300909312],[-0.372495,43.35490300909312],[-0.372495,43.345909805455875],[-0.3814882036372454,43.345909805455875]]]}},{"type":"Feature","properties":{"jobs":5,"pop":60,"pointCount":2,"homeWorkCommuteMedian":10857,"workHomeCommuteMedian":10193},"geometry":{"type":"Polygon","coordinates":[[[-0.3814882036372454,43.35490300909312],[-0.3814882036372454,43.36389621273037],[-0.372495,43.36389621273037],[-0.372495,43.35490300909312],[-0.3814882036372454,43.35490300909312]]]}},{"type":"Feature","properties":{"jobs":187,"pop":180,"pointCount":6,"homeWorkCommuteMedian":11232,"workHomeCommuteMedian":15241},"geometry":{"type":"Polygon","coordinates":[[[-0.3814882036372454,43.36389621273037],[-0.3814882036372454,43.37288941636761],[-0.372495,43.37288941636761],[-0.372495,43.36389621273037],[-0.3814882036372454,43.36389621273037]]]}},{"type":"Feature","properties":{"jobs":504,"pop":267,"pointCount":7,"homeWorkCommuteMedian":15513,"workHomeCommuteMedian":17475},"geometry":{"type":"Polygon","coordinates":[[[-0.3814882036372454,43.37288941636761],[-0.3814882036372454,43.38188262000486],[-0.372495,43.38188262000486],[-0.372495,43.37288941636761],[-0.3814882036372454,43.37288941636761]]]}},{"type":"Feature","properties":{"jobs":429,"pop":375,"pointCount":7,"homeWorkCommuteMedian":15078,"workHomeCommuteMedian":15758},"geometry":{"type":"Polygon","coordinates":[[[-0.3814882036372454,43.38188262000486],[-0.3814882036372454,43.390875823642105],[-0.372495,43.390875823642105],[-0.372495,43.38188262000486],[-0.3814882036372454,43.38188262000486]]]}},{"type":"Feature","properties":{"jobs":1126,"pop":220,"pointCount":8,"homeWorkCommuteMedian":12191,"workHomeCommuteMedian":12909},"geometry":{"type":"Polygon","coordinates":[[[-0.3814882036372454,43.390875823642105],[-0.3814882036372454,43.39986902727935],[-0.372495,43.39986902727935],[-0.372495,43.390875823642105],[-0.3814882036372454,43.390875823642105]]]}},{"type":"Feature","properties":{"jobs":1726,"pop":243,"pointCount":14,"homeWorkCommuteMedian":13767,"workHomeCommuteMedian":14219},"geometry":{"type":"Polygon","coordinates":[[[-0.3814882036372454,43.39986902727935],[-0.3814882036372454,43.4088622309166],[-0.372495,43.4088622309166],[-0.372495,43.39986902727935],[-0.3814882036372454,43.39986902727935]]]}},{"type":"Feature","properties":{"jobs":120,"pop":0,"pointCount":1,"homeWorkCommuteMedian":-1,"workHomeCommuteMedian":16325},"geometry":{"type":"Polygon","coordinates":[[[-0.3814882036372454,43.4088622309166],[-0.3814882036372454,43.41785543455384],[-0.372495,43.41785543455384],[-0.372495,43.4088622309166],[-0.3814882036372454,43.4088622309166]]]}},{"type":"Feature","properties":{"jobs":0,"pop":122,"pointCount":2,"homeWorkCommuteMedian":21947,"workHomeCommuteMedian":-1},"geometry":{"type":"Polygon","coordinates":[[[-0.372495,43.24698456544617],[-0.372495,43.255977769083415],[-0.36350179636275465,43.255977769083415],[-0.36350179636275465,43.24698456544617],[-0.372495,43.24698456544617]]]}},{"type":"Feature","properties":{"jobs":0,"pop":160,"pointCount":1,"homeWorkCommuteMedian":13000,"workHomeCommuteMedian":-1},"geometry":{"type":"Polygon","coordinates":[[[-0.372495,43.255977769083415],[-0.372495,43.26497097272066],[-0.36350179636275465,43.26497097272066],[-0.36350179636275465,43.255977769083415],[-0.372495,43.255977769083415]]]}},{"type":"Feature","properties":{"jobs":0,"pop":60,"pointCount":1,"homeWorkCommuteMedian":18277,"workHomeCommuteMedian":-1},"geometry":{"type":"Polygon","coordinates":[[[-0.372495,43.26497097272066],[-0.372495,43.27396417635791],[-0.36350179636275465,43.27396417635791],[-0.36350179636275465,43.26497097272066],[-0.372495,43.26497097272066]]]}},{"type":"Feature","properties":{"jobs":115,"pop":175,"pointCount":6,"homeWorkCommuteMedian":17143,"workHomeCommuteMedian":14900},"geometry":{"type":"Polygon","coordinates":[[[-0.372495,43.27396417635791],[-0.372495,43.28295737999515],[-0.36350179636275465,43.28295737999515],[-0.36350179636275465,43.27396417635791],[-0.372495,43.27396417635791]]]}},{"type":"Feature","properties":{"jobs":4253,"pop":333,"pointCount":4,"homeWorkCommuteMedian":15411,"workHomeCommuteMedian":3374},"geometry":{"type":"Polygon","coordinates":[[[-0.372495,43.28295737999515],[-0.372495,43.2919505836324],[-0.36350179636275465,43.2919505836324],[-0.36350179636275465,43.28295737999515],[-0.372495,43.28295737999515]]]}},{"type":"Feature","properties":{"jobs":396,"pop":1704,"pointCount":15,"homeWorkCommuteMedian":14235,"workHomeCommuteMedian":12565},"geometry":{"type":"Polygon","coordinates":[[[-0.372495,43.2919505836324],[-0.372495,43.300943787269645],[-0.36350179636275465,43.300943787269645],[-0.36350179636275465,43.2919505836324],[-0.372495,43.2919505836324]]]}},{"type":"Feature","properties":{"jobs":139,"pop":2551,"pointCount":17,"homeWorkCommuteMedian":12532,"workHomeCommuteMedian":16277},"geometry":{"type":"Polygon","coordinates":[[[-0.372495,43.300943787269645],[-0.372495,43.30993699090689],[-0.36350179636275465,43.30993699090689],[-0.36350179636275465,43.300943787269645],[-0.372495,43.300943787269645]]]}},{"type":"Feature","properties":{"jobs":7650,"pop":1870,"pointCount":5,"homeWorkCommuteMedian":14182,"workHomeCommuteMedian":3210},"geometry":{"type":"Polygon","coordinates":[[[-0.372495,43.30993699090689],[-0.372495,43.31893019454414],[-0.36350179636275465,43.31893019454414],[-0.36350179636275465,43.30993699090689],[-0.372495,43.30993699090689]]]}},{"type":"Feature","properties":{"jobs":36,"pop":1573,"pointCount":16,"homeWorkCommuteMedian":12758,"workHomeCommuteMedian":17723},"geometry":{"type":"Polygon","coordinates":[[[-0.372495,43.31893019454414],[-0.372495,43.32792339818138],[-0.36350179636275465,43.32792339818138],[-0.36350179636275465,43.31893019454414],[-0.372495,43.31893019454414]]]}},{"type":"Feature","properties":{"jobs":65,"pop":570,"pointCount":6,"homeWorkCommuteMedian":17196,"workHomeCommuteMedian":17830},"geometry":{"type":"Polygon","coordinates":[[[-0.372495,43.32792339818138],[-0.372495,43.33691660181863],[-0.36350179636275465,43.33691660181863],[-0.36350179636275465,43.32792339818138],[-0.372495,43.32792339818138]]]}},{"type":"Feature","properties":{"jobs":165,"pop":0,"pointCount":5,"homeWorkCommuteMedian":-1,"workHomeCommuteMedian":16487},"geometry":{"type":"Polygon","coordinates":[[[-0.372495,43.37288941636761],[-0.372495,43.38188262000486],[-0.36350179636275465,43.38188262000486],[-0.36350179636275465,43.37288941636761],[-0.372495,43.37288941636761]]]}},{"type":"Feature","properties":{"jobs":613,"pop":241,"pointCount":11,"homeWorkCommuteMedian":13267,"workHomeCommuteMedian":15982},"geometry":{"type":"Polygon","coordinates":[[[-0.372495,43.38188262000486],[-0.372495,43.390875823642105],[-0.36350179636275465,43.390875823642105],[-0.36350179636275465,43.38188262000486],[-0.372495,43.38188262000486]]]}},{"type":"Feature","properties":{"jobs":356,"pop":40,"pointCount":5,"homeWorkCommuteMedian":17341,"workHomeCommuteMedian":15936},"geometry":{"type":"Polygon","coordinates":[[[-0.372495,43.390875823642105],[-0.372495,43.39986902727935],[-0.36350179636275465,43.39986902727935],[-0.36350179636275465,43.390875823642105],[-0.372495,43.390875823642105]]]}},{"type":"Feature","properties":{"jobs":1216,"pop":102,"pointCount":10,"homeWorkCommuteMedian":14568,"workHomeCommuteMedian":13628},"geometry":{"type":"Polygon","coordinates":[[[-0.372495,43.39986902727935],[-0.372495,43.4088622309166],[-0.36350179636275465,43.4088622309166],[-0.36350179636275465,43.39986902727935],[-0.372495,43.39986902727935]]]}},{"type":"Feature","properties":{"jobs":811,"pop":125,"pointCount":7,"homeWorkCommuteMedian":20799,"workHomeCommuteMedian":14908},"geometry":{"type":"Polygon","coordinates":[[[-0.372495,43.4088622309166],[-0.372495,43.41785543455384],[-0.36350179636275465,43.41785543455384],[-0.36350179636275465,43.4088622309166],[-0.372495,43.4088622309166]]]}},{"type":"Feature","properties":{"jobs":125,"pop":0,"pointCount":2,"homeWorkCommuteMedian":-1,"workHomeCommuteMedian":15626},"geometry":{"type":"Polygon","coordinates":[[[-0.36350179636275465,43.24698456544617],[-0.36350179636275465,43.255977769083415],[-0.3545085927255093,43.255977769083415],[-0.3545085927255093,43.24698456544617],[-0.36350179636275465,43.24698456544617]]]}},{"type":"Feature","properties":{"jobs":60,"pop":0,"pointCount":1,"homeWorkCommuteMedian":-1,"workHomeCommuteMedian":14993},"geometry":{"type":"Polygon","coordinates":[[[-0.36350179636275465,43.255977769083415],[-0.36350179636275465,43.26497097272066],[-0.3545085927255093,43.26497097272066],[-0.3545085927255093,43.255977769083415],[-0.36350179636275465,43.255977769083415]]]}},{"type":"Feature","properties":{"jobs":0,"pop":165,"pointCount":2,"homeWorkCommuteMedian":22315,"workHomeCommuteMedian":-1},"geometry":{"type":"Polygon","coordinates":[[[-0.36350179636275465,43.26497097272066],[-0.36350179636275465,43.27396417635791],[-0.3545085927255093,43.27396417635791],[-0.3545085927255093,43.26497097272066],[-0.36350179636275465,43.26497097272066]]]}},{"type":"Feature","properties":{"jobs":70,"pop":396,"pointCount":9,"homeWorkCommuteMedian":18258,"workHomeCommuteMedian":13687},"geometry":{"type":"Polygon","coordinates":[[[-0.36350179636275465,43.27396417635791],[-0.36350179636275465,43.28295737999515],[-0.3545085927255093,43.28295737999515],[-0.3545085927255093,43.27396417635791],[-0.36350179636275465,43.27396417635791]]]}},{"type":"Feature","properties":{"jobs":0,"pop":621,"pointCount":5,"homeWorkCommuteMedian":15385,"workHomeCommuteMedian":-1},"geometry":{"type":"Polygon","coordinates":[[[-0.36350179636275465,43.28295737999515],[-0.36350179636275465,43.2919505836324],[-0.3545085927255093,43.2919505836324],[-0.3545085927255093,43.28295737999515],[-0.36350179636275465,43.28295737999515]]]}},{"type":"Feature","properties":{"jobs":120,"pop":1069,"pointCount":12,"homeWorkCommuteMedian":14984,"workHomeCommuteMedian":15669},"geometry":{"type":"Polygon","coordinates":[[[-0.36350179636275465,43.2919505836324],[-0.36350179636275465,43.300943787269645],[-0.3545085927255093,43.300943787269645],[-0.3545085927255093,43.2919505836324],[-0.36350179636275465,43.2919505836324]]]}},{"type":"Feature","properties":{"jobs":413,"pop":2391,"pointCount":17,"homeWorkCommuteMedian":14164,"workHomeCommuteMedian":14525},"geometry":{"type":"Polygon","coordinates":[[[-0.36350179636275465,43.300943787269645],[-0.36350179636275465,43.30993699090689],[-0.3545085927255093,43.30993699090689],[-0.3545085927255093,43.300943787269645],[-0.36350179636275465,43.300943787269645]]]}},{"type":"Feature","properties":{"jobs":85,"pop":1050,"pointCount":8,"homeWorkCommuteMedian":13227,"workHomeCommuteMedian":13556},"geometry":{"type":"Polygon","coordinates":[[[-0.36350179636275465,43.30993699090689],[-0.36350179636275465,43.31893019454414],[-0.3545085927255093,43.31893019454414],[-0.3545085927255093,43.30993699090689],[-0.36350179636275465,43.30993699090689]]]}},{"type":"Feature","properties":{"jobs":0,"pop":1080,"pointCount":9,"homeWorkCommuteMedian":13092,"workHomeCommuteMedian":-1},"geometry":{"type":"Polygon","coordinates":[[[-0.36350179636275465,43.31893019454414],[-0.36350179636275465,43.32792339818138],[-0.3545085927255093,43.32792339818138],[-0.3545085927255093,43.31893019454414],[-0.36350179636275465,43.31893019454414]]]}},{"type":"Feature","properties":{"jobs":0,"pop":550,"pointCount":5,"homeWorkCommuteMedian":12820,"workHomeCommuteMedian":-1},"geometry":{"type":"Polygon","coordinates":[[[-0.36350179636275465,43.32792339818138],[-0.36350179636275465,43.33691660181863],[-0.3545085927255093,43.33691660181863],[-0.3545085927255093,43.32792339818138],[-0.36350179636275465,43.32792339818138]]]}},{"type":"Feature","properties":{"jobs":209,"pop":398,"pointCount":8,"homeWorkCommuteMedian":12428,"workHomeCommuteMedian":18301},"geometry":{"type":"Polygon","coordinates":[[[-0.36350179636275465,43.36389621273037],[-0.36350179636275465,43.37288941636761],[-0.3545085927255093,43.37288941636761],[-0.3545085927255093,43.36389621273037],[-0.36350179636275465,43.36389621273037]]]}},{"type":"Feature","properties":{"jobs":156,"pop":120,"pointCount":4,"homeWorkCommuteMedian":13211,"workHomeCommuteMedian":14076},"geometry":{"type":"Polygon","coordinates":[[[-0.36350179636275465,43.37288941636761],[-0.36350179636275465,43.38188262000486],[-0.3545085927255093,43.38188262000486],[-0.3545085927255093,43.37288941636761],[-0.36350179636275465,43.37288941636761]]]}},{"type":"Feature","properties":{"jobs":512,"pop":255,"pointCount":9,"homeWorkCommuteMedian":16053,"workHomeCommuteMedian":16023},"geometry":{"type":"Polygon","coordinates":[[[-0.36350179636275465,43.38188262000486],[-0.36350179636275465,43.390875823642105],[-0.3545085927255093,43.390875823642105],[-0.3545085927255093,43.38188262000486],[-0.36350179636275465,43.38188262000486]]]}},{"type":"Feature","properties":{"jobs":300,"pop":0,"pointCount":4,"homeWorkCommuteMedian":-1,"workHomeCommuteMedian":13322},"geometry":{"type":"Polygon","coordinates":[[[-0.36350179636275465,43.39986902727935],[-0.36350179636275465,43.4088622309166],[-0.3545085927255093,43.4088622309166],[-0.3545085927255093,43.39986902727935],[-0.36350179636275465,43.39986902727935]]]}},{"type":"Feature","properties":{"jobs":405,"pop":105,"pointCount":5,"homeWorkCommuteMedian":15399,"workHomeCommuteMedian":14353},"geometry":{"type":"Polygon","coordinates":[[[-0.36350179636275465,43.4088622309166],[-0.36350179636275465,43.41785543455384],[-0.3545085927255093,43.41785543455384],[-0.3545085927255093,43.4088622309166],[-0.36350179636275465,43.4088622309166]]]}},{"type":"Feature","properties":{"jobs":60,"pop":225,"pointCount":1,"homeWorkCommuteMedian":20257,"workHomeCommuteMedian":14017},"geometry":{"type":"Polygon","coordinates":[[[-0.3545085927255093,43.26497097272066],[-0.3545085927255093,43.27396417635791],[-0.3455153890882639,43.27396417635791],[-0.3455153890882639,43.26497097272066],[-0.3545085927255093,43.26497097272066]]]}},{"type":"Feature","properties":{"jobs":35,"pop":114,"pointCount":4,"homeWorkCommuteMedian":21479,"workHomeCommuteMedian":18763},"geometry":{"type":"Polygon","coordinates":[[[-0.3545085927255093,43.27396417635791],[-0.3545085927255093,43.28295737999515],[-0.3455153890882639,43.28295737999515],[-0.3455153890882639,43.27396417635791],[-0.3545085927255093,43.27396417635791]]]}},{"type":"Feature","properties":{"jobs":20,"pop":244,"pointCount":5,"homeWorkCommuteMedian":15334,"workHomeCommuteMedian":16609},"geometry":{"type":"Polygon","coordinates":[[[-0.3545085927255093,43.28295737999515],[-0.3545085927255093,43.2919505836324],[-0.3455153890882639,43.2919505836324],[-0.3455153890882639,43.28295737999515],[-0.3545085927255093,43.28295737999515]]]}},{"type":"Feature","properties":{"jobs":180,"pop":730,"pointCount":10,"homeWorkCommuteMedian":15238,"workHomeCommuteMedian":13262},"geometry":{"type":"Polygon","coordinates":[[[-0.3545085927255093,43.2919505836324],[-0.3545085927255093,43.300943787269645],[-0.3455153890882639,43.300943787269645],[-0.3455153890882639,43.2919505836324],[-0.3545085927255093,43.2919505836324]]]}},{"type":"Feature","properties":{"jobs":115,"pop":2347,"pointCount":19,"homeWorkCommuteMedian":13771,"workHomeCommuteMedian":17339},"geometry":{"type":"Polygon","coordinates":[[[-0.3545085927255093,43.300943787269645],[-0.3545085927255093,43.30993699090689],[-0.3455153890882639,43.30993699090689],[-0.3455153890882639,43.300943787269645],[-0.3545085927255093,43.300943787269645]]]}},{"type":"Feature","properties":{"jobs":61,"pop":1772,"pointCount":15,"homeWorkCommuteMedian":13058,"workHomeCommuteMedian":16987},"geometry":{"type":"Polygon","coordinates":[[[-0.3545085927255093,43.30993699090689],[-0.3545085927255093,43.31893019454414],[-0.3455153890882639,43.31893019454414],[-0.3455153890882639,43.30993699090689],[-0.3545085927255093,43.30993699090689]]]}},{"type":"Feature","properties":{"jobs":4260,"pop":1708,"pointCount":8,"homeWorkCommuteMedian":13348,"workHomeCommuteMedian":3517},"geometry":{"type":"Polygon","coordinates":[[[-0.3545085927255093,43.31893019454414],[-0.3545085927255093,43.32792339818138],[-0.3455153890882639,43.32792339818138],[-0.3455153890882639,43.31893019454414],[-0.3545085927255093,43.31893019454414]]]}},{"type":"Feature","properties":{"jobs":142,"pop":196,"pointCount":6,"homeWorkCommuteMedian":17191,"workHomeCommuteMedian":18290},"geometry":{"type":"Polygon","coordinates":[[[-0.3545085927255093,43.36389621273037],[-0.3545085927255093,43.37288941636761],[-0.3455153890882639,43.37288941636761],[-0.3455153890882639,43.36389621273037],[-0.3545085927255093,43.36389621273037]]]}},{"type":"Feature","properties":{"jobs":414,"pop":190,"pointCount":9,"homeWorkCommuteMedian":14741,"workHomeCommuteMedian":18067},"geometry":{"type":"Polygon","coordinates":[[[-0.3545085927255093,43.37288941636761],[-0.3545085927255093,43.38188262000486],[-0.3455153890882639,43.38188262000486],[-0.3455153890882639,43.37288941636761],[-0.3545085927255093,43.37288941636761]]]}},{"type":"Feature","properties":{"jobs":120,"pop":0,"pointCount":1,"homeWorkCommuteMedian":-1,"workHomeCommuteMedian":14982},"geometry":{"type":"Polygon","coordinates":[[[-0.3545085927255093,43.38188262000486],[-0.3545085927255093,43.390875823642105],[-0.3455153890882639,43.390875823642105],[-0.3455153890882639,43.38188262000486],[-0.3545085927255093,43.38188262000486]]]}},{"type":"Feature","properties":{"jobs":354,"pop":0,"pointCount":5,"homeWorkCommuteMedian":-1,"workHomeCommuteMedian":16519},"geometry":{"type":"Polygon","coordinates":[[[-0.3545085927255093,43.39986902727935],[-0.3545085927255093,43.4088622309166],[-0.3455153890882639,43.4088622309166],[-0.3455153890882639,43.39986902727935],[-0.3545085927255093,43.39986902727935]]]}},{"type":"Feature","properties":{"jobs":1096,"pop":95,"pointCount":7,"homeWorkCommuteMedian":16858,"workHomeCommuteMedian":16080},"geometry":{"type":"Polygon","coordinates":[[[-0.3545085927255093,43.4088622309166],[-0.3545085927255093,43.41785543455384],[-0.3455153890882639,43.41785543455384],[-0.3455153890882639,43.4088622309166],[-0.3545085927255093,43.4088622309166]]]}},{"type":"Feature","properties":{"jobs":20,"pop":0,"pointCount":1,"homeWorkCommuteMedian":-1,"workHomeCommuteMedian":21488},"geometry":{"type":"Polygon","coordinates":[[[-0.3455153890882639,43.24698456544617],[-0.3455153890882639,43.255977769083415],[-0.33652218545101853,43.255977769083415],[-0.33652218545101853,43.24698456544617],[-0.3455153890882639,43.24698456544617]]]}},{"type":"Feature","properties":{"jobs":185,"pop":188,"pointCount":7,"homeWorkCommuteMedian":18713,"workHomeCommuteMedian":14164},"geometry":{"type":"Polygon","coordinates":[[[-0.3455153890882639,43.26497097272066],[-0.3455153890882639,43.27396417635791],[-0.33652218545101853,43.27396417635791],[-0.33652218545101853,43.26497097272066],[-0.3455153890882639,43.26497097272066]]]}},{"type":"Feature","properties":{"jobs":37,"pop":0,"pointCount":1,"homeWorkCommuteMedian":-1,"workHomeCommuteMedian":13919},"geometry":{"type":"Polygon","coordinates":[[[-0.3455153890882639,43.27396417635791],[-0.3455153890882639,43.28295737999515],[-0.33652218545101853,43.28295737999515],[-0.33652218545101853,43.27396417635791],[-0.3455153890882639,43.27396417635791]]]}},{"type":"Feature","properties":{"jobs":0,"pop":182,"pointCount":5,"homeWorkCommuteMedian":15405,"workHomeCommuteMedian":-1},"geometry":{"type":"Polygon","coordinates":[[[-0.3455153890882639,43.28295737999515],[-0.3455153890882639,43.2919505836324],[-0.33652218545101853,43.2919505836324],[-0.33652218545101853,43.28295737999515],[-0.3455153890882639,43.28295737999515]]]}},{"type":"Feature","properties":{"jobs":0,"pop":560,"pointCount":9,"homeWorkCommuteMedian":15454,"workHomeCommuteMedian":-1},"geometry":{"type":"Polygon","coordinates":[[[-0.3455153890882639,43.2919505836324],[-0.3455153890882639,43.300943787269645],[-0.33652218545101853,43.300943787269645],[-0.33652218545101853,43.2919505836324],[-0.3455153890882639,43.2919505836324]]]}},{"type":"Feature","properties":{"jobs":60,"pop":750,"pointCount":8,"homeWorkCommuteMedian":13613,"workHomeCommuteMedian":14815},"geometry":{"type":"Polygon","coordinates":[[[-0.3455153890882639,43.300943787269645],[-0.3455153890882639,43.30993699090689],[-0.33652218545101853,43.30993699090689],[-0.33652218545101853,43.300943787269645],[-0.3455153890882639,43.300943787269645]]]}},{"type":"Feature","properties":{"jobs":60,"pop":862,"pointCount":13,"homeWorkCommuteMedian":14206,"workHomeCommuteMedian":14671},"geometry":{"type":"Polygon","coordinates":[[[-0.3455153890882639,43.30993699090689],[-0.3455153890882639,43.31893019454414],[-0.33652218545101853,43.31893019454414],[-0.33652218545101853,43.30993699090689],[-0.3455153890882639,43.30993699090689]]]}},{"type":"Feature","properties":{"jobs":117,"pop":1062,"pointCount":10,"homeWorkCommuteMedian":14097,"workHomeCommuteMedian":15474},"geometry":{"type":"Polygon","coordinates":[[[-0.3455153890882639,43.31893019454414],[-0.3455153890882639,43.32792339818138],[-0.33652218545101853,43.32792339818138],[-0.33652218545101853,43.31893019454414],[-0.3455153890882639,43.31893019454414]]]}},{"type":"Feature","properties":{"jobs":5,"pop":60,"pointCount":2,"homeWorkCommuteMedian":14558,"workHomeCommuteMedian":15270},"geometry":{"type":"Polygon","coordinates":[[[-0.3455153890882639,43.32792339818138],[-0.3455153890882639,43.33691660181863],[-0.33652218545101853,43.33691660181863],[-0.33652218545101853,43.32792339818138],[-0.3455153890882639,43.32792339818138]]]}},{"type":"Feature","properties":{"jobs":60,"pop":60,"pointCount":2,"homeWorkCommuteMedian":11595,"workHomeCommuteMedian":14802},"geometry":{"type":"Polygon","coordinates":[[[-0.3455153890882639,43.345909805455875],[-0.3455153890882639,43.35490300909312],[-0.33652218545101853,43.35490300909312],[-0.33652218545101853,43.345909805455875],[-0.3455153890882639,43.345909805455875]]]}},{"type":"Feature","properties":{"jobs":227,"pop":169,"pointCount":8,"homeWorkCommuteMedian":13835,"workHomeCommuteMedian":17627},"geometry":{"type":"Polygon","coordinates":[[[-0.3455153890882639,43.36389621273037],[-0.3455153890882639,43.37288941636761],[-0.33652218545101853,43.37288941636761],[-0.33652218545101853,43.36389621273037],[-0.3455153890882639,43.36389621273037]]]}},{"type":"Feature","properties":{"jobs":140,"pop":0,"pointCount":3,"homeWorkCommuteMedian":-1,"workHomeCommuteMedian":17328},"geometry":{"type":"Polygon","coordinates":[[[-0.3455153890882639,43.37288941636761],[-0.3455153890882639,43.38188262000486],[-0.33652218545101853,43.38188262000486],[-0.33652218545101853,43.37288941636761],[-0.3455153890882639,43.37288941636761]]]}},{"type":"Feature","properties":{"jobs":262,"pop":220,"pointCount":3,"homeWorkCommuteMedian":13881,"workHomeCommuteMedian":18557},"geometry":{"type":"Polygon","coordinates":[[[-0.3455153890882639,43.38188262000486],[-0.3455153890882639,43.390875823642105],[-0.33652218545101853,43.390875823642105],[-0.33652218545101853,43.38188262000486],[-0.3455153890882639,43.38188262000486]]]}},{"type":"Feature","properties":{"jobs":76,"pop":60,"pointCount":2,"homeWorkCommuteMedian":13179,"workHomeCommuteMedian":20756},"geometry":{"type":"Polygon","coordinates":[[[-0.3455153890882639,43.390875823642105],[-0.3455153890882639,43.39986902727935],[-0.33652218545101853,43.39986902727935],[-0.33652218545101853,43.390875823642105],[-0.3455153890882639,43.390875823642105]]]}},{"type":"Feature","properties":{"jobs":420,"pop":32,"pointCount":4,"homeWorkCommuteMedian":13449,"workHomeCommuteMedian":14398},"geometry":{"type":"Polygon","coordinates":[[[-0.3455153890882639,43.39986902727935],[-0.3455153890882639,43.4088622309166],[-0.33652218545101853,43.4088622309166],[-0.33652218545101853,43.39986902727935],[-0.3455153890882639,43.39986902727935]]]}},{"type":"Feature","properties":{"jobs":2136,"pop":183,"pointCount":14,"homeWorkCommuteMedian":16277,"workHomeCommuteMedian":16082},"geometry":{"type":"Polygon","coordinates":[[[-0.3455153890882639,43.4088622309166],[-0.3455153890882639,43.41785543455384],[-0.33652218545101853,43.41785543455384],[-0.33652218545101853,43.4088622309166],[-0.3455153890882639,43.4088622309166]]]}},{"type":"Feature","properties":{"jobs":233,"pop":193,"pointCount":8,"homeWorkCommuteMedian":19865,"workHomeCommuteMedian":13986},"geometry":{"type":"Polygon","coordinates":[[[-0.33652218545101853,43.255977769083415],[-0.33652218545101853,43.26497097272066],[-0.32752898181377316,43.26497097272066],[-0.32752898181377316,43.255977769083415],[-0.33652218545101853,43.255977769083415]]]}},{"type":"Feature","properties":{"jobs":0,"pop":20,"pointCount":2,"homeWorkCommuteMedian":18956,"workHomeCommuteMedian":-1},"geometry":{"type":"Polygon","coordinates":[[[-0.33652218545101853,43.26497097272066],[-0.33652218545101853,43.27396417635791],[-0.32752898181377316,43.27396417635791],[-0.32752898181377316,43.26497097272066],[-0.33652218545101853,43.26497097272066]]]}},{"type":"Feature","properties":{"jobs":0,"pop":29,"pointCount":3,"homeWorkCommuteMedian":15377,"workHomeCommuteMedian":-1},"geometry":{"type":"Polygon","coordinates":[[[-0.33652218545101853,43.27396417635791],[-0.33652218545101853,43.28295737999515],[-0.32752898181377316,43.28295737999515],[-0.32752898181377316,43.27396417635791],[-0.33652218545101853,43.27396417635791]]]}},{"type":"Feature","properties":{"jobs":99,"pop":105,"pointCount":3,"homeWorkCommuteMedian":18741,"workHomeCommuteMedian":19408},"geometry":{"type":"Polygon","coordinates":[[[-0.33652218545101853,43.28295737999515],[-0.33652218545101853,43.2919505836324],[-0.32752898181377316,43.2919505836324],[-0.32752898181377316,43.28295737999515],[-0.33652218545101853,43.28295737999515]]]}},{"type":"Feature","properties":{"jobs":70,"pop":519,"pointCount":7,"homeWorkCommuteMedian":15149,"workHomeCommuteMedian":17936},"geometry":{"type":"Polygon","coordinates":[[[-0.33652218545101853,43.2919505836324],[-0.33652218545101853,43.300943787269645],[-0.32752898181377316,43.300943787269645],[-0.32752898181377316,43.2919505836324],[-0.33652218545101853,43.2919505836324]]]}},{"type":"Feature","properties":{"jobs":0,"pop":300,"pointCount":5,"homeWorkCommuteMedian":17062,"workHomeCommuteMedian":-1},"geometry":{"type":"Polygon","coordinates":[[[-0.33652218545101853,43.300943787269645],[-0.33652218545101853,43.30993699090689],[-0.32752898181377316,43.30993699090689],[-0.32752898181377316,43.300943787269645],[-0.33652218545101853,43.300943787269645]]]}},{"type":"Feature","properties":{"jobs":0,"pop":1480,"pointCount":12,"homeWorkCommuteMedian":14188,"workHomeCommuteMedian":-1},"geometry":{"type":"Polygon","coordinates":[[[-0.33652218545101853,43.30993699090689],[-0.33652218545101853,43.31893019454414],[-0.32752898181377316,43.31893019454414],[-0.32752898181377316,43.30993699090689],[-0.33652218545101853,43.30993699090689]]]}},{"type":"Feature","properties":{"jobs":107,"pop":830,"pointCount":10,"homeWorkCommuteMedian":14564,"workHomeCommuteMedian":13796},"geometry":{"type":"Polygon","coordinates":[[[-0.33652218545101853,43.31893019454414],[-0.33652218545101853,43.32792339818138],[-0.32752898181377316,43.32792339818138],[-0.32752898181377316,43.31893019454414],[-0.33652218545101853,43.31893019454414]]]}},{"type":"Feature","properties":{"jobs":0,"pop":60,"pointCount":1,"homeWorkCommuteMedian":13590,"workHomeCommuteMedian":-1},"geometry":{"type":"Polygon","coordinates":[[[-0.33652218545101853,43.32792339818138],[-0.33652218545101853,43.33691660181863],[-0.32752898181377316,43.33691660181863],[-0.32752898181377316,43.32792339818138],[-0.33652218545101853,43.32792339818138]]]}},{"type":"Feature","properties":{"jobs":70,"pop":0,"pointCount":2,"homeWorkCommuteMedian":-1,"workHomeCommuteMedian":13731},"geometry":{"type":"Polygon","coordinates":[[[-0.33652218545101853,43.33691660181863],[-0.33652218545101853,43.345909805455875],[-0.32752898181377316,43.345909805455875],[-0.32752898181377316,43.33691660181863],[-0.33652218545101853,43.33691660181863]]]}},{"type":"Feature","properties":{"jobs":0,"pop":140,"pointCount":4,"homeWorkCommuteMedian":18995,"workHomeCommuteMedian":-1},"geometry":{"type":"Polygon","coordinates":[[[-0.33652218545101853,43.345909805455875],[-0.33652218545101853,43.35490300909312],[-0.32752898181377316,43.35490300909312],[-0.32752898181377316,43.345909805455875],[-0.33652218545101853,43.345909805455875]]]}},{"type":"Feature","properties":{"jobs":183,"pop":60,"pointCount":3,"homeWorkCommuteMedian":14900,"workHomeCommuteMedian":19672},"geometry":{"type":"Polygon","coordinates":[[[-0.33652218545101853,43.35490300909312],[-0.33652218545101853,43.36389621273037],[-0.32752898181377316,43.36389621273037],[-0.32752898181377316,43.35490300909312],[-0.33652218545101853,43.35490300909312]]]}},{"type":"Feature","properties":{"jobs":85,"pop":0,"pointCount":3,"homeWorkCommuteMedian":-1,"workHomeCommuteMedian":20467},"geometry":{"type":"Polygon","coordinates":[[[-0.33652218545101853,43.36389621273037],[-0.33652218545101853,43.37288941636761],[-0.32752898181377316,43.37288941636761],[-0.32752898181377316,43.36389621273037],[-0.33652218545101853,43.36389621273037]]]}},{"type":"Feature","properties":{"jobs":109,"pop":0,"pointCount":3,"homeWorkCommuteMedian":-1,"workHomeCommuteMedian":21008},"geometry":{"type":"Polygon","coordinates":[[[-0.33652218545101853,43.37288941636761],[-0.33652218545101853,43.38188262000486],[-0.32752898181377316,43.38188262000486],[-0.32752898181377316,43.37288941636761],[-0.33652218545101853,43.37288941636761]]]}},{"type":"Feature","properties":{"jobs":120,"pop":0,"pointCount":2,"homeWorkCommuteMedian":-1,"workHomeCommuteMedian":16389},"geometry":{"type":"Polygon","coordinates":[[[-0.33652218545101853,43.38188262000486],[-0.33652218545101853,43.390875823642105],[-0.32752898181377316,43.390875823642105],[-0.32752898181377316,43.38188262000486],[-0.33652218545101853,43.38188262000486]]]}},{"type":"Feature","properties":{"jobs":1119,"pop":30,"pointCount":7,"homeWorkCommuteMedian":18192,"workHomeCommuteMedian":14622},"geometry":{"type":"Polygon","coordinates":[[[-0.33652218545101853,43.390875823642105],[-0.33652218545101853,43.39986902727935],[-0.32752898181377316,43.39986902727935],[-0.32752898181377316,43.390875823642105],[-0.33652218545101853,43.390875823642105]]]}},{"type":"Feature","properties":{"jobs":856,"pop":116,"pointCount":6,"homeWorkCommuteMedian":18085,"workHomeCommuteMedian":17675},"geometry":{"type":"Polygon","coordinates":[[[-0.33652218545101853,43.39986902727935],[-0.33652218545101853,43.4088622309166],[-0.32752898181377316,43.4088622309166],[-0.32752898181377316,43.39986902727935],[-0.33652218545101853,43.39986902727935]]]}},{"type":"Feature","properties":{"jobs":120,"pop":0,"pointCount":2,"homeWorkCommuteMedian":-1,"workHomeCommuteMedian":17441},"geometry":{"type":"Polygon","coordinates":[[[-0.33652218545101853,43.4088622309166],[-0.33652218545101853,43.41785543455384],[-0.32752898181377316,43.41785543455384],[-0.32752898181377316,43.4088622309166],[-0.33652218545101853,43.4088622309166]]]}},{"type":"Feature","properties":{"jobs":701,"pop":134,"pointCount":9,"homeWorkCommuteMedian":16312,"workHomeCommuteMedian":14689},"geometry":{"type":"Polygon","coordinates":[[[-0.32752898181377316,43.24698456544617],[-0.32752898181377316,43.255977769083415],[-0.3185357781765278,43.255977769083415],[-0.3185357781765278,43.24698456544617],[-0.32752898181377316,43.24698456544617]]]}},{"type":"Feature","properties":{"jobs":65,"pop":16,"pointCount":2,"homeWorkCommuteMedian":20559,"workHomeCommuteMedian":15246},"geometry":{"type":"Polygon","coordinates":[[[-0.32752898181377316,43.255977769083415],[-0.32752898181377316,43.26497097272066],[-0.3185357781765278,43.26497097272066],[-0.3185357781765278,43.255977769083415],[-0.32752898181377316,43.255977769083415]]]}},{"type":"Feature","properties":{"jobs":0,"pop":102,"pointCount":2,"homeWorkCommuteMedian":12565,"workHomeCommuteMedian":-1},"geometry":{"type":"Polygon","coordinates":[[[-0.32752898181377316,43.26497097272066],[-0.32752898181377316,43.27396417635791],[-0.3185357781765278,43.27396417635791],[-0.3185357781765278,43.26497097272066],[-0.32752898181377316,43.26497097272066]]]}},{"type":"Feature","properties":{"jobs":65,"pop":328,"pointCount":8,"homeWorkCommuteMedian":15869,"workHomeCommuteMedian":20942},"geometry":{"type":"Polygon","coordinates":[[[-0.32752898181377316,43.27396417635791],[-0.32752898181377316,43.28295737999515],[-0.3185357781765278,43.28295737999515],[-0.3185357781765278,43.27396417635791],[-0.32752898181377316,43.27396417635791]]]}},{"type":"Feature","properties":{"jobs":71,"pop":306,"pointCount":6,"homeWorkCommuteMedian":18989,"workHomeCommuteMedian":23250},"geometry":{"type":"Polygon","coordinates":[[[-0.32752898181377316,43.28295737999515],[-0.32752898181377316,43.2919505836324],[-0.3185357781765278,43.2919505836324],[-0.3185357781765278,43.28295737999515],[-0.32752898181377316,43.28295737999515]]]}},{"type":"Feature","properties":{"jobs":140,"pop":315,"pointCount":9,"homeWorkCommuteMedian":18557,"workHomeCommuteMedian":15351},"geometry":{"type":"Polygon","coordinates":[[[-0.32752898181377316,43.2919505836324],[-0.32752898181377316,43.300943787269645],[-0.3185357781765278,43.300943787269645],[-0.3185357781765278,43.2919505836324],[-0.32752898181377316,43.2919505836324]]]}},{"type":"Feature","properties":{"jobs":0,"pop":124,"pointCount":3,"homeWorkCommuteMedian":15883,"workHomeCommuteMedian":-1},"geometry":{"type":"Polygon","coordinates":[[[-0.32752898181377316,43.300943787269645],[-0.32752898181377316,43.30993699090689],[-0.3185357781765278,43.30993699090689],[-0.3185357781765278,43.300943787269645],[-0.32752898181377316,43.300943787269645]]]}},{"type":"Feature","properties":{"jobs":0,"pop":60,"pointCount":1,"homeWorkCommuteMedian":13830,"workHomeCommuteMedian":-1},"geometry":{"type":"Polygon","coordinates":[[[-0.32752898181377316,43.30993699090689],[-0.32752898181377316,43.31893019454414],[-0.3185357781765278,43.31893019454414],[-0.3185357781765278,43.30993699090689],[-0.32752898181377316,43.30993699090689]]]}},{"type":"Feature","properties":{"jobs":0,"pop":180,"pointCount":2,"homeWorkCommuteMedian":16163,"workHomeCommuteMedian":-1},"geometry":{"type":"Polygon","coordinates":[[[-0.32752898181377316,43.31893019454414],[-0.32752898181377316,43.32792339818138],[-0.3185357781765278,43.32792339818138],[-0.3185357781765278,43.31893019454414],[-0.32752898181377316,43.31893019454414]]]}},{"type":"Feature","properties":{"jobs":60,"pop":0,"pointCount":1,"homeWorkCommuteMedian":-1,"workHomeCommuteMedian":12619},"geometry":{"type":"Polygon","coordinates":[[[-0.32752898181377316,43.33691660181863],[-0.32752898181377316,43.345909805455875],[-0.3185357781765278,43.345909805455875],[-0.3185357781765278,43.33691660181863],[-0.32752898181377316,43.33691660181863]]]}},{"type":"Feature","properties":{"jobs":0,"pop":189,"pointCount":2,"homeWorkCommuteMedian":17850,"workHomeCommuteMedian":-1},"geometry":{"type":"Polygon","coordinates":[[[-0.32752898181377316,43.345909805455875],[-0.32752898181377316,43.35490300909312],[-0.3185357781765278,43.35490300909312],[-0.3185357781765278,43.345909805455875],[-0.32752898181377316,43.345909805455875]]]}},{"type":"Feature","properties":{"jobs":0,"pop":72,"pointCount":2,"homeWorkCommuteMedian":15939,"workHomeCommuteMedian":-1},"geometry":{"type":"Polygon","coordinates":[[[-0.32752898181377316,43.35490300909312],[-0.32752898181377316,43.36389621273037],[-0.3185357781765278,43.36389621273037],[-0.3185357781765278,43.35490300909312],[-0.32752898181377316,43.35490300909312]]]}},{"type":"Feature","properties":{"jobs":70,"pop":36,"pointCount":2,"homeWorkCommuteMedian":13100,"workHomeCommuteMedian":18258},"geometry":{"type":"Polygon","coordinates":[[[-0.32752898181377316,43.36389621273037],[-0.32752898181377316,43.37288941636761],[-0.3185357781765278,43.37288941636761],[-0.3185357781765278,43.36389621273037],[-0.32752898181377316,43.36389621273037]]]}},{"type":"Feature","properties":{"jobs":81,"pop":0,"pointCount":2,"homeWorkCommuteMedian":-1,"workHomeCommuteMedian":19446},"geometry":{"type":"Polygon","coordinates":[[[-0.32752898181377316,43.37288941636761],[-0.32752898181377316,43.38188262000486],[-0.3185357781765278,43.38188262000486],[-0.3185357781765278,43.37288941636761],[-0.32752898181377316,43.37288941636761]]]}},{"type":"Feature","properties":{"jobs":123,"pop":35,"pointCount":4,"homeWorkCommuteMedian":18763,"workHomeCommuteMedian":13298},"geometry":{"type":"Polygon","coordinates":[[[-0.32752898181377316,43.38188262000486],[-0.32752898181377316,43.390875823642105],[-0.3185357781765278,43.390875823642105],[-0.3185357781765278,43.38188262000486],[-0.32752898181377316,43.38188262000486]]]}},{"type":"Feature","properties":{"jobs":305,"pop":0,"pointCount":4,"homeWorkCommuteMedian":-1,"workHomeCommuteMedian":15666},"geometry":{"type":"Polygon","coordinates":[[[-0.32752898181377316,43.390875823642105],[-0.32752898181377316,43.39986902727935],[-0.3185357781765278,43.39986902727935],[-0.3185357781765278,43.390875823642105],[-0.32752898181377316,43.390875823642105]]]}},{"type":"Feature","properties":{"jobs":60,"pop":5,"pointCount":2,"homeWorkCommuteMedian":26845,"workHomeCommuteMedian":12940},"geometry":{"type":"Polygon","coordinates":[[[-0.32752898181377316,43.39986902727935],[-0.32752898181377316,43.4088622309166],[-0.3185357781765278,43.4088622309166],[-0.3185357781765278,43.39986902727935],[-0.32752898181377316,43.39986902727935]]]}},{"type":"Feature","properties":{"jobs":240,"pop":5,"pointCount":1,"homeWorkCommuteMedian":26310,"workHomeCommuteMedian":15334},"geometry":{"type":"Polygon","coordinates":[[[-0.32752898181377316,43.4088622309166],[-0.32752898181377316,43.41785543455384],[-0.3185357781765278,43.41785543455384],[-0.3185357781765278,43.4088622309166],[-0.32752898181377316,43.4088622309166]]]}},{"type":"Feature","properties":{"jobs":259,"pop":76,"pointCount":5,"homeWorkCommuteMedian":13442,"workHomeCommuteMedian":15365},"geometry":{"type":"Polygon","coordinates":[[[-0.3185357781765278,43.24698456544617],[-0.3185357781765278,43.255977769083415],[-0.3095425745392824,43.255977769083415],[-0.3095425745392824,43.24698456544617],[-0.3185357781765278,43.24698456544617]]]}},{"type":"Feature","properties":{"jobs":367,"pop":0,"pointCount":3,"homeWorkCommuteMedian":-1,"workHomeCommuteMedian":13098},"geometry":{"type":"Polygon","coordinates":[[[-0.3185357781765278,43.255977769083415],[-0.3185357781765278,43.26497097272066],[-0.3095425745392824,43.26497097272066],[-0.3095425745392824,43.255977769083415],[-0.3185357781765278,43.255977769083415]]]}},{"type":"Feature","properties":{"jobs":305,"pop":104,"pointCount":7,"homeWorkCommuteMedian":15978,"workHomeCommuteMedian":15109},"geometry":{"type":"Polygon","coordinates":[[[-0.3185357781765278,43.26497097272066],[-0.3185357781765278,43.27396417635791],[-0.3095425745392824,43.27396417635791],[-0.3095425745392824,43.26497097272066],[-0.3185357781765278,43.26497097272066]]]}},{"type":"Feature","properties":{"jobs":0,"pop":215,"pointCount":5,"homeWorkCommuteMedian":17328,"workHomeCommuteMedian":-1},"geometry":{"type":"Polygon","coordinates":[[[-0.3185357781765278,43.28295737999515],[-0.3185357781765278,43.2919505836324],[-0.3095425745392824,43.2919505836324],[-0.3095425745392824,43.28295737999515],[-0.3185357781765278,43.28295737999515]]]}},{"type":"Feature","properties":{"jobs":0,"pop":119,"pointCount":1,"homeWorkCommuteMedian":16202,"workHomeCommuteMedian":-1},"geometry":{"type":"Polygon","coordinates":[[[-0.3185357781765278,43.2919505836324],[-0.3185357781765278,43.300943787269645],[-0.3095425745392824,43.300943787269645],[-0.3095425745392824,43.2919505836324],[-0.3185357781765278,43.2919505836324]]]}},{"type":"Feature","properties":{"jobs":296,"pop":575,"pointCount":8,"homeWorkCommuteMedian":17282,"workHomeCommuteMedian":15532},"geometry":{"type":"Polygon","coordinates":[[[-0.3185357781765278,43.300943787269645],[-0.3185357781765278,43.30993699090689],[-0.3095425745392824,43.30993699090689],[-0.3095425745392824,43.300943787269645],[-0.3185357781765278,43.300943787269645]]]}},{"type":"Feature","properties":{"jobs":60,"pop":340,"pointCount":4,"homeWorkCommuteMedian":14022,"workHomeCommuteMedian":15398},"geometry":{"type":"Polygon","coordinates":[[[-0.3185357781765278,43.31893019454414],[-0.3185357781765278,43.32792339818138],[-0.3095425745392824,43.32792339818138],[-0.3095425745392824,43.31893019454414],[-0.3185357781765278,43.31893019454414]]]}},{"type":"Feature","properties":{"jobs":0,"pop":60,"pointCount":1,"homeWorkCommuteMedian":17355,"workHomeCommuteMedian":-1},"geometry":{"type":"Polygon","coordinates":[[[-0.3185357781765278,43.33691660181863],[-0.3185357781765278,43.345909805455875],[-0.3095425745392824,43.345909805455875],[-0.3095425745392824,43.33691660181863],[-0.3185357781765278,43.33691660181863]]]}},{"type":"Feature","properties":{"jobs":11,"pop":142,"pointCount":4,"homeWorkCommuteMedian":11486,"workHomeCommuteMedian":18885},"geometry":{"type":"Polygon","coordinates":[[[-0.3185357781765278,43.345909805455875],[-0.3185357781765278,43.35490300909312],[-0.3095425745392824,43.35490300909312],[-0.3095425745392824,43.345909805455875],[-0.3185357781765278,43.345909805455875]]]}},{"type":"Feature","properties":{"jobs":60,"pop":40,"pointCount":2,"homeWorkCommuteMedian":17160,"workHomeCommuteMedian":14096},"geometry":{"type":"Polygon","coordinates":[[[-0.3185357781765278,43.35490300909312],[-0.3185357781765278,43.36389621273037],[-0.3095425745392824,43.36389621273037],[-0.3095425745392824,43.35490300909312],[-0.3185357781765278,43.35490300909312]]]}},{"type":"Feature","properties":{"jobs":131,"pop":5,"pointCount":2,"homeWorkCommuteMedian":13539,"workHomeCommuteMedian":15786},"geometry":{"type":"Polygon","coordinates":[[[-0.3185357781765278,43.37288941636761],[-0.3185357781765278,43.38188262000486],[-0.3095425745392824,43.38188262000486],[-0.3095425745392824,43.37288941636761],[-0.3185357781765278,43.37288941636761]]]}},{"type":"Feature","properties":{"jobs":0,"pop":70,"pointCount":2,"homeWorkCommuteMedian":17476,"workHomeCommuteMedian":-1},"geometry":{"type":"Polygon","coordinates":[[[-0.3185357781765278,43.38188262000486],[-0.3185357781765278,43.390875823642105],[-0.3095425745392824,43.390875823642105],[-0.3095425745392824,43.38188262000486],[-0.3185357781765278,43.38188262000486]]]}},{"type":"Feature","properties":{"jobs":406,"pop":20,"pointCount":5,"homeWorkCommuteMedian":15351,"workHomeCommuteMedian":15974},"geometry":{"type":"Polygon","coordinates":[[[-0.3185357781765278,43.390875823642105],[-0.3185357781765278,43.39986902727935],[-0.3095425745392824,43.39986902727935],[-0.3095425745392824,43.390875823642105],[-0.3185357781765278,43.390875823642105]]]}},{"type":"Feature","properties":{"jobs":555,"pop":21,"pointCount":7,"homeWorkCommuteMedian":18819,"workHomeCommuteMedian":15356},"geometry":{"type":"Polygon","coordinates":[[[-0.3185357781765278,43.39986902727935],[-0.3185357781765278,43.4088622309166],[-0.3095425745392824,43.4088622309166],[-0.3095425745392824,43.39986902727935],[-0.3185357781765278,43.39986902727935]]]}},{"type":"Feature","properties":{"jobs":250,"pop":16,"pointCount":2,"homeWorkCommuteMedian":15740,"workHomeCommuteMedian":16154},"geometry":{"type":"Polygon","coordinates":[[[-0.3185357781765278,43.4088622309166],[-0.3185357781765278,43.41785543455384],[-0.3095425745392824,43.41785543455384],[-0.3095425745392824,43.4088622309166],[-0.3185357781765278,43.4088622309166]]]}},{"type":"Feature","properties":{"jobs":1390,"pop":337,"pointCount":11,"homeWorkCommuteMedian":20453,"workHomeCommuteMedian":14665},"geometry":{"type":"Polygon","coordinates":[[[-0.3095425745392824,43.24698456544617],[-0.3095425745392824,43.255977769083415],[-0.30054937090203704,43.255977769083415],[-0.30054937090203704,43.24698456544617],[-0.3095425745392824,43.24698456544617]]]}},{"type":"Feature","properties":{"jobs":240,"pop":206,"pointCount":5,"homeWorkCommuteMedian":12582,"workHomeCommuteMedian":12807},"geometry":{"type":"Polygon","coordinates":[[[-0.3095425745392824,43.255977769083415],[-0.3095425745392824,43.26497097272066],[-0.30054937090203704,43.26497097272066],[-0.30054937090203704,43.255977769083415],[-0.3095425745392824,43.255977769083415]]]}},{"type":"Feature","properties":{"jobs":0,"pop":5,"pointCount":1,"homeWorkCommuteMedian":12817,"workHomeCommuteMedian":-1},"geometry":{"type":"Polygon","coordinates":[[[-0.3095425745392824,43.27396417635791],[-0.3095425745392824,43.28295737999515],[-0.30054937090203704,43.28295737999515],[-0.30054937090203704,43.27396417635791],[-0.3095425745392824,43.27396417635791]]]}},{"type":"Feature","properties":{"jobs":384,"pop":296,"pointCount":10,"homeWorkCommuteMedian":19604,"workHomeCommuteMedian":14541},"geometry":{"type":"Polygon","coordinates":[[[-0.3095425745392824,43.28295737999515],[-0.3095425745392824,43.2919505836324],[-0.30054937090203704,43.2919505836324],[-0.30054937090203704,43.28295737999515],[-0.3095425745392824,43.28295737999515]]]}},{"type":"Feature","properties":{"jobs":186,"pop":279,"pointCount":6,"homeWorkCommuteMedian":15982,"workHomeCommuteMedian":15938},"geometry":{"type":"Polygon","coordinates":[[[-0.3095425745392824,43.2919505836324],[-0.3095425745392824,43.300943787269645],[-0.30054937090203704,43.300943787269645],[-0.30054937090203704,43.2919505836324],[-0.3095425745392824,43.2919505836324]]]}},{"type":"Feature","properties":{"jobs":160,"pop":70,"pointCount":4,"homeWorkCommuteMedian":17982,"workHomeCommuteMedian":15893},"geometry":{"type":"Polygon","coordinates":[[[-0.3095425745392824,43.300943787269645],[-0.3095425745392824,43.30993699090689],[-0.30054937090203704,43.30993699090689],[-0.30054937090203704,43.300943787269645],[-0.3095425745392824,43.300943787269645]]]}},{"type":"Feature","properties":{"jobs":60,"pop":60,"pointCount":1,"homeWorkCommuteMedian":11253,"workHomeCommuteMedian":15192},"geometry":{"type":"Polygon","coordinates":[[[-0.3095425745392824,43.30993699090689],[-0.3095425745392824,43.31893019454414],[-0.30054937090203704,43.31893019454414],[-0.30054937090203704,43.30993699090689],[-0.3095425745392824,43.30993699090689]]]}},{"type":"Feature","properties":{"jobs":46,"pop":628,"pointCount":2,"homeWorkCommuteMedian":15322,"workHomeCommuteMedian":17404},"geometry":{"type":"Polygon","coordinates":[[[-0.3095425745392824,43.31893019454414],[-0.3095425745392824,43.32792339818138],[-0.30054937090203704,43.32792339818138],[-0.30054937090203704,43.31893019454414],[-0.3095425745392824,43.31893019454414]]]}},{"type":"Feature","properties":{"jobs":11,"pop":538,"pointCount":3,"homeWorkCommuteMedian":15355,"workHomeCommuteMedian":17851},"geometry":{"type":"Polygon","coordinates":[[[-0.3095425745392824,43.32792339818138],[-0.3095425745392824,43.33691660181863],[-0.30054937090203704,43.33691660181863],[-0.30054937090203704,43.32792339818138],[-0.3095425745392824,43.32792339818138]]]}},{"type":"Feature","properties":{"jobs":60,"pop":15,"pointCount":2,"homeWorkCommuteMedian":15596,"workHomeCommuteMedian":14756},"geometry":{"type":"Polygon","coordinates":[[[-0.3095425745392824,43.33691660181863],[-0.3095425745392824,43.345909805455875],[-0.30054937090203704,43.345909805455875],[-0.30054937090203704,43.33691660181863],[-0.3095425745392824,43.33691660181863]]]}},{"type":"Feature","properties":{"jobs":9,"pop":280,"pointCount":3,"homeWorkCommuteMedian":13465,"workHomeCommuteMedian":15180},"geometry":{"type":"Polygon","coordinates":[[[-0.3095425745392824,43.345909805455875],[-0.3095425745392824,43.35490300909312],[-0.30054937090203704,43.35490300909312],[-0.30054937090203704,43.345909805455875],[-0.3095425745392824,43.345909805455875]]]}},{"type":"Feature","properties":{"jobs":10,"pop":261,"pointCount":4,"homeWorkCommuteMedian":15254,"workHomeCommuteMedian":17800},"geometry":{"type":"Polygon","coordinates":[[[-0.3095425745392824,43.35490300909312],[-0.3095425745392824,43.36389621273037],[-0.30054937090203704,43.36389621273037],[-0.30054937090203704,43.35490300909312],[-0.3095425745392824,43.35490300909312]]]}},{"type":"Feature","properties":{"jobs":59,"pop":85,"pointCount":3,"homeWorkCommuteMedian":16721,"workHomeCommuteMedian":16610},"geometry":{"type":"Polygon","coordinates":[[[-0.3095425745392824,43.36389621273037],[-0.3095425745392824,43.37288941636761],[-0.30054937090203704,43.37288941636761],[-0.30054937090203704,43.36389621273037],[-0.3095425745392824,43.36389621273037]]]}},{"type":"Feature","properties":{"jobs":5,"pop":20,"pointCount":3,"homeWorkCommuteMedian":15601,"workHomeCommuteMedian":15316},"geometry":{"type":"Polygon","coordinates":[[[-0.3095425745392824,43.37288941636761],[-0.3095425745392824,43.38188262000486],[-0.30054937090203704,43.38188262000486],[-0.30054937090203704,43.37288941636761],[-0.3095425745392824,43.37288941636761]]]}},{"type":"Feature","properties":{"jobs":327,"pop":70,"pointCount":6,"homeWorkCommuteMedian":17915,"workHomeCommuteMedian":17917},"geometry":{"type":"Polygon","coordinates":[[[-0.3095425745392824,43.38188262000486],[-0.3095425745392824,43.390875823642105],[-0.30054937090203704,43.390875823642105],[-0.30054937090203704,43.38188262000486],[-0.3095425745392824,43.38188262000486]]]}},{"type":"Feature","properties":{"jobs":360,"pop":0,"pointCount":4,"homeWorkCommuteMedian":-1,"workHomeCommuteMedian":15612},"geometry":{"type":"Polygon","coordinates":[[[-0.3095425745392824,43.390875823642105],[-0.3095425745392824,43.39986902727935],[-0.30054937090203704,43.39986902727935],[-0.30054937090203704,43.390875823642105],[-0.3095425745392824,43.390875823642105]]]}},{"type":"Feature","properties":{"jobs":708,"pop":108,"pointCount":5,"homeWorkCommuteMedian":18535,"workHomeCommuteMedian":16753},"geometry":{"type":"Polygon","coordinates":[[[-0.3095425745392824,43.39986902727935],[-0.3095425745392824,43.4088622309166],[-0.30054937090203704,43.4088622309166],[-0.30054937090203704,43.39986902727935],[-0.3095425745392824,43.39986902727935]]]}},{"type":"Feature","properties":{"jobs":420,"pop":25,"pointCount":4,"homeWorkCommuteMedian":16206,"workHomeCommuteMedian":17036},"geometry":{"type":"Polygon","coordinates":[[[-0.3095425745392824,43.4088622309166],[-0.3095425745392824,43.41785543455384],[-0.30054937090203704,43.41785543455384],[-0.30054937090203704,43.4088622309166],[-0.3095425745392824,43.4088622309166]]]}}],"properties":{"residentWeightedNearestNeighborKm":{"p10":0.19921773865520068,"p25":0.1993169319532291,"p50":0.19938718729073546,"p75":0.19957738619472082,"p90":0.28073426689812864,"mean":0.22063352532884895},"workerWeightedNearestNeighborKm":{"p10":0.19904581467502377,"p25":0.19908663754864359,"p50":0.19960780439987577,"p75":0.31055623989335257,"p90":0.5397637936969335,"mean":0.2795771183484482},"commuteDistanceKm":{"p10":10721,"p25":12806,"p50":14523,"p75":16447,"p90":19016,"mean":14293.64645726808},"residentCellDensity":{"p10":21,"p25":60,"p50":165,"p75":446,"p90":1062,"mean":368.3532338308458},"workerCellDensity":{"p10":31,"p25":61,"p50":135,"p75":360,"p90":1096,"mean":388.1276595744681},"detail":{"radiusKm":0.199497465348737,"expectedPointSpacingKm":0.4241009843050913,"normalizedRadius":0.47040085435223083,"activityPerPoint":58.464258262874715,"playableAreaKm2":232,"playableAreaPerPointKm2":0.17832436587240585,"playableCatchmentRadiusKm":0.23824862770778377,"localityScore":0.686962333294684,"deaggregationScore":1,"score":0.828831908950593},"polycentrism":{"activity":{"score":0.885337514547351,"continuousScore":0.6526910281202108,"detectedCenterCount":2,"effectiveCenterCount":1.7942651036540695,"largestCenterShare":0.6693092477189662,"bandwidthKm":1.3,"reliabilityScore":1,"supportLevel":"high","usedFallback":false,"topCenters":[{"longitude":-0.3643291452238309,"latitude":43.30488623937419,"massShare":0.6693092477189662,"assignedMass":101818,"assignedPointCount":874,"prominenceRatio":1},{"longitude":-0.3766491555679244,"latitude":43.39981488192263,"massShare":0.3306907522810339,"assignedMass":50306,"assignedPointCount":427,"prominenceRatio":0.9999999999999727}],"debug":{"rawPeakCount":5,"mergedPeakCount":3,"filteredPeakCount":2,"prominenceThreshold":0.22,"minPointsPerCenter":10,"rejectedCenters":[{"longitude":-0.3162945752180667,"latitude":43.25980615724697,"massShare":0.05501433041466172,"assignedMass":8369,"assignedPointCount":101,"prominenceRatio":0.9999997073174535,"strongestCompetitorDistanceKm":7.580797092054613,"strongestCompetitorPotential":31958.183062116183,"localConsolidatedShare":0.05501433041466172,"localConsolidatedMass":8369,"localContributorCount":1,"localContributorDistancesKm":[],"rejectionReasons":["below_secondary_share_floor"]}]}}}}}
