{"type":"FeatureCollection","features":[{"type":"Feature","properties":{"jobs":2825,"pop":60,"pointCount":15,"homeWorkCommuteMedian":13376,"workHomeCommuteMedian":11411},"geometry":{"type":"Polygon","coordinates":[[[3.9844495654461687,48.23117417635791],[3.9844495654461687,48.24016737999516],[3.9934427690834142,48.24016737999516],[3.9934427690834142,48.23117417635791],[3.9844495654461687,48.23117417635791]]]}},{"type":"Feature","properties":{"jobs":340,"pop":60,"pointCount":1,"homeWorkCommuteMedian":14550,"workHomeCommuteMedian":8743},"geometry":{"type":"Polygon","coordinates":[[[3.9844495654461687,48.25815378726965],[3.9844495654461687,48.267146990906895],[3.9934427690834142,48.267146990906895],[3.9934427690834142,48.25815378726965],[3.9844495654461687,48.25815378726965]]]}},{"type":"Feature","properties":{"jobs":450,"pop":64,"pointCount":4,"homeWorkCommuteMedian":9546,"workHomeCommuteMedian":11201},"geometry":{"type":"Polygon","coordinates":[[[3.9844495654461687,48.27614019454414],[3.9844495654461687,48.28513339818139],[3.9934427690834142,48.28513339818139],[3.9934427690834142,48.27614019454414],[3.9844495654461687,48.27614019454414]]]}},{"type":"Feature","properties":{"jobs":1349,"pop":40,"pointCount":5,"homeWorkCommuteMedian":10664,"workHomeCommuteMedian":10451},"geometry":{"type":"Polygon","coordinates":[[[3.9934427690834142,48.23117417635791],[3.9934427690834142,48.24016737999516],[4.00243597272066,48.24016737999516],[4.00243597272066,48.23117417635791],[3.9934427690834142,48.23117417635791]]]}},{"type":"Feature","properties":{"jobs":291,"pop":15,"pointCount":2,"homeWorkCommuteMedian":7133,"workHomeCommuteMedian":10354},"geometry":{"type":"Polygon","coordinates":[[[3.9934427690834142,48.25815378726965],[3.9934427690834142,48.267146990906895],[4.00243597272066,48.267146990906895],[4.00243597272066,48.25815378726965],[3.9934427690834142,48.25815378726965]]]}},{"type":"Feature","properties":{"jobs":330,"pop":127,"pointCount":4,"homeWorkCommuteMedian":14266,"workHomeCommuteMedian":7496},"geometry":{"type":"Polygon","coordinates":[[[4.00243597272066,48.25815378726965],[4.00243597272066,48.267146990906895],[4.011429176357905,48.267146990906895],[4.011429176357905,48.25815378726965],[4.00243597272066,48.25815378726965]]]}},{"type":"Feature","properties":{"jobs":155,"pop":95,"pointCount":1,"homeWorkCommuteMedian":15132,"workHomeCommuteMedian":10177},"geometry":{"type":"Polygon","coordinates":[[[4.00243597272066,48.28513339818139],[4.00243597272066,48.29412660181863],[4.011429176357905,48.29412660181863],[4.011429176357905,48.28513339818139],[4.00243597272066,48.28513339818139]]]}},{"type":"Feature","properties":{"jobs":416,"pop":668,"pointCount":6,"homeWorkCommuteMedian":6765,"workHomeCommuteMedian":10208},"geometry":{"type":"Polygon","coordinates":[[[4.011429176357905,48.27614019454414],[4.011429176357905,48.28513339818139],[4.02042237999515,48.28513339818139],[4.02042237999515,48.27614019454414],[4.011429176357905,48.27614019454414]]]}},{"type":"Feature","properties":{"jobs":205,"pop":144,"pointCount":4,"homeWorkCommuteMedian":14006,"workHomeCommuteMedian":9503},"geometry":{"type":"Polygon","coordinates":[[[4.011429176357905,48.28513339818139],[4.011429176357905,48.29412660181863],[4.02042237999515,48.29412660181863],[4.02042237999515,48.28513339818139],[4.011429176357905,48.28513339818139]]]}},{"type":"Feature","properties":{"jobs":179,"pop":0,"pointCount":1,"homeWorkCommuteMedian":-1,"workHomeCommuteMedian":15172},"geometry":{"type":"Polygon","coordinates":[[[4.02042237999515,48.23117417635791],[4.02042237999515,48.24016737999516],[4.029415583632395,48.24016737999516],[4.029415583632395,48.23117417635791],[4.02042237999515,48.23117417635791]]]}},{"type":"Feature","properties":{"jobs":599,"pop":105,"pointCount":3,"homeWorkCommuteMedian":10593,"workHomeCommuteMedian":12517},"geometry":{"type":"Polygon","coordinates":[[[4.02042237999515,48.24016737999516],[4.02042237999515,48.2491605836324],[4.029415583632395,48.2491605836324],[4.029415583632395,48.24016737999516],[4.02042237999515,48.24016737999516]]]}},{"type":"Feature","properties":{"jobs":141,"pop":199,"pointCount":4,"homeWorkCommuteMedian":10697,"workHomeCommuteMedian":8099},"geometry":{"type":"Polygon","coordinates":[[[4.02042237999515,48.2491605836324],[4.02042237999515,48.25815378726965],[4.029415583632395,48.25815378726965],[4.029415583632395,48.2491605836324],[4.02042237999515,48.2491605836324]]]}},{"type":"Feature","properties":{"jobs":285,"pop":200,"pointCount":5,"homeWorkCommuteMedian":12663,"workHomeCommuteMedian":7531},"geometry":{"type":"Polygon","coordinates":[[[4.02042237999515,48.27614019454414],[4.02042237999515,48.28513339818139],[4.029415583632395,48.28513339818139],[4.029415583632395,48.27614019454414],[4.02042237999515,48.27614019454414]]]}},{"type":"Feature","properties":{"jobs":710,"pop":425,"pointCount":6,"homeWorkCommuteMedian":13533,"workHomeCommuteMedian":6296},"geometry":{"type":"Polygon","coordinates":[[[4.02042237999515,48.28513339818139],[4.02042237999515,48.29412660181863],[4.029415583632395,48.29412660181863],[4.029415583632395,48.28513339818139],[4.02042237999515,48.28513339818139]]]}},{"type":"Feature","properties":{"jobs":288,"pop":553,"pointCount":3,"homeWorkCommuteMedian":14922,"workHomeCommuteMedian":5987},"geometry":{"type":"Polygon","coordinates":[[[4.02042237999515,48.30311980545588],[4.02042237999515,48.312113009093125],[4.029415583632395,48.312113009093125],[4.029415583632395,48.30311980545588],[4.02042237999515,48.30311980545588]]]}},{"type":"Feature","properties":{"jobs":382,"pop":20,"pointCount":3,"homeWorkCommuteMedian":13661,"workHomeCommuteMedian":12280},"geometry":{"type":"Polygon","coordinates":[[[4.02042237999515,48.33009941636762],[4.02042237999515,48.33909262000486],[4.029415583632395,48.33909262000486],[4.029415583632395,48.33009941636762],[4.02042237999515,48.33009941636762]]]}},{"type":"Feature","properties":{"jobs":1723,"pop":1232,"pointCount":11,"homeWorkCommuteMedian":11742,"workHomeCommuteMedian":9131},"geometry":{"type":"Polygon","coordinates":[[[4.02042237999515,48.33909262000486],[4.02042237999515,48.34808582364211],[4.029415583632395,48.34808582364211],[4.029415583632395,48.33909262000486],[4.02042237999515,48.33909262000486]]]}},{"type":"Feature","properties":{"jobs":1142,"pop":621,"pointCount":7,"homeWorkCommuteMedian":8800,"workHomeCommuteMedian":7071},"geometry":{"type":"Polygon","coordinates":[[[4.029415583632395,48.2491605836324],[4.029415583632395,48.25815378726965],[4.03840878726964,48.25815378726965],[4.03840878726964,48.2491605836324],[4.029415583632395,48.2491605836324]]]}},{"type":"Feature","properties":{"jobs":377,"pop":76,"pointCount":2,"homeWorkCommuteMedian":8944,"workHomeCommuteMedian":7261},"geometry":{"type":"Polygon","coordinates":[[[4.029415583632395,48.25815378726965],[4.029415583632395,48.267146990906895],[4.03840878726964,48.267146990906895],[4.03840878726964,48.25815378726965],[4.029415583632395,48.25815378726965]]]}},{"type":"Feature","properties":{"jobs":235,"pop":602,"pointCount":4,"homeWorkCommuteMedian":7829,"workHomeCommuteMedian":12893},"geometry":{"type":"Polygon","coordinates":[[[4.029415583632395,48.27614019454414],[4.029415583632395,48.28513339818139],[4.03840878726964,48.28513339818139],[4.03840878726964,48.27614019454414],[4.029415583632395,48.27614019454414]]]}},{"type":"Feature","properties":{"jobs":437,"pop":530,"pointCount":7,"homeWorkCommuteMedian":8982,"workHomeCommuteMedian":11060},"geometry":{"type":"Polygon","coordinates":[[[4.029415583632395,48.28513339818139],[4.029415583632395,48.29412660181863],[4.03840878726964,48.29412660181863],[4.03840878726964,48.28513339818139],[4.029415583632395,48.28513339818139]]]}},{"type":"Feature","properties":{"jobs":480,"pop":332,"pointCount":8,"homeWorkCommuteMedian":11304,"workHomeCommuteMedian":7706},"geometry":{"type":"Polygon","coordinates":[[[4.029415583632395,48.29412660181863],[4.029415583632395,48.30311980545588],[4.03840878726964,48.30311980545588],[4.03840878726964,48.29412660181863],[4.029415583632395,48.29412660181863]]]}},{"type":"Feature","properties":{"jobs":634,"pop":925,"pointCount":12,"homeWorkCommuteMedian":11427,"workHomeCommuteMedian":8395},"geometry":{"type":"Polygon","coordinates":[[[4.029415583632395,48.30311980545588],[4.029415583632395,48.312113009093125],[4.03840878726964,48.312113009093125],[4.03840878726964,48.30311980545588],[4.029415583632395,48.30311980545588]]]}},{"type":"Feature","properties":{"jobs":60,"pop":0,"pointCount":1,"homeWorkCommuteMedian":-1,"workHomeCommuteMedian":14556},"geometry":{"type":"Polygon","coordinates":[[[4.029415583632395,48.32110621273037],[4.029415583632395,48.33009941636762],[4.03840878726964,48.33009941636762],[4.03840878726964,48.32110621273037],[4.029415583632395,48.32110621273037]]]}},{"type":"Feature","properties":{"jobs":1428,"pop":690,"pointCount":11,"homeWorkCommuteMedian":12540,"workHomeCommuteMedian":10254},"geometry":{"type":"Polygon","coordinates":[[[4.029415583632395,48.33009941636762],[4.029415583632395,48.33909262000486],[4.03840878726964,48.33909262000486],[4.03840878726964,48.33009941636762],[4.029415583632395,48.33009941636762]]]}},{"type":"Feature","properties":{"jobs":255,"pop":66,"pointCount":3,"homeWorkCommuteMedian":13041,"workHomeCommuteMedian":7936},"geometry":{"type":"Polygon","coordinates":[[[4.029415583632395,48.33909262000486],[4.029415583632395,48.34808582364211],[4.03840878726964,48.34808582364211],[4.03840878726964,48.33909262000486],[4.029415583632395,48.33909262000486]]]}},{"type":"Feature","properties":{"jobs":50,"pop":31,"pointCount":1,"homeWorkCommuteMedian":10253,"workHomeCommuteMedian":9883},"geometry":{"type":"Polygon","coordinates":[[[4.03840878726964,48.24016737999516],[4.03840878726964,48.2491605836324],[4.047401990906885,48.2491605836324],[4.047401990906885,48.24016737999516],[4.03840878726964,48.24016737999516]]]}},{"type":"Feature","properties":{"jobs":0,"pop":5,"pointCount":1,"homeWorkCommuteMedian":5376,"workHomeCommuteMedian":-1},"geometry":{"type":"Polygon","coordinates":[[[4.03840878726964,48.25815378726965],[4.03840878726964,48.267146990906895],[4.047401990906885,48.267146990906895],[4.047401990906885,48.25815378726965],[4.03840878726964,48.25815378726965]]]}},{"type":"Feature","properties":{"jobs":335,"pop":268,"pointCount":4,"homeWorkCommuteMedian":6657,"workHomeCommuteMedian":8948},"geometry":{"type":"Polygon","coordinates":[[[4.03840878726964,48.267146990906895],[4.03840878726964,48.27614019454414],[4.047401990906885,48.27614019454414],[4.047401990906885,48.267146990906895],[4.03840878726964,48.267146990906895]]]}},{"type":"Feature","properties":{"jobs":333,"pop":365,"pointCount":6,"homeWorkCommuteMedian":8936,"workHomeCommuteMedian":8017},"geometry":{"type":"Polygon","coordinates":[[[4.03840878726964,48.27614019454414],[4.03840878726964,48.28513339818139],[4.047401990906885,48.28513339818139],[4.047401990906885,48.27614019454414],[4.03840878726964,48.27614019454414]]]}},{"type":"Feature","properties":{"jobs":444,"pop":1514,"pointCount":9,"homeWorkCommuteMedian":8518,"workHomeCommuteMedian":5785},"geometry":{"type":"Polygon","coordinates":[[[4.03840878726964,48.28513339818139],[4.03840878726964,48.29412660181863],[4.047401990906885,48.29412660181863],[4.047401990906885,48.28513339818139],[4.03840878726964,48.28513339818139]]]}},{"type":"Feature","properties":{"jobs":202,"pop":993,"pointCount":13,"homeWorkCommuteMedian":8328,"workHomeCommuteMedian":13209},"geometry":{"type":"Polygon","coordinates":[[[4.03840878726964,48.29412660181863],[4.03840878726964,48.30311980545588],[4.047401990906885,48.30311980545588],[4.047401990906885,48.29412660181863],[4.03840878726964,48.29412660181863]]]}},{"type":"Feature","properties":{"jobs":1101,"pop":1150,"pointCount":14,"homeWorkCommuteMedian":12189,"workHomeCommuteMedian":6998},"geometry":{"type":"Polygon","coordinates":[[[4.03840878726964,48.30311980545588],[4.03840878726964,48.312113009093125],[4.047401990906885,48.312113009093125],[4.047401990906885,48.30311980545588],[4.03840878726964,48.30311980545588]]]}},{"type":"Feature","properties":{"jobs":302,"pop":540,"pointCount":6,"homeWorkCommuteMedian":11397,"workHomeCommuteMedian":8800},"geometry":{"type":"Polygon","coordinates":[[[4.03840878726964,48.312113009093125],[4.03840878726964,48.32110621273037],[4.047401990906885,48.32110621273037],[4.047401990906885,48.312113009093125],[4.03840878726964,48.312113009093125]]]}},{"type":"Feature","properties":{"jobs":0,"pop":69,"pointCount":1,"homeWorkCommuteMedian":14460,"workHomeCommuteMedian":-1},"geometry":{"type":"Polygon","coordinates":[[[4.03840878726964,48.32110621273037],[4.03840878726964,48.33009941636762],[4.047401990906885,48.33009941636762],[4.047401990906885,48.32110621273037],[4.03840878726964,48.32110621273037]]]}},{"type":"Feature","properties":{"jobs":480,"pop":45,"pointCount":3,"homeWorkCommuteMedian":16055,"workHomeCommuteMedian":7603},"geometry":{"type":"Polygon","coordinates":[[[4.03840878726964,48.33009941636762],[4.03840878726964,48.33909262000486],[4.047401990906885,48.33909262000486],[4.047401990906885,48.33009941636762],[4.03840878726964,48.33009941636762]]]}},{"type":"Feature","properties":{"jobs":155,"pop":0,"pointCount":1,"homeWorkCommuteMedian":-1,"workHomeCommuteMedian":12031},"geometry":{"type":"Polygon","coordinates":[[[4.03840878726964,48.33909262000486],[4.03840878726964,48.34808582364211],[4.047401990906885,48.34808582364211],[4.047401990906885,48.33909262000486],[4.03840878726964,48.33909262000486]]]}},{"type":"Feature","properties":{"jobs":155,"pop":16,"pointCount":1,"homeWorkCommuteMedian":10130,"workHomeCommuteMedian":16472},"geometry":{"type":"Polygon","coordinates":[[[4.047401990906885,48.23117417635791],[4.047401990906885,48.24016737999516],[4.05639519454413,48.24016737999516],[4.05639519454413,48.23117417635791],[4.047401990906885,48.23117417635791]]]}},{"type":"Feature","properties":{"jobs":120,"pop":40,"pointCount":2,"homeWorkCommuteMedian":11577,"workHomeCommuteMedian":16065},"geometry":{"type":"Polygon","coordinates":[[[4.047401990906885,48.2491605836324],[4.047401990906885,48.25815378726965],[4.05639519454413,48.25815378726965],[4.05639519454413,48.2491605836324],[4.047401990906885,48.2491605836324]]]}},{"type":"Feature","properties":{"jobs":240,"pop":470,"pointCount":3,"homeWorkCommuteMedian":6539,"workHomeCommuteMedian":13071},"geometry":{"type":"Polygon","coordinates":[[[4.047401990906885,48.267146990906895],[4.047401990906885,48.27614019454414],[4.05639519454413,48.27614019454414],[4.05639519454413,48.267146990906895],[4.047401990906885,48.267146990906895]]]}},{"type":"Feature","properties":{"jobs":370,"pop":901,"pointCount":8,"homeWorkCommuteMedian":7331,"workHomeCommuteMedian":6715},"geometry":{"type":"Polygon","coordinates":[[[4.047401990906885,48.27614019454414],[4.047401990906885,48.28513339818139],[4.05639519454413,48.28513339818139],[4.05639519454413,48.27614019454414],[4.047401990906885,48.27614019454414]]]}},{"type":"Feature","properties":{"jobs":350,"pop":1130,"pointCount":12,"homeWorkCommuteMedian":9770,"workHomeCommuteMedian":6576},"geometry":{"type":"Polygon","coordinates":[[[4.047401990906885,48.28513339818139],[4.047401990906885,48.29412660181863],[4.05639519454413,48.29412660181863],[4.05639519454413,48.28513339818139],[4.047401990906885,48.28513339818139]]]}},{"type":"Feature","properties":{"jobs":221,"pop":1922,"pointCount":12,"homeWorkCommuteMedian":9139,"workHomeCommuteMedian":8944},"geometry":{"type":"Polygon","coordinates":[[[4.047401990906885,48.29412660181863],[4.047401990906885,48.30311980545588],[4.05639519454413,48.30311980545588],[4.05639519454413,48.29412660181863],[4.047401990906885,48.29412660181863]]]}},{"type":"Feature","properties":{"jobs":486,"pop":885,"pointCount":11,"homeWorkCommuteMedian":11458,"workHomeCommuteMedian":9382},"geometry":{"type":"Polygon","coordinates":[[[4.047401990906885,48.30311980545588],[4.047401990906885,48.312113009093125],[4.05639519454413,48.312113009093125],[4.05639519454413,48.30311980545588],[4.047401990906885,48.30311980545588]]]}},{"type":"Feature","properties":{"jobs":814,"pop":658,"pointCount":7,"homeWorkCommuteMedian":9366,"workHomeCommuteMedian":8265},"geometry":{"type":"Polygon","coordinates":[[[4.047401990906885,48.312113009093125],[4.047401990906885,48.32110621273037],[4.05639519454413,48.32110621273037],[4.05639519454413,48.312113009093125],[4.047401990906885,48.312113009093125]]]}},{"type":"Feature","properties":{"jobs":519,"pop":77,"pointCount":5,"homeWorkCommuteMedian":20178,"workHomeCommuteMedian":11157},"geometry":{"type":"Polygon","coordinates":[[[4.047401990906885,48.32110621273037],[4.047401990906885,48.33009941636762],[4.05639519454413,48.33009941636762],[4.05639519454413,48.32110621273037],[4.047401990906885,48.32110621273037]]]}},{"type":"Feature","properties":{"jobs":325,"pop":264,"pointCount":3,"homeWorkCommuteMedian":6296,"workHomeCommuteMedian":9366},"geometry":{"type":"Polygon","coordinates":[[[4.05639519454413,48.2491605836324],[4.05639519454413,48.25815378726965],[4.065388398181375,48.25815378726965],[4.065388398181375,48.2491605836324],[4.05639519454413,48.2491605836324]]]}},{"type":"Feature","properties":{"jobs":901,"pop":939,"pointCount":6,"homeWorkCommuteMedian":11149,"workHomeCommuteMedian":7005},"geometry":{"type":"Polygon","coordinates":[[[4.05639519454413,48.25815378726965],[4.05639519454413,48.267146990906895],[4.065388398181375,48.267146990906895],[4.065388398181375,48.25815378726965],[4.05639519454413,48.25815378726965]]]}},{"type":"Feature","properties":{"jobs":140,"pop":747,"pointCount":5,"homeWorkCommuteMedian":10311,"workHomeCommuteMedian":5216},"geometry":{"type":"Polygon","coordinates":[[[4.05639519454413,48.267146990906895],[4.05639519454413,48.27614019454414],[4.065388398181375,48.27614019454414],[4.065388398181375,48.267146990906895],[4.05639519454413,48.267146990906895]]]}},{"type":"Feature","properties":{"jobs":445,"pop":1615,"pointCount":9,"homeWorkCommuteMedian":7711,"workHomeCommuteMedian":8999},"geometry":{"type":"Polygon","coordinates":[[[4.05639519454413,48.27614019454414],[4.05639519454413,48.28513339818139],[4.065388398181375,48.28513339818139],[4.065388398181375,48.27614019454414],[4.05639519454413,48.27614019454414]]]}},{"type":"Feature","properties":{"jobs":161,"pop":959,"pointCount":12,"homeWorkCommuteMedian":8706,"workHomeCommuteMedian":9753},"geometry":{"type":"Polygon","coordinates":[[[4.05639519454413,48.28513339818139],[4.05639519454413,48.29412660181863],[4.065388398181375,48.29412660181863],[4.065388398181375,48.28513339818139],[4.05639519454413,48.28513339818139]]]}},{"type":"Feature","properties":{"jobs":60,"pop":1866,"pointCount":10,"homeWorkCommuteMedian":7865,"workHomeCommuteMedian":5376},"geometry":{"type":"Polygon","coordinates":[[[4.05639519454413,48.29412660181863],[4.05639519454413,48.30311980545588],[4.065388398181375,48.30311980545588],[4.065388398181375,48.29412660181863],[4.05639519454413,48.29412660181863]]]}},{"type":"Feature","properties":{"jobs":607,"pop":2387,"pointCount":13,"homeWorkCommuteMedian":8812,"workHomeCommuteMedian":6994},"geometry":{"type":"Polygon","coordinates":[[[4.05639519454413,48.30311980545588],[4.05639519454413,48.312113009093125],[4.065388398181375,48.312113009093125],[4.065388398181375,48.30311980545588],[4.05639519454413,48.30311980545588]]]}},{"type":"Feature","properties":{"jobs":396,"pop":860,"pointCount":10,"homeWorkCommuteMedian":12782,"workHomeCommuteMedian":6007},"geometry":{"type":"Polygon","coordinates":[[[4.05639519454413,48.312113009093125],[4.05639519454413,48.32110621273037],[4.065388398181375,48.32110621273037],[4.065388398181375,48.312113009093125],[4.05639519454413,48.312113009093125]]]}},{"type":"Feature","properties":{"jobs":529,"pop":60,"pointCount":4,"homeWorkCommuteMedian":15462,"workHomeCommuteMedian":9902},"geometry":{"type":"Polygon","coordinates":[[[4.05639519454413,48.33909262000486],[4.05639519454413,48.34808582364211],[4.065388398181375,48.34808582364211],[4.065388398181375,48.33909262000486],[4.05639519454413,48.33909262000486]]]}},{"type":"Feature","properties":{"jobs":270,"pop":140,"pointCount":2,"homeWorkCommuteMedian":12297,"workHomeCommuteMedian":8228},"geometry":{"type":"Polygon","coordinates":[[[4.065388398181375,48.2491605836324],[4.065388398181375,48.25815378726965],[4.0743816018186205,48.25815378726965],[4.0743816018186205,48.2491605836324],[4.065388398181375,48.2491605836324]]]}},{"type":"Feature","properties":{"jobs":390,"pop":279,"pointCount":5,"homeWorkCommuteMedian":7770,"workHomeCommuteMedian":11957},"geometry":{"type":"Polygon","coordinates":[[[4.065388398181375,48.25815378726965],[4.065388398181375,48.267146990906895],[4.0743816018186205,48.267146990906895],[4.0743816018186205,48.25815378726965],[4.065388398181375,48.25815378726965]]]}},{"type":"Feature","properties":{"jobs":0,"pop":320,"pointCount":1,"homeWorkCommuteMedian":9877,"workHomeCommuteMedian":-1},"geometry":{"type":"Polygon","coordinates":[[[4.065388398181375,48.267146990906895],[4.065388398181375,48.27614019454414],[4.0743816018186205,48.27614019454414],[4.0743816018186205,48.267146990906895],[4.065388398181375,48.267146990906895]]]}},{"type":"Feature","properties":{"jobs":366,"pop":1988,"pointCount":9,"homeWorkCommuteMedian":8707,"workHomeCommuteMedian":8735},"geometry":{"type":"Polygon","coordinates":[[[4.065388398181375,48.27614019454414],[4.065388398181375,48.28513339818139],[4.0743816018186205,48.28513339818139],[4.0743816018186205,48.27614019454414],[4.065388398181375,48.27614019454414]]]}},{"type":"Feature","properties":{"jobs":110,"pop":1418,"pointCount":9,"homeWorkCommuteMedian":8582,"workHomeCommuteMedian":4774},"geometry":{"type":"Polygon","coordinates":[[[4.065388398181375,48.28513339818139],[4.065388398181375,48.29412660181863],[4.0743816018186205,48.29412660181863],[4.0743816018186205,48.28513339818139],[4.065388398181375,48.28513339818139]]]}},{"type":"Feature","properties":{"jobs":570,"pop":1400,"pointCount":10,"homeWorkCommuteMedian":7317,"workHomeCommuteMedian":5504},"geometry":{"type":"Polygon","coordinates":[[[4.065388398181375,48.29412660181863],[4.065388398181375,48.30311980545588],[4.0743816018186205,48.30311980545588],[4.0743816018186205,48.29412660181863],[4.065388398181375,48.29412660181863]]]}},{"type":"Feature","properties":{"jobs":536,"pop":1860,"pointCount":14,"homeWorkCommuteMedian":8739,"workHomeCommuteMedian":5314},"geometry":{"type":"Polygon","coordinates":[[[4.065388398181375,48.30311980545588],[4.065388398181375,48.312113009093125],[4.0743816018186205,48.312113009093125],[4.0743816018186205,48.30311980545588],[4.065388398181375,48.30311980545588]]]}},{"type":"Feature","properties":{"jobs":75,"pop":666,"pointCount":5,"homeWorkCommuteMedian":7197,"workHomeCommuteMedian":7217},"geometry":{"type":"Polygon","coordinates":[[[4.065388398181375,48.312113009093125],[4.065388398181375,48.32110621273037],[4.0743816018186205,48.32110621273037],[4.0743816018186205,48.312113009093125],[4.065388398181375,48.312113009093125]]]}},{"type":"Feature","properties":{"jobs":200,"pop":0,"pointCount":2,"homeWorkCommuteMedian":-1,"workHomeCommuteMedian":7862},"geometry":{"type":"Polygon","coordinates":[[[4.065388398181375,48.32110621273037],[4.065388398181375,48.33009941636762],[4.0743816018186205,48.33009941636762],[4.0743816018186205,48.32110621273037],[4.065388398181375,48.32110621273037]]]}},{"type":"Feature","properties":{"jobs":330,"pop":199,"pointCount":4,"homeWorkCommuteMedian":15397,"workHomeCommuteMedian":6890},"geometry":{"type":"Polygon","coordinates":[[[4.065388398181375,48.33009941636762],[4.065388398181375,48.33909262000486],[4.0743816018186205,48.33909262000486],[4.0743816018186205,48.33009941636762],[4.065388398181375,48.33009941636762]]]}},{"type":"Feature","properties":{"jobs":1225,"pop":230,"pointCount":9,"homeWorkCommuteMedian":16065,"workHomeCommuteMedian":10234},"geometry":{"type":"Polygon","coordinates":[[[4.065388398181375,48.33909262000486],[4.065388398181375,48.34808582364211],[4.0743816018186205,48.34808582364211],[4.0743816018186205,48.33909262000486],[4.065388398181375,48.33909262000486]]]}},{"type":"Feature","properties":{"jobs":1026,"pop":140,"pointCount":8,"homeWorkCommuteMedian":10177,"workHomeCommuteMedian":9760},"geometry":{"type":"Polygon","coordinates":[[[4.0743816018186205,48.23117417635791],[4.0743816018186205,48.24016737999516],[4.083374805455866,48.24016737999516],[4.083374805455866,48.23117417635791],[4.0743816018186205,48.23117417635791]]]}},{"type":"Feature","properties":{"jobs":60,"pop":5,"pointCount":1,"homeWorkCommuteMedian":10543,"workHomeCommuteMedian":7671},"geometry":{"type":"Polygon","coordinates":[[[4.0743816018186205,48.24016737999516],[4.0743816018186205,48.2491605836324],[4.083374805455866,48.2491605836324],[4.083374805455866,48.24016737999516],[4.0743816018186205,48.24016737999516]]]}},{"type":"Feature","properties":{"jobs":164,"pop":142,"pointCount":2,"homeWorkCommuteMedian":11157,"workHomeCommuteMedian":10863},"geometry":{"type":"Polygon","coordinates":[[[4.0743816018186205,48.25815378726965],[4.0743816018186205,48.267146990906895],[4.083374805455866,48.267146990906895],[4.083374805455866,48.25815378726965],[4.0743816018186205,48.25815378726965]]]}},{"type":"Feature","properties":{"jobs":526,"pop":1867,"pointCount":11,"homeWorkCommuteMedian":9245,"workHomeCommuteMedian":6300},"geometry":{"type":"Polygon","coordinates":[[[4.0743816018186205,48.267146990906895],[4.0743816018186205,48.27614019454414],[4.083374805455866,48.27614019454414],[4.083374805455866,48.267146990906895],[4.0743816018186205,48.267146990906895]]]}},{"type":"Feature","properties":{"jobs":265,"pop":1545,"pointCount":10,"homeWorkCommuteMedian":7093,"workHomeCommuteMedian":3983},"geometry":{"type":"Polygon","coordinates":[[[4.0743816018186205,48.27614019454414],[4.0743816018186205,48.28513339818139],[4.083374805455866,48.28513339818139],[4.083374805455866,48.27614019454414],[4.0743816018186205,48.27614019454414]]]}},{"type":"Feature","properties":{"jobs":346,"pop":2656,"pointCount":13,"homeWorkCommuteMedian":6943,"workHomeCommuteMedian":8063},"geometry":{"type":"Polygon","coordinates":[[[4.0743816018186205,48.28513339818139],[4.0743816018186205,48.29412660181863],[4.083374805455866,48.29412660181863],[4.083374805455866,48.28513339818139],[4.0743816018186205,48.28513339818139]]]}},{"type":"Feature","properties":{"jobs":274,"pop":1961,"pointCount":14,"homeWorkCommuteMedian":6584,"workHomeCommuteMedian":4948},"geometry":{"type":"Polygon","coordinates":[[[4.0743816018186205,48.29412660181863],[4.0743816018186205,48.30311980545588],[4.083374805455866,48.30311980545588],[4.083374805455866,48.29412660181863],[4.0743816018186205,48.29412660181863]]]}},{"type":"Feature","properties":{"jobs":60,"pop":1355,"pointCount":7,"homeWorkCommuteMedian":6963,"workHomeCommuteMedian":4300},"geometry":{"type":"Polygon","coordinates":[[[4.0743816018186205,48.30311980545588],[4.0743816018186205,48.312113009093125],[4.083374805455866,48.312113009093125],[4.083374805455866,48.30311980545588],[4.0743816018186205,48.30311980545588]]]}},{"type":"Feature","properties":{"jobs":61,"pop":300,"pointCount":4,"homeWorkCommuteMedian":10547,"workHomeCommuteMedian":5649},"geometry":{"type":"Polygon","coordinates":[[[4.0743816018186205,48.312113009093125],[4.0743816018186205,48.32110621273037],[4.083374805455866,48.32110621273037],[4.083374805455866,48.312113009093125],[4.0743816018186205,48.312113009093125]]]}},{"type":"Feature","properties":{"jobs":700,"pop":291,"pointCount":8,"homeWorkCommuteMedian":16259,"workHomeCommuteMedian":12869},"geometry":{"type":"Polygon","coordinates":[[[4.0743816018186205,48.33009941636762],[4.0743816018186205,48.33909262000486],[4.083374805455866,48.33909262000486],[4.083374805455866,48.33009941636762],[4.0743816018186205,48.33009941636762]]]}},{"type":"Feature","properties":{"jobs":669,"pop":231,"pointCount":3,"homeWorkCommuteMedian":11651,"workHomeCommuteMedian":8982},"geometry":{"type":"Polygon","coordinates":[[[4.083374805455866,48.23117417635791],[4.083374805455866,48.24016737999516],[4.092368009093111,48.24016737999516],[4.092368009093111,48.23117417635791],[4.083374805455866,48.23117417635791]]]}},{"type":"Feature","properties":{"jobs":1132,"pop":343,"pointCount":5,"homeWorkCommuteMedian":12874,"workHomeCommuteMedian":7538},"geometry":{"type":"Polygon","coordinates":[[[4.083374805455866,48.2491605836324],[4.083374805455866,48.25815378726965],[4.092368009093111,48.25815378726965],[4.092368009093111,48.2491605836324],[4.083374805455866,48.2491605836324]]]}},{"type":"Feature","properties":{"jobs":762,"pop":775,"pointCount":9,"homeWorkCommuteMedian":9142,"workHomeCommuteMedian":5812},"geometry":{"type":"Polygon","coordinates":[[[4.083374805455866,48.25815378726965],[4.083374805455866,48.267146990906895],[4.092368009093111,48.267146990906895],[4.092368009093111,48.25815378726965],[4.083374805455866,48.25815378726965]]]}},{"type":"Feature","properties":{"jobs":160,"pop":880,"pointCount":8,"homeWorkCommuteMedian":7801,"workHomeCommuteMedian":5161},"geometry":{"type":"Polygon","coordinates":[[[4.083374805455866,48.267146990906895],[4.083374805455866,48.27614019454414],[4.092368009093111,48.27614019454414],[4.092368009093111,48.267146990906895],[4.083374805455866,48.267146990906895]]]}},{"type":"Feature","properties":{"jobs":290,"pop":810,"pointCount":10,"homeWorkCommuteMedian":7683,"workHomeCommuteMedian":5287},"geometry":{"type":"Polygon","coordinates":[[[4.083374805455866,48.27614019454414],[4.083374805455866,48.28513339818139],[4.092368009093111,48.28513339818139],[4.092368009093111,48.27614019454414],[4.083374805455866,48.27614019454414]]]}},{"type":"Feature","properties":{"jobs":195,"pop":960,"pointCount":9,"homeWorkCommuteMedian":7822,"workHomeCommuteMedian":5363},"geometry":{"type":"Polygon","coordinates":[[[4.083374805455866,48.28513339818139],[4.083374805455866,48.29412660181863],[4.092368009093111,48.29412660181863],[4.092368009093111,48.28513339818139],[4.083374805455866,48.28513339818139]]]}},{"type":"Feature","properties":{"jobs":190,"pop":1052,"pointCount":12,"homeWorkCommuteMedian":8416,"workHomeCommuteMedian":7037},"geometry":{"type":"Polygon","coordinates":[[[4.083374805455866,48.29412660181863],[4.083374805455866,48.30311980545588],[4.092368009093111,48.30311980545588],[4.092368009093111,48.29412660181863],[4.083374805455866,48.29412660181863]]]}},{"type":"Feature","properties":{"jobs":538,"pop":1288,"pointCount":10,"homeWorkCommuteMedian":6515,"workHomeCommuteMedian":7179},"geometry":{"type":"Polygon","coordinates":[[[4.083374805455866,48.30311980545588],[4.083374805455866,48.312113009093125],[4.092368009093111,48.312113009093125],[4.092368009093111,48.30311980545588],[4.083374805455866,48.30311980545588]]]}},{"type":"Feature","properties":{"jobs":231,"pop":120,"pointCount":3,"homeWorkCommuteMedian":18426,"workHomeCommuteMedian":6791},"geometry":{"type":"Polygon","coordinates":[[[4.083374805455866,48.312113009093125],[4.083374805455866,48.32110621273037],[4.092368009093111,48.32110621273037],[4.092368009093111,48.312113009093125],[4.083374805455866,48.312113009093125]]]}},{"type":"Feature","properties":{"jobs":240,"pop":81,"pointCount":6,"homeWorkCommuteMedian":15717,"workHomeCommuteMedian":7055},"geometry":{"type":"Polygon","coordinates":[[[4.083374805455866,48.32110621273037],[4.083374805455866,48.33009941636762],[4.092368009093111,48.33009941636762],[4.092368009093111,48.32110621273037],[4.083374805455866,48.32110621273037]]]}},{"type":"Feature","properties":{"jobs":996,"pop":254,"pointCount":5,"homeWorkCommuteMedian":16798,"workHomeCommuteMedian":9211},"geometry":{"type":"Polygon","coordinates":[[[4.083374805455866,48.33009941636762],[4.083374805455866,48.33909262000486],[4.092368009093111,48.33909262000486],[4.092368009093111,48.33009941636762],[4.083374805455866,48.33009941636762]]]}},{"type":"Feature","properties":{"jobs":120,"pop":0,"pointCount":1,"homeWorkCommuteMedian":-1,"workHomeCommuteMedian":7306},"geometry":{"type":"Polygon","coordinates":[[[4.092368009093111,48.24016737999516],[4.092368009093111,48.2491605836324],[4.101361212730356,48.2491605836324],[4.101361212730356,48.24016737999516],[4.092368009093111,48.24016737999516]]]}},{"type":"Feature","properties":{"jobs":594,"pop":466,"pointCount":6,"homeWorkCommuteMedian":8278,"workHomeCommuteMedian":7499},"geometry":{"type":"Polygon","coordinates":[[[4.092368009093111,48.2491605836324],[4.092368009093111,48.25815378726965],[4.101361212730356,48.25815378726965],[4.101361212730356,48.2491605836324],[4.092368009093111,48.2491605836324]]]}},{"type":"Feature","properties":{"jobs":253,"pop":294,"pointCount":3,"homeWorkCommuteMedian":13358,"workHomeCommuteMedian":4791},"geometry":{"type":"Polygon","coordinates":[[[4.092368009093111,48.25815378726965],[4.092368009093111,48.267146990906895],[4.101361212730356,48.267146990906895],[4.101361212730356,48.25815378726965],[4.092368009093111,48.25815378726965]]]}},{"type":"Feature","properties":{"jobs":552,"pop":380,"pointCount":7,"homeWorkCommuteMedian":9111,"workHomeCommuteMedian":7258},"geometry":{"type":"Polygon","coordinates":[[[4.092368009093111,48.267146990906895],[4.092368009093111,48.27614019454414],[4.101361212730356,48.27614019454414],[4.101361212730356,48.267146990906895],[4.092368009093111,48.267146990906895]]]}},{"type":"Feature","properties":{"jobs":491,"pop":698,"pointCount":9,"homeWorkCommuteMedian":7326,"workHomeCommuteMedian":6960},"geometry":{"type":"Polygon","coordinates":[[[4.092368009093111,48.27614019454414],[4.092368009093111,48.28513339818139],[4.101361212730356,48.28513339818139],[4.101361212730356,48.27614019454414],[4.092368009093111,48.27614019454414]]]}},{"type":"Feature","properties":{"jobs":341,"pop":1381,"pointCount":11,"homeWorkCommuteMedian":7189,"workHomeCommuteMedian":6395},"geometry":{"type":"Polygon","coordinates":[[[4.092368009093111,48.28513339818139],[4.092368009093111,48.29412660181863],[4.101361212730356,48.29412660181863],[4.101361212730356,48.28513339818139],[4.092368009093111,48.28513339818139]]]}},{"type":"Feature","properties":{"jobs":242,"pop":849,"pointCount":12,"homeWorkCommuteMedian":9131,"workHomeCommuteMedian":10130},"geometry":{"type":"Polygon","coordinates":[[[4.092368009093111,48.29412660181863],[4.092368009093111,48.30311980545588],[4.101361212730356,48.30311980545588],[4.101361212730356,48.29412660181863],[4.092368009093111,48.29412660181863]]]}},{"type":"Feature","properties":{"jobs":148,"pop":360,"pointCount":6,"homeWorkCommuteMedian":11201,"workHomeCommuteMedian":6058},"geometry":{"type":"Polygon","coordinates":[[[4.092368009093111,48.30311980545588],[4.092368009093111,48.312113009093125],[4.101361212730356,48.312113009093125],[4.101361212730356,48.30311980545588],[4.092368009093111,48.30311980545588]]]}},{"type":"Feature","properties":{"jobs":518,"pop":344,"pointCount":7,"homeWorkCommuteMedian":6711,"workHomeCommuteMedian":7143},"geometry":{"type":"Polygon","coordinates":[[[4.092368009093111,48.312113009093125],[4.092368009093111,48.32110621273037],[4.101361212730356,48.32110621273037],[4.101361212730356,48.312113009093125],[4.092368009093111,48.312113009093125]]]}},{"type":"Feature","properties":{"jobs":414,"pop":228,"pointCount":7,"homeWorkCommuteMedian":15013,"workHomeCommuteMedian":7400},"geometry":{"type":"Polygon","coordinates":[[[4.092368009093111,48.32110621273037],[4.092368009093111,48.33009941636762],[4.101361212730356,48.33009941636762],[4.101361212730356,48.32110621273037],[4.092368009093111,48.32110621273037]]]}},{"type":"Feature","properties":{"jobs":1180,"pop":114,"pointCount":9,"homeWorkCommuteMedian":13198,"workHomeCommuteMedian":10133},"geometry":{"type":"Polygon","coordinates":[[[4.101361212730356,48.23117417635791],[4.101361212730356,48.24016737999516],[4.110354416367601,48.24016737999516],[4.110354416367601,48.23117417635791],[4.101361212730356,48.23117417635791]]]}},{"type":"Feature","properties":{"jobs":507,"pop":177,"pointCount":4,"homeWorkCommuteMedian":12582,"workHomeCommuteMedian":14373},"geometry":{"type":"Polygon","coordinates":[[[4.101361212730356,48.24016737999516],[4.101361212730356,48.2491605836324],[4.110354416367601,48.2491605836324],[4.110354416367601,48.24016737999516],[4.101361212730356,48.24016737999516]]]}},{"type":"Feature","properties":{"jobs":854,"pop":225,"pointCount":7,"homeWorkCommuteMedian":10644,"workHomeCommuteMedian":8261},"geometry":{"type":"Polygon","coordinates":[[[4.101361212730356,48.2491605836324],[4.101361212730356,48.25815378726965],[4.110354416367601,48.25815378726965],[4.110354416367601,48.2491605836324],[4.101361212730356,48.2491605836324]]]}},{"type":"Feature","properties":{"jobs":0,"pop":60,"pointCount":1,"homeWorkCommuteMedian":5212,"workHomeCommuteMedian":-1},"geometry":{"type":"Polygon","coordinates":[[[4.101361212730356,48.25815378726965],[4.101361212730356,48.267146990906895],[4.110354416367601,48.267146990906895],[4.110354416367601,48.25815378726965],[4.101361212730356,48.25815378726965]]]}},{"type":"Feature","properties":{"jobs":664,"pop":269,"pointCount":7,"homeWorkCommuteMedian":10228,"workHomeCommuteMedian":9770},"geometry":{"type":"Polygon","coordinates":[[[4.101361212730356,48.267146990906895],[4.101361212730356,48.27614019454414],[4.110354416367601,48.27614019454414],[4.110354416367601,48.267146990906895],[4.101361212730356,48.267146990906895]]]}},{"type":"Feature","properties":{"jobs":271,"pop":310,"pointCount":4,"homeWorkCommuteMedian":6981,"workHomeCommuteMedian":6614},"geometry":{"type":"Polygon","coordinates":[[[4.101361212730356,48.27614019454414],[4.101361212730356,48.28513339818139],[4.110354416367601,48.28513339818139],[4.110354416367601,48.27614019454414],[4.101361212730356,48.27614019454414]]]}},{"type":"Feature","properties":{"jobs":195,"pop":610,"pointCount":7,"homeWorkCommuteMedian":8116,"workHomeCommuteMedian":6402},"geometry":{"type":"Polygon","coordinates":[[[4.101361212730356,48.28513339818139],[4.101361212730356,48.29412660181863],[4.110354416367601,48.29412660181863],[4.110354416367601,48.28513339818139],[4.101361212730356,48.28513339818139]]]}},{"type":"Feature","properties":{"jobs":159,"pop":353,"pointCount":4,"homeWorkCommuteMedian":9380,"workHomeCommuteMedian":10253},"geometry":{"type":"Polygon","coordinates":[[[4.101361212730356,48.29412660181863],[4.101361212730356,48.30311980545588],[4.110354416367601,48.30311980545588],[4.110354416367601,48.29412660181863],[4.101361212730356,48.29412660181863]]]}},{"type":"Feature","properties":{"jobs":699,"pop":2045,"pointCount":11,"homeWorkCommuteMedian":12517,"workHomeCommuteMedian":8211},"geometry":{"type":"Polygon","coordinates":[[[4.101361212730356,48.312113009093125],[4.101361212730356,48.32110621273037],[4.110354416367601,48.32110621273037],[4.110354416367601,48.312113009093125],[4.101361212730356,48.312113009093125]]]}},{"type":"Feature","properties":{"jobs":340,"pop":190,"pointCount":4,"homeWorkCommuteMedian":11060,"workHomeCommuteMedian":6644},"geometry":{"type":"Polygon","coordinates":[[[4.101361212730356,48.32110621273037],[4.101361212730356,48.33009941636762],[4.110354416367601,48.33009941636762],[4.110354416367601,48.32110621273037],[4.101361212730356,48.32110621273037]]]}},{"type":"Feature","properties":{"jobs":1873,"pop":297,"pointCount":12,"homeWorkCommuteMedian":13229,"workHomeCommuteMedian":11492},"geometry":{"type":"Polygon","coordinates":[[[4.110354416367601,48.23117417635791],[4.110354416367601,48.24016737999516],[4.119347620004846,48.24016737999516],[4.119347620004846,48.23117417635791],[4.110354416367601,48.23117417635791]]]}},{"type":"Feature","properties":{"jobs":553,"pop":376,"pointCount":7,"homeWorkCommuteMedian":9713,"workHomeCommuteMedian":9159},"geometry":{"type":"Polygon","coordinates":[[[4.110354416367601,48.29412660181863],[4.110354416367601,48.30311980545588],[4.119347620004846,48.30311980545588],[4.119347620004846,48.29412660181863],[4.110354416367601,48.29412660181863]]]}},{"type":"Feature","properties":{"jobs":60,"pop":132,"pointCount":1,"homeWorkCommuteMedian":11513,"workHomeCommuteMedian":6908},"geometry":{"type":"Polygon","coordinates":[[[4.110354416367601,48.30311980545588],[4.110354416367601,48.312113009093125],[4.119347620004846,48.312113009093125],[4.119347620004846,48.30311980545588],[4.110354416367601,48.30311980545588]]]}},{"type":"Feature","properties":{"jobs":120,"pop":0,"pointCount":1,"homeWorkCommuteMedian":-1,"workHomeCommuteMedian":5801},"geometry":{"type":"Polygon","coordinates":[[[4.110354416367601,48.312113009093125],[4.110354416367601,48.32110621273037],[4.119347620004846,48.32110621273037],[4.119347620004846,48.312113009093125],[4.110354416367601,48.312113009093125]]]}},{"type":"Feature","properties":{"jobs":229,"pop":20,"pointCount":3,"homeWorkCommuteMedian":20022,"workHomeCommuteMedian":6755},"geometry":{"type":"Polygon","coordinates":[[[4.110354416367601,48.32110621273037],[4.110354416367601,48.33009941636762],[4.119347620004846,48.33009941636762],[4.119347620004846,48.32110621273037],[4.110354416367601,48.32110621273037]]]}},{"type":"Feature","properties":{"jobs":75,"pop":367,"pointCount":2,"homeWorkCommuteMedian":15703,"workHomeCommuteMedian":12868},"geometry":{"type":"Polygon","coordinates":[[[4.110354416367601,48.33009941636762],[4.110354416367601,48.33909262000486],[4.119347620004846,48.33909262000486],[4.119347620004846,48.33009941636762],[4.110354416367601,48.33009941636762]]]}},{"type":"Feature","properties":{"jobs":589,"pop":65,"pointCount":2,"homeWorkCommuteMedian":19589,"workHomeCommuteMedian":9930},"geometry":{"type":"Polygon","coordinates":[[[4.119347620004846,48.23117417635791],[4.119347620004846,48.24016737999516],[4.128340823642091,48.24016737999516],[4.128340823642091,48.23117417635791],[4.119347620004846,48.23117417635791]]]}},{"type":"Feature","properties":{"jobs":332,"pop":155,"pointCount":4,"homeWorkCommuteMedian":8164,"workHomeCommuteMedian":9564},"geometry":{"type":"Polygon","coordinates":[[[4.119347620004846,48.28513339818139],[4.119347620004846,48.29412660181863],[4.128340823642091,48.29412660181863],[4.128340823642091,48.28513339818139],[4.119347620004846,48.28513339818139]]]}},{"type":"Feature","properties":{"jobs":628,"pop":75,"pointCount":5,"homeWorkCommuteMedian":14220,"workHomeCommuteMedian":7030},"geometry":{"type":"Polygon","coordinates":[[[4.119347620004846,48.29412660181863],[4.119347620004846,48.30311980545588],[4.128340823642091,48.30311980545588],[4.128340823642091,48.29412660181863],[4.119347620004846,48.29412660181863]]]}},{"type":"Feature","properties":{"jobs":60,"pop":61,"pointCount":1,"homeWorkCommuteMedian":10680,"workHomeCommuteMedian":9229},"geometry":{"type":"Polygon","coordinates":[[[4.119347620004846,48.312113009093125],[4.119347620004846,48.32110621273037],[4.128340823642091,48.32110621273037],[4.128340823642091,48.312113009093125],[4.119347620004846,48.312113009093125]]]}},{"type":"Feature","properties":{"jobs":1404,"pop":364,"pointCount":9,"homeWorkCommuteMedian":15228,"workHomeCommuteMedian":8163},"geometry":{"type":"Polygon","coordinates":[[[4.119347620004846,48.32110621273037],[4.119347620004846,48.33009941636762],[4.128340823642091,48.33009941636762],[4.128340823642091,48.32110621273037],[4.119347620004846,48.32110621273037]]]}},{"type":"Feature","properties":{"jobs":1313,"pop":255,"pointCount":9,"homeWorkCommuteMedian":14650,"workHomeCommuteMedian":9877},"geometry":{"type":"Polygon","coordinates":[[[4.119347620004846,48.33009941636762],[4.119347620004846,48.33909262000486],[4.128340823642091,48.33909262000486],[4.128340823642091,48.33009941636762],[4.119347620004846,48.33009941636762]]]}},{"type":"Feature","properties":{"jobs":100,"pop":45,"pointCount":1,"homeWorkCommuteMedian":16714,"workHomeCommuteMedian":6549},"geometry":{"type":"Polygon","coordinates":[[[4.128340823642091,48.25815378726965],[4.128340823642091,48.267146990906895],[4.137334027279336,48.267146990906895],[4.137334027279336,48.25815378726965],[4.128340823642091,48.25815378726965]]]}},{"type":"Feature","properties":{"jobs":60,"pop":0,"pointCount":1,"homeWorkCommuteMedian":-1,"workHomeCommuteMedian":15453},"geometry":{"type":"Polygon","coordinates":[[[4.128340823642091,48.267146990906895],[4.128340823642091,48.27614019454414],[4.137334027279336,48.27614019454414],[4.137334027279336,48.267146990906895],[4.128340823642091,48.267146990906895]]]}},{"type":"Feature","properties":{"jobs":123,"pop":60,"pointCount":1,"homeWorkCommuteMedian":14697,"workHomeCommuteMedian":13154},"geometry":{"type":"Polygon","coordinates":[[[4.128340823642091,48.29412660181863],[4.128340823642091,48.30311980545588],[4.137334027279336,48.30311980545588],[4.137334027279336,48.29412660181863],[4.128340823642091,48.29412660181863]]]}},{"type":"Feature","properties":{"jobs":259,"pop":60,"pointCount":3,"homeWorkCommuteMedian":11756,"workHomeCommuteMedian":10272},"geometry":{"type":"Polygon","coordinates":[[[4.128340823642091,48.32110621273037],[4.128340823642091,48.33009941636762],[4.137334027279336,48.33009941636762],[4.137334027279336,48.32110621273037],[4.128340823642091,48.32110621273037]]]}},{"type":"Feature","properties":{"jobs":939,"pop":386,"pointCount":7,"homeWorkCommuteMedian":13341,"workHomeCommuteMedian":9471},"geometry":{"type":"Polygon","coordinates":[[[4.128340823642091,48.33009941636762],[4.128340823642091,48.33909262000486],[4.137334027279336,48.33909262000486],[4.137334027279336,48.33009941636762],[4.128340823642091,48.33009941636762]]]}},{"type":"Feature","properties":{"jobs":60,"pop":60,"pointCount":1,"homeWorkCommuteMedian":9860,"workHomeCommuteMedian":7865},"geometry":{"type":"Polygon","coordinates":[[[4.128340823642091,48.33909262000486],[4.128340823642091,48.34808582364211],[4.137334027279336,48.34808582364211],[4.137334027279336,48.33909262000486],[4.128340823642091,48.33909262000486]]]}},{"type":"Feature","properties":{"jobs":1626,"pop":190,"pointCount":8,"homeWorkCommuteMedian":15268,"workHomeCommuteMedian":12642},"geometry":{"type":"Polygon","coordinates":[[[4.137334027279336,48.23117417635791],[4.137334027279336,48.24016737999516],[4.146327230916581,48.24016737999516],[4.146327230916581,48.23117417635791],[4.137334027279336,48.23117417635791]]]}},{"type":"Feature","properties":{"jobs":591,"pop":0,"pointCount":4,"homeWorkCommuteMedian":-1,"workHomeCommuteMedian":15943},"geometry":{"type":"Polygon","coordinates":[[[4.137334027279336,48.24016737999516],[4.137334027279336,48.2491605836324],[4.146327230916581,48.2491605836324],[4.146327230916581,48.24016737999516],[4.137334027279336,48.24016737999516]]]}},{"type":"Feature","properties":{"jobs":406,"pop":50,"pointCount":5,"homeWorkCommuteMedian":12990,"workHomeCommuteMedian":13693},"geometry":{"type":"Polygon","coordinates":[[[4.137334027279336,48.25815378726965],[4.137334027279336,48.267146990906895],[4.146327230916581,48.267146990906895],[4.146327230916581,48.25815378726965],[4.137334027279336,48.25815378726965]]]}},{"type":"Feature","properties":{"jobs":419,"pop":157,"pointCount":6,"homeWorkCommuteMedian":10918,"workHomeCommuteMedian":13158},"geometry":{"type":"Polygon","coordinates":[[[4.137334027279336,48.29412660181863],[4.137334027279336,48.30311980545588],[4.146327230916581,48.30311980545588],[4.146327230916581,48.29412660181863],[4.137334027279336,48.29412660181863]]]}},{"type":"Feature","properties":{"jobs":100,"pop":0,"pointCount":1,"homeWorkCommuteMedian":-1,"workHomeCommuteMedian":14871},"geometry":{"type":"Polygon","coordinates":[[[4.137334027279336,48.30311980545588],[4.137334027279336,48.312113009093125],[4.146327230916581,48.312113009093125],[4.146327230916581,48.30311980545588],[4.137334027279336,48.30311980545588]]]}},{"type":"Feature","properties":{"jobs":3593,"pop":267,"pointCount":17,"homeWorkCommuteMedian":13931,"workHomeCommuteMedian":12660},"geometry":{"type":"Polygon","coordinates":[[[4.146327230916581,48.23117417635791],[4.146327230916581,48.24016737999516],[4.155320434553826,48.24016737999516],[4.155320434553826,48.23117417635791],[4.146327230916581,48.23117417635791]]]}},{"type":"Feature","properties":{"jobs":1109,"pop":209,"pointCount":6,"homeWorkCommuteMedian":14547,"workHomeCommuteMedian":12983},"geometry":{"type":"Polygon","coordinates":[[[4.146327230916581,48.24016737999516],[4.146327230916581,48.2491605836324],[4.155320434553826,48.2491605836324],[4.155320434553826,48.24016737999516],[4.146327230916581,48.24016737999516]]]}},{"type":"Feature","properties":{"jobs":100,"pop":5,"pointCount":1,"homeWorkCommuteMedian":9318,"workHomeCommuteMedian":13038},"geometry":{"type":"Polygon","coordinates":[[[4.146327230916581,48.2491605836324],[4.146327230916581,48.25815378726965],[4.155320434553826,48.25815378726965],[4.155320434553826,48.2491605836324],[4.146327230916581,48.2491605836324]]]}},{"type":"Feature","properties":{"jobs":476,"pop":115,"pointCount":3,"homeWorkCommuteMedian":15004,"workHomeCommuteMedian":10494},"geometry":{"type":"Polygon","coordinates":[[[4.146327230916581,48.25815378726965],[4.146327230916581,48.267146990906895],[4.155320434553826,48.267146990906895],[4.155320434553826,48.25815378726965],[4.146327230916581,48.25815378726965]]]}},{"type":"Feature","properties":{"jobs":738,"pop":195,"pointCount":4,"homeWorkCommuteMedian":12906,"workHomeCommuteMedian":13000},"geometry":{"type":"Polygon","coordinates":[[[4.146327230916581,48.29412660181863],[4.146327230916581,48.30311980545588],[4.155320434553826,48.30311980545588],[4.155320434553826,48.29412660181863],[4.146327230916581,48.29412660181863]]]}},{"type":"Feature","properties":{"jobs":215,"pop":10,"pointCount":1,"homeWorkCommuteMedian":18586,"workHomeCommuteMedian":8463},"geometry":{"type":"Polygon","coordinates":[[[4.146327230916581,48.30311980545588],[4.146327230916581,48.312113009093125],[4.155320434553826,48.312113009093125],[4.155320434553826,48.30311980545588],[4.146327230916581,48.30311980545588]]]}},{"type":"Feature","properties":{"jobs":180,"pop":0,"pointCount":1,"homeWorkCommuteMedian":-1,"workHomeCommuteMedian":7561},"geometry":{"type":"Polygon","coordinates":[[[4.146327230916581,48.312113009093125],[4.146327230916581,48.32110621273037],[4.155320434553826,48.32110621273037],[4.155320434553826,48.312113009093125],[4.146327230916581,48.312113009093125]]]}}],"properties":{"residentWeightedNearestNeighborKm":{"p10":0.19891221414332286,"p25":0.19905954555131858,"p50":0.19959198122834582,"p75":0.19964498760258728,"p90":0.19978463710124336,"mean":0.21115599418462477},"workerWeightedNearestNeighborKm":{"p10":0.1989885946511572,"p25":0.1991721523566157,"p50":0.19958949422682604,"p75":0.19964593315360724,"p90":0.20081321281758835,"mean":0.21326765948332094},"commuteDistanceKm":{"p10":5144,"p25":6661,"p50":9298,"p75":12598,"p90":15534,"mean":9892.52397260274},"residentCellDensity":{"p10":45,"p25":105,"p50":294,"p75":810,"p90":1418,"mean":531.5748031496063},"workerCellDensity":{"p10":100,"p25":195,"p50":341,"p75":591,"p90":1109,"mean":494.63157894736844},"detail":{"radiusKm":0.19959073772371227,"expectedPointSpacingKm":0.4075053448245876,"normalizedRadius":0.489786797298639,"activityPerPoint":83.13333333333334,"playableAreaKm2":172,"playableAreaPerPointKm2":0.2084848484848485,"playableCatchmentRadiusKm":0.25760975989324814,"localityScore":0.6442025475306735,"deaggregationScore":1,"score":0.8026222944390926},"polycentrism":{"activity":{"score":0,"continuousScore":0.31281737144706784,"detectedCenterCount":1,"effectiveCenterCount":1,"largestCenterShare":1,"bandwidthKm":1.3,"reliabilityScore":1,"supportLevel":"high","usedFallback":false,"topCenters":[{"longitude":4.073660537620466,"latitude":48.28681727662026,"massShare":1,"assignedMass":137170,"assignedPointCount":825,"prominenceRatio":1}],"debug":{"rawPeakCount":6,"mergedPeakCount":3,"filteredPeakCount":1,"prominenceThreshold":0.22,"minPointsPerCenter":10,"rejectedCenters":[{"longitude":4.12499555409457,"latitude":48.24008527165622,"massShare":0.1386090252970766,"assignedMass":19013,"assignedPointCount":102,"prominenceRatio":0.9999999957330862,"strongestCompetitorDistanceKm":8.303053127474316,"strongestCompetitorPotential":25854.907995245572,"localConsolidatedShare":0.1386090252970766,"localConsolidatedMass":19013,"localContributorCount":1,"localContributorDistancesKm":[],"rejectionReasons":["not_dominant_local_peak","below_relative_share_floor","too_close_for_low_share_center"]},{"longitude":4.005268990995541,"latitude":48.24694920558782,"massShare":0.08662972953269665,"assignedMass":11883,"assignedPointCount":61,"prominenceRatio":0.9999999993200396,"strongestCompetitorDistanceKm":8.767574174255595,"strongestCompetitorPotential":25854.907995245572,"localConsolidatedShare":0.08662972953269665,"localConsolidatedMass":11883,"localContributorCount":1,"localContributorDistancesKm":[],"rejectionReasons":["not_dominant_local_peak","below_relative_share_floor","too_close_for_low_share_center"]}]}}}}}
