{"type":"FeatureCollection","features":[{"type":"Feature","properties":{"jobs":5,"pop":0,"pointCount":1,"homeWorkCommuteMedian":-1,"workHomeCommuteMedian":17802},"geometry":{"type":"Polygon","coordinates":[[[-119.32270077123086,46.128203441512035],[-119.32270077123086,46.13719664514928],[-119.31370756759361,46.13719664514928],[-119.31370756759361,46.128203441512035],[-119.32270077123086,46.128203441512035]]]}},{"type":"Feature","properties":{"jobs":5,"pop":115,"pointCount":1,"homeWorkCommuteMedian":17947,"workHomeCommuteMedian":15317},"geometry":{"type":"Polygon","coordinates":[[[-119.32270077123086,46.16417625606102],[-119.32270077123086,46.173169459698265],[-119.31370756759361,46.173169459698265],[-119.31370756759361,46.16417625606102],[-119.32270077123086,46.16417625606102]]]}},{"type":"Feature","properties":{"jobs":65,"pop":965,"pointCount":1,"homeWorkCommuteMedian":18003,"workHomeCommuteMedian":14338},"geometry":{"type":"Polygon","coordinates":[[[-119.32270077123086,46.19115586697276],[-119.32270077123086,46.20014907061],[-119.31370756759361,46.20014907061],[-119.31370756759361,46.19115586697276],[-119.32270077123086,46.19115586697276]]]}},{"type":"Feature","properties":{"jobs":55,"pop":260,"pointCount":1,"homeWorkCommuteMedian":15449,"workHomeCommuteMedian":21770},"geometry":{"type":"Polygon","coordinates":[[[-119.32270077123086,46.20914227424725],[-119.32270077123086,46.218135477884495],[-119.31370756759361,46.218135477884495],[-119.31370756759361,46.20914227424725],[-119.32270077123086,46.20914227424725]]]}},{"type":"Feature","properties":{"jobs":500,"pop":15,"pointCount":1,"homeWorkCommuteMedian":20303,"workHomeCommuteMedian":10298},"geometry":{"type":"Polygon","coordinates":[[[-119.32270077123086,46.25410829243348],[-119.32270077123086,46.263101496070725],[-119.31370756759361,46.263101496070725],[-119.31370756759361,46.25410829243348],[-119.32270077123086,46.25410829243348]]]}},{"type":"Feature","properties":{"jobs":120,"pop":175,"pointCount":1,"homeWorkCommuteMedian":24725,"workHomeCommuteMedian":20210},"geometry":{"type":"Polygon","coordinates":[[[-119.31370756759361,46.15518305242377],[-119.31370756759361,46.16417625606102],[-119.30471436395636,46.16417625606102],[-119.30471436395636,46.15518305242377],[-119.31370756759361,46.15518305242377]]]}},{"type":"Feature","properties":{"jobs":180,"pop":2615,"pointCount":1,"homeWorkCommuteMedian":15268,"workHomeCommuteMedian":14649},"geometry":{"type":"Polygon","coordinates":[[[-119.31370756759361,46.20014907061],[-119.31370756759361,46.20914227424725],[-119.30471436395636,46.20914227424725],[-119.30471436395636,46.20014907061],[-119.31370756759361,46.20014907061]]]}},{"type":"Feature","properties":{"jobs":70,"pop":205,"pointCount":1,"homeWorkCommuteMedian":10287,"workHomeCommuteMedian":10272},"geometry":{"type":"Polygon","coordinates":[[[-119.31370756759361,46.23612188515899],[-119.31370756759361,46.24511508879623],[-119.30471436395636,46.24511508879623],[-119.30471436395636,46.23612188515899],[-119.31370756759361,46.23612188515899]]]}},{"type":"Feature","properties":{"jobs":1350,"pop":885,"pointCount":1,"homeWorkCommuteMedian":9502,"workHomeCommuteMedian":15058},"geometry":{"type":"Polygon","coordinates":[[[-119.31370756759361,46.24511508879623],[-119.31370756759361,46.25410829243348],[-119.30471436395636,46.25410829243348],[-119.30471436395636,46.24511508879623],[-119.31370756759361,46.24511508879623]]]}},{"type":"Feature","properties":{"jobs":4155,"pop":1980,"pointCount":2,"homeWorkCommuteMedian":11309,"workHomeCommuteMedian":13283},"geometry":{"type":"Polygon","coordinates":[[[-119.31370756759361,46.25410829243348],[-119.31370756759361,46.263101496070725],[-119.30471436395636,46.263101496070725],[-119.30471436395636,46.25410829243348],[-119.31370756759361,46.25410829243348]]]}},{"type":"Feature","properties":{"jobs":2775,"pop":155,"pointCount":1,"homeWorkCommuteMedian":18586,"workHomeCommuteMedian":16350},"geometry":{"type":"Polygon","coordinates":[[[-119.31370756759361,46.29907431061971],[-119.31370756759361,46.308067514256955],[-119.30471436395636,46.308067514256955],[-119.30471436395636,46.29907431061971],[-119.31370756759361,46.29907431061971]]]}},{"type":"Feature","properties":{"jobs":415,"pop":0,"pointCount":1,"homeWorkCommuteMedian":-1,"workHomeCommuteMedian":21794},"geometry":{"type":"Polygon","coordinates":[[[-119.31370756759361,46.3170607178942],[-119.31370756759361,46.32605392153145],[-119.30471436395636,46.32605392153145],[-119.30471436395636,46.3170607178942],[-119.31370756759361,46.3170607178942]]]}},{"type":"Feature","properties":{"jobs":100,"pop":565,"pointCount":1,"homeWorkCommuteMedian":13001,"workHomeCommuteMedian":17113},"geometry":{"type":"Polygon","coordinates":[[[-119.30471436395636,46.218135477884495],[-119.30471436395636,46.22712868152174],[-119.29572116031912,46.22712868152174],[-119.29572116031912,46.218135477884495],[-119.30471436395636,46.218135477884495]]]}},{"type":"Feature","properties":{"jobs":45,"pop":1905,"pointCount":1,"homeWorkCommuteMedian":7780,"workHomeCommuteMedian":16259},"geometry":{"type":"Polygon","coordinates":[[[-119.30471436395636,46.24511508879623],[-119.30471436395636,46.25410829243348],[-119.29572116031912,46.25410829243348],[-119.29572116031912,46.24511508879623],[-119.30471436395636,46.24511508879623]]]}},{"type":"Feature","properties":{"jobs":345,"pop":230,"pointCount":1,"homeWorkCommuteMedian":10317,"workHomeCommuteMedian":14558},"geometry":{"type":"Polygon","coordinates":[[[-119.30471436395636,46.25410829243348],[-119.30471436395636,46.263101496070725],[-119.29572116031912,46.263101496070725],[-119.29572116031912,46.25410829243348],[-119.30471436395636,46.25410829243348]]]}},{"type":"Feature","properties":{"jobs":745,"pop":3585,"pointCount":1,"homeWorkCommuteMedian":10869,"workHomeCommuteMedian":11550},"geometry":{"type":"Polygon","coordinates":[[[-119.30471436395636,46.263101496070725],[-119.30471436395636,46.27209469970797],[-119.29572116031912,46.27209469970797],[-119.29572116031912,46.263101496070725],[-119.30471436395636,46.263101496070725]]]}},{"type":"Feature","properties":{"jobs":390,"pop":5665,"pointCount":2,"homeWorkCommuteMedian":9238,"workHomeCommuteMedian":12319},"geometry":{"type":"Polygon","coordinates":[[[-119.30471436395636,46.28108790334522],[-119.30471436395636,46.29008110698246],[-119.29572116031912,46.29008110698246],[-119.29572116031912,46.28108790334522],[-119.30471436395636,46.28108790334522]]]}},{"type":"Feature","properties":{"jobs":1840,"pop":905,"pointCount":2,"homeWorkCommuteMedian":11387,"workHomeCommuteMedian":15449},"geometry":{"type":"Polygon","coordinates":[[[-119.30471436395636,46.29008110698246],[-119.30471436395636,46.29907431061971],[-119.29572116031912,46.29907431061971],[-119.29572116031912,46.29008110698246],[-119.30471436395636,46.29008110698246]]]}},{"type":"Feature","properties":{"jobs":1225,"pop":1550,"pointCount":1,"homeWorkCommuteMedian":13624,"workHomeCommuteMedian":17164},"geometry":{"type":"Polygon","coordinates":[[[-119.30471436395636,46.29907431061971],[-119.30471436395636,46.308067514256955],[-119.29572116031912,46.308067514256955],[-119.29572116031912,46.29907431061971],[-119.30471436395636,46.29907431061971]]]}},{"type":"Feature","properties":{"jobs":1235,"pop":55,"pointCount":1,"homeWorkCommuteMedian":12485,"workHomeCommuteMedian":19807},"geometry":{"type":"Polygon","coordinates":[[[-119.30471436395636,46.308067514256955],[-119.30471436395636,46.3170607178942],[-119.29572116031912,46.3170607178942],[-119.29572116031912,46.308067514256955],[-119.30471436395636,46.308067514256955]]]}},{"type":"Feature","properties":{"jobs":130,"pop":1680,"pointCount":1,"homeWorkCommuteMedian":15333,"workHomeCommuteMedian":16072},"geometry":{"type":"Polygon","coordinates":[[[-119.29572116031912,46.173169459698265],[-119.29572116031912,46.18216266333551],[-119.28672795668187,46.18216266333551],[-119.28672795668187,46.173169459698265],[-119.29572116031912,46.173169459698265]]]}},{"type":"Feature","properties":{"jobs":285,"pop":1405,"pointCount":1,"homeWorkCommuteMedian":15309,"workHomeCommuteMedian":18245},"geometry":{"type":"Polygon","coordinates":[[[-119.29572116031912,46.18216266333551],[-119.29572116031912,46.19115586697276],[-119.28672795668187,46.19115586697276],[-119.28672795668187,46.18216266333551],[-119.29572116031912,46.18216266333551]]]}},{"type":"Feature","properties":{"jobs":200,"pop":1065,"pointCount":1,"homeWorkCommuteMedian":14851,"workHomeCommuteMedian":14482},"geometry":{"type":"Polygon","coordinates":[[[-119.29572116031912,46.20014907061],[-119.29572116031912,46.20914227424725],[-119.28672795668187,46.20914227424725],[-119.28672795668187,46.20014907061],[-119.29572116031912,46.20014907061]]]}},{"type":"Feature","properties":{"jobs":275,"pop":985,"pointCount":1,"homeWorkCommuteMedian":10162,"workHomeCommuteMedian":13302},"geometry":{"type":"Polygon","coordinates":[[[-119.29572116031912,46.22712868152174],[-119.29572116031912,46.23612188515899],[-119.28672795668187,46.23612188515899],[-119.28672795668187,46.22712868152174],[-119.29572116031912,46.22712868152174]]]}},{"type":"Feature","properties":{"jobs":19220,"pop":4155,"pointCount":1,"homeWorkCommuteMedian":10572,"workHomeCommuteMedian":10214},"geometry":{"type":"Polygon","coordinates":[[[-119.29572116031912,46.24511508879623],[-119.29572116031912,46.25410829243348],[-119.28672795668187,46.25410829243348],[-119.28672795668187,46.24511508879623],[-119.29572116031912,46.24511508879623]]]}},{"type":"Feature","properties":{"jobs":940,"pop":735,"pointCount":1,"homeWorkCommuteMedian":13624,"workHomeCommuteMedian":12269},"geometry":{"type":"Polygon","coordinates":[[[-119.29572116031912,46.25410829243348],[-119.29572116031912,46.263101496070725],[-119.28672795668187,46.263101496070725],[-119.28672795668187,46.25410829243348],[-119.29572116031912,46.25410829243348]]]}},{"type":"Feature","properties":{"jobs":520,"pop":1125,"pointCount":1,"homeWorkCommuteMedian":10209,"workHomeCommuteMedian":13865},"geometry":{"type":"Polygon","coordinates":[[[-119.29572116031912,46.27209469970797],[-119.29572116031912,46.28108790334522],[-119.28672795668187,46.28108790334522],[-119.28672795668187,46.27209469970797],[-119.29572116031912,46.27209469970797]]]}},{"type":"Feature","properties":{"jobs":120,"pop":3900,"pointCount":1,"homeWorkCommuteMedian":15243,"workHomeCommuteMedian":10601},"geometry":{"type":"Polygon","coordinates":[[[-119.29572116031912,46.29008110698246],[-119.29572116031912,46.29907431061971],[-119.28672795668187,46.29907431061971],[-119.28672795668187,46.29008110698246],[-119.29572116031912,46.29008110698246]]]}},{"type":"Feature","properties":{"jobs":45,"pop":5,"pointCount":1,"homeWorkCommuteMedian":24408,"workHomeCommuteMedian":16388},"geometry":{"type":"Polygon","coordinates":[[[-119.28672795668187,46.128203441512035],[-119.28672795668187,46.13719664514928],[-119.27773475304463,46.13719664514928],[-119.27773475304463,46.128203441512035],[-119.28672795668187,46.128203441512035]]]}},{"type":"Feature","properties":{"jobs":5,"pop":0,"pointCount":1,"homeWorkCommuteMedian":-1,"workHomeCommuteMedian":11224},"geometry":{"type":"Polygon","coordinates":[[[-119.28672795668187,46.15518305242377],[-119.28672795668187,46.16417625606102],[-119.27773475304463,46.16417625606102],[-119.27773475304463,46.15518305242377],[-119.28672795668187,46.15518305242377]]]}},{"type":"Feature","properties":{"jobs":285,"pop":700,"pointCount":1,"homeWorkCommuteMedian":10422,"workHomeCommuteMedian":14354},"geometry":{"type":"Polygon","coordinates":[[[-119.28672795668187,46.218135477884495],[-119.28672795668187,46.22712868152174],[-119.27773475304463,46.22712868152174],[-119.27773475304463,46.218135477884495],[-119.28672795668187,46.218135477884495]]]}},{"type":"Feature","properties":{"jobs":640,"pop":40,"pointCount":1,"homeWorkCommuteMedian":15795,"workHomeCommuteMedian":15504},"geometry":{"type":"Polygon","coordinates":[[[-119.28672795668187,46.22712868152174],[-119.28672795668187,46.23612188515899],[-119.27773475304463,46.23612188515899],[-119.27773475304463,46.22712868152174],[-119.28672795668187,46.22712868152174]]]}},{"type":"Feature","properties":{"jobs":405,"pop":1080,"pointCount":1,"homeWorkCommuteMedian":10853,"workHomeCommuteMedian":14097},"geometry":{"type":"Polygon","coordinates":[[[-119.28672795668187,46.23612188515899],[-119.28672795668187,46.24511508879623],[-119.27773475304463,46.24511508879623],[-119.27773475304463,46.23612188515899],[-119.28672795668187,46.23612188515899]]]}},{"type":"Feature","properties":{"jobs":385,"pop":340,"pointCount":1,"homeWorkCommuteMedian":15040,"workHomeCommuteMedian":17727},"geometry":{"type":"Polygon","coordinates":[[[-119.28672795668187,46.25410829243348],[-119.28672795668187,46.263101496070725],[-119.27773475304463,46.263101496070725],[-119.27773475304463,46.25410829243348],[-119.28672795668187,46.25410829243348]]]}},{"type":"Feature","properties":{"jobs":880,"pop":1255,"pointCount":1,"homeWorkCommuteMedian":8999,"workHomeCommuteMedian":13540},"geometry":{"type":"Polygon","coordinates":[[[-119.28672795668187,46.263101496070725],[-119.28672795668187,46.27209469970797],[-119.27773475304463,46.27209469970797],[-119.27773475304463,46.263101496070725],[-119.28672795668187,46.263101496070725]]]}},{"type":"Feature","properties":{"jobs":4010,"pop":570,"pointCount":2,"homeWorkCommuteMedian":13552,"workHomeCommuteMedian":11948},"geometry":{"type":"Polygon","coordinates":[[[-119.28672795668187,46.27209469970797],[-119.28672795668187,46.28108790334522],[-119.27773475304463,46.28108790334522],[-119.27773475304463,46.27209469970797],[-119.28672795668187,46.27209469970797]]]}},{"type":"Feature","properties":{"jobs":15805,"pop":655,"pointCount":1,"homeWorkCommuteMedian":17465,"workHomeCommuteMedian":12788},"geometry":{"type":"Polygon","coordinates":[[[-119.28672795668187,46.28108790334522],[-119.28672795668187,46.29008110698246],[-119.27773475304463,46.29008110698246],[-119.27773475304463,46.28108790334522],[-119.28672795668187,46.28108790334522]]]}},{"type":"Feature","properties":{"jobs":90,"pop":4135,"pointCount":1,"homeWorkCommuteMedian":11803,"workHomeCommuteMedian":14708},"geometry":{"type":"Polygon","coordinates":[[[-119.28672795668187,46.29008110698246],[-119.28672795668187,46.29907431061971],[-119.27773475304463,46.29907431061971],[-119.27773475304463,46.29008110698246],[-119.28672795668187,46.29008110698246]]]}},{"type":"Feature","properties":{"jobs":1490,"pop":6785,"pointCount":2,"homeWorkCommuteMedian":14267,"workHomeCommuteMedian":15215},"geometry":{"type":"Polygon","coordinates":[[[-119.28672795668187,46.29907431061971],[-119.28672795668187,46.308067514256955],[-119.27773475304463,46.308067514256955],[-119.27773475304463,46.29907431061971],[-119.28672795668187,46.29907431061971]]]}},{"type":"Feature","properties":{"jobs":19315,"pop":100,"pointCount":5,"homeWorkCommuteMedian":19942,"workHomeCommuteMedian":17621},"geometry":{"type":"Polygon","coordinates":[[[-119.28672795668187,46.3170607178942],[-119.28672795668187,46.32605392153145],[-119.27773475304463,46.32605392153145],[-119.27773475304463,46.3170607178942],[-119.28672795668187,46.3170607178942]]]}},{"type":"Feature","properties":{"jobs":795,"pop":1270,"pointCount":1,"homeWorkCommuteMedian":14747,"workHomeCommuteMedian":14444},"geometry":{"type":"Polygon","coordinates":[[[-119.27773475304463,46.19115586697276],[-119.27773475304463,46.20014907061],[-119.26874154940738,46.20014907061],[-119.26874154940738,46.19115586697276],[-119.27773475304463,46.19115586697276]]]}},{"type":"Feature","properties":{"jobs":255,"pop":1415,"pointCount":1,"homeWorkCommuteMedian":13777,"workHomeCommuteMedian":12610},"geometry":{"type":"Polygon","coordinates":[[[-119.27773475304463,46.22712868152174],[-119.27773475304463,46.23612188515899],[-119.26874154940738,46.23612188515899],[-119.26874154940738,46.22712868152174],[-119.27773475304463,46.22712868152174]]]}},{"type":"Feature","properties":{"jobs":500,"pop":3250,"pointCount":2,"homeWorkCommuteMedian":10638,"workHomeCommuteMedian":11836},"geometry":{"type":"Polygon","coordinates":[[[-119.27773475304463,46.25410829243348],[-119.27773475304463,46.263101496070725],[-119.26874154940738,46.263101496070725],[-119.26874154940738,46.25410829243348],[-119.27773475304463,46.25410829243348]]]}},{"type":"Feature","properties":{"jobs":1400,"pop":630,"pointCount":1,"homeWorkCommuteMedian":10907,"workHomeCommuteMedian":10184},"geometry":{"type":"Polygon","coordinates":[[[-119.27773475304463,46.263101496070725],[-119.27773475304463,46.27209469970797],[-119.26874154940738,46.27209469970797],[-119.26874154940738,46.263101496070725],[-119.27773475304463,46.263101496070725]]]}},{"type":"Feature","properties":{"jobs":7605,"pop":490,"pointCount":3,"homeWorkCommuteMedian":9266,"workHomeCommuteMedian":11562},"geometry":{"type":"Polygon","coordinates":[[[-119.27773475304463,46.27209469970797],[-119.27773475304463,46.28108790334522],[-119.26874154940738,46.28108790334522],[-119.26874154940738,46.27209469970797],[-119.27773475304463,46.27209469970797]]]}},{"type":"Feature","properties":{"jobs":3840,"pop":500,"pointCount":2,"homeWorkCommuteMedian":11980,"workHomeCommuteMedian":14042},"geometry":{"type":"Polygon","coordinates":[[[-119.27773475304463,46.28108790334522],[-119.27773475304463,46.29008110698246],[-119.26874154940738,46.29008110698246],[-119.26874154940738,46.28108790334522],[-119.27773475304463,46.28108790334522]]]}},{"type":"Feature","properties":{"jobs":1685,"pop":810,"pointCount":2,"homeWorkCommuteMedian":16959,"workHomeCommuteMedian":13668},"geometry":{"type":"Polygon","coordinates":[[[-119.27773475304463,46.29008110698246],[-119.27773475304463,46.29907431061971],[-119.26874154940738,46.29907431061971],[-119.26874154940738,46.29008110698246],[-119.27773475304463,46.29008110698246]]]}},{"type":"Feature","properties":{"jobs":1360,"pop":2275,"pointCount":2,"homeWorkCommuteMedian":14804,"workHomeCommuteMedian":11278},"geometry":{"type":"Polygon","coordinates":[[[-119.27773475304463,46.29907431061971],[-119.27773475304463,46.308067514256955],[-119.26874154940738,46.308067514256955],[-119.26874154940738,46.29907431061971],[-119.27773475304463,46.29907431061971]]]}},{"type":"Feature","properties":{"jobs":155,"pop":6230,"pointCount":2,"homeWorkCommuteMedian":10214,"workHomeCommuteMedian":15874},"geometry":{"type":"Polygon","coordinates":[[[-119.27773475304463,46.308067514256955],[-119.27773475304463,46.3170607178942],[-119.26874154940738,46.3170607178942],[-119.26874154940738,46.308067514256955],[-119.27773475304463,46.308067514256955]]]}},{"type":"Feature","properties":{"jobs":6270,"pop":325,"pointCount":1,"homeWorkCommuteMedian":19348,"workHomeCommuteMedian":16279},"geometry":{"type":"Polygon","coordinates":[[[-119.27773475304463,46.3170607178942],[-119.27773475304463,46.32605392153145],[-119.26874154940738,46.32605392153145],[-119.26874154940738,46.3170607178942],[-119.27773475304463,46.3170607178942]]]}},{"type":"Feature","properties":{"jobs":15,"pop":0,"pointCount":1,"homeWorkCommuteMedian":-1,"workHomeCommuteMedian":14458},"geometry":{"type":"Polygon","coordinates":[[[-119.26874154940738,46.13719664514928],[-119.26874154940738,46.14618984878653],[-119.25974834577013,46.14618984878653],[-119.25974834577013,46.13719664514928],[-119.26874154940738,46.13719664514928]]]}},{"type":"Feature","properties":{"jobs":30,"pop":15,"pointCount":1,"homeWorkCommuteMedian":19152,"workHomeCommuteMedian":15856},"geometry":{"type":"Polygon","coordinates":[[[-119.26874154940738,46.173169459698265],[-119.26874154940738,46.18216266333551],[-119.25974834577013,46.18216266333551],[-119.25974834577013,46.173169459698265],[-119.26874154940738,46.173169459698265]]]}},{"type":"Feature","properties":{"jobs":285,"pop":975,"pointCount":1,"homeWorkCommuteMedian":8796,"workHomeCommuteMedian":12054},"geometry":{"type":"Polygon","coordinates":[[[-119.26874154940738,46.19115586697276],[-119.26874154940738,46.20014907061],[-119.25974834577013,46.20014907061],[-119.25974834577013,46.19115586697276],[-119.26874154940738,46.19115586697276]]]}},{"type":"Feature","properties":{"jobs":115,"pop":2450,"pointCount":2,"homeWorkCommuteMedian":15138,"workHomeCommuteMedian":12877},"geometry":{"type":"Polygon","coordinates":[[[-119.26874154940738,46.20014907061],[-119.26874154940738,46.20914227424725],[-119.25974834577013,46.20914227424725],[-119.25974834577013,46.20014907061],[-119.26874154940738,46.20014907061]]]}},{"type":"Feature","properties":{"jobs":90,"pop":2175,"pointCount":1,"homeWorkCommuteMedian":13556,"workHomeCommuteMedian":14690},"geometry":{"type":"Polygon","coordinates":[[[-119.26874154940738,46.20914227424725],[-119.26874154940738,46.218135477884495],[-119.25974834577013,46.218135477884495],[-119.25974834577013,46.20914227424725],[-119.26874154940738,46.20914227424725]]]}},{"type":"Feature","properties":{"jobs":870,"pop":3995,"pointCount":2,"homeWorkCommuteMedian":13280,"workHomeCommuteMedian":8531},"geometry":{"type":"Polygon","coordinates":[[[-119.26874154940738,46.218135477884495],[-119.26874154940738,46.22712868152174],[-119.25974834577013,46.22712868152174],[-119.25974834577013,46.218135477884495],[-119.26874154940738,46.218135477884495]]]}},{"type":"Feature","properties":{"jobs":1180,"pop":2985,"pointCount":2,"homeWorkCommuteMedian":13025,"workHomeCommuteMedian":10324},"geometry":{"type":"Polygon","coordinates":[[[-119.26874154940738,46.22712868152174],[-119.26874154940738,46.23612188515899],[-119.25974834577013,46.23612188515899],[-119.25974834577013,46.22712868152174],[-119.26874154940738,46.22712868152174]]]}},{"type":"Feature","properties":{"jobs":885,"pop":1010,"pointCount":1,"homeWorkCommuteMedian":10069,"workHomeCommuteMedian":10995},"geometry":{"type":"Polygon","coordinates":[[[-119.26874154940738,46.23612188515899],[-119.26874154940738,46.24511508879623],[-119.25974834577013,46.24511508879623],[-119.25974834577013,46.23612188515899],[-119.26874154940738,46.23612188515899]]]}},{"type":"Feature","properties":{"jobs":2295,"pop":725,"pointCount":1,"homeWorkCommuteMedian":14199,"workHomeCommuteMedian":11553},"geometry":{"type":"Polygon","coordinates":[[[-119.26874154940738,46.25410829243348],[-119.26874154940738,46.263101496070725],[-119.25974834577013,46.263101496070725],[-119.25974834577013,46.25410829243348],[-119.26874154940738,46.25410829243348]]]}},{"type":"Feature","properties":{"jobs":345,"pop":375,"pointCount":1,"homeWorkCommuteMedian":12175,"workHomeCommuteMedian":12616},"geometry":{"type":"Polygon","coordinates":[[[-119.26874154940738,46.263101496070725],[-119.26874154940738,46.27209469970797],[-119.25974834577013,46.27209469970797],[-119.25974834577013,46.263101496070725],[-119.26874154940738,46.263101496070725]]]}},{"type":"Feature","properties":{"jobs":950,"pop":605,"pointCount":1,"homeWorkCommuteMedian":15253,"workHomeCommuteMedian":12692},"geometry":{"type":"Polygon","coordinates":[[[-119.25974834577013,46.20014907061],[-119.25974834577013,46.20914227424725],[-119.25075514213289,46.20914227424725],[-119.25075514213289,46.20014907061],[-119.25974834577013,46.20014907061]]]}},{"type":"Feature","properties":{"jobs":470,"pop":1270,"pointCount":1,"homeWorkCommuteMedian":15373,"workHomeCommuteMedian":14102},"geometry":{"type":"Polygon","coordinates":[[[-119.25974834577013,46.22712868152174],[-119.25974834577013,46.23612188515899],[-119.25075514213289,46.23612188515899],[-119.25075514213289,46.22712868152174],[-119.25974834577013,46.22712868152174]]]}},{"type":"Feature","properties":{"jobs":15,"pop":5,"pointCount":1,"homeWorkCommuteMedian":28281,"workHomeCommuteMedian":21158},"geometry":{"type":"Polygon","coordinates":[[[-119.25075514213289,46.15518305242377],[-119.25075514213289,46.16417625606102],[-119.24176193849564,46.16417625606102],[-119.24176193849564,46.15518305242377],[-119.25075514213289,46.15518305242377]]]}},{"type":"Feature","properties":{"jobs":2005,"pop":3600,"pointCount":1,"homeWorkCommuteMedian":10143,"workHomeCommuteMedian":11819},"geometry":{"type":"Polygon","coordinates":[[[-119.25075514213289,46.218135477884495],[-119.25075514213289,46.22712868152174],[-119.24176193849564,46.22712868152174],[-119.24176193849564,46.218135477884495],[-119.25075514213289,46.218135477884495]]]}},{"type":"Feature","properties":{"jobs":280,"pop":2075,"pointCount":1,"homeWorkCommuteMedian":10986,"workHomeCommuteMedian":12193},"geometry":{"type":"Polygon","coordinates":[[[-119.25075514213289,46.22712868152174],[-119.25075514213289,46.23612188515899],[-119.24176193849564,46.23612188515899],[-119.24176193849564,46.22712868152174],[-119.25075514213289,46.22712868152174]]]}},{"type":"Feature","properties":{"jobs":235,"pop":895,"pointCount":1,"homeWorkCommuteMedian":15903,"workHomeCommuteMedian":16131},"geometry":{"type":"Polygon","coordinates":[[[-119.25075514213289,46.29008110698246],[-119.25075514213289,46.29907431061971],[-119.24176193849564,46.29907431061971],[-119.24176193849564,46.29008110698246],[-119.25075514213289,46.29008110698246]]]}},{"type":"Feature","properties":{"jobs":85,"pop":40,"pointCount":1,"homeWorkCommuteMedian":8722,"workHomeCommuteMedian":15569},"geometry":{"type":"Polygon","coordinates":[[[-119.25075514213289,46.308067514256955],[-119.25075514213289,46.3170607178942],[-119.24176193849564,46.3170607178942],[-119.24176193849564,46.308067514256955],[-119.25075514213289,46.308067514256955]]]}},{"type":"Feature","properties":{"jobs":380,"pop":615,"pointCount":1,"homeWorkCommuteMedian":15454,"workHomeCommuteMedian":9401},"geometry":{"type":"Polygon","coordinates":[[[-119.24176193849564,46.20014907061],[-119.24176193849564,46.20914227424725],[-119.2327687348584,46.20914227424725],[-119.2327687348584,46.20014907061],[-119.24176193849564,46.20014907061]]]}},{"type":"Feature","properties":{"jobs":990,"pop":3485,"pointCount":2,"homeWorkCommuteMedian":10871,"workHomeCommuteMedian":11357},"geometry":{"type":"Polygon","coordinates":[[[-119.24176193849564,46.20914227424725],[-119.24176193849564,46.218135477884495],[-119.2327687348584,46.218135477884495],[-119.2327687348584,46.20914227424725],[-119.24176193849564,46.20914227424725]]]}},{"type":"Feature","properties":{"jobs":5700,"pop":9950,"pointCount":4,"homeWorkCommuteMedian":9338,"workHomeCommuteMedian":10916},"geometry":{"type":"Polygon","coordinates":[[[-119.24176193849564,46.218135477884495],[-119.24176193849564,46.22712868152174],[-119.2327687348584,46.22712868152174],[-119.2327687348584,46.218135477884495],[-119.24176193849564,46.218135477884495]]]}},{"type":"Feature","properties":{"jobs":3605,"pop":225,"pointCount":2,"homeWorkCommuteMedian":13243,"workHomeCommuteMedian":11116},"geometry":{"type":"Polygon","coordinates":[[[-119.24176193849564,46.22712868152174],[-119.24176193849564,46.23612188515899],[-119.2327687348584,46.23612188515899],[-119.2327687348584,46.22712868152174],[-119.24176193849564,46.22712868152174]]]}},{"type":"Feature","properties":{"jobs":800,"pop":115,"pointCount":1,"homeWorkCommuteMedian":11757,"workHomeCommuteMedian":10648},"geometry":{"type":"Polygon","coordinates":[[[-119.24176193849564,46.23612188515899],[-119.24176193849564,46.24511508879623],[-119.2327687348584,46.24511508879623],[-119.2327687348584,46.23612188515899],[-119.24176193849564,46.23612188515899]]]}},{"type":"Feature","properties":{"jobs":745,"pop":420,"pointCount":1,"homeWorkCommuteMedian":11467,"workHomeCommuteMedian":15804},"geometry":{"type":"Polygon","coordinates":[[[-119.24176193849564,46.27209469970797],[-119.24176193849564,46.28108790334522],[-119.2327687348584,46.28108790334522],[-119.2327687348584,46.27209469970797],[-119.24176193849564,46.27209469970797]]]}},{"type":"Feature","properties":{"jobs":310,"pop":1175,"pointCount":1,"homeWorkCommuteMedian":12795,"workHomeCommuteMedian":12301},"geometry":{"type":"Polygon","coordinates":[[[-119.2327687348584,46.20014907061],[-119.2327687348584,46.20914227424725],[-119.22377553122115,46.20914227424725],[-119.22377553122115,46.20014907061],[-119.2327687348584,46.20014907061]]]}},{"type":"Feature","properties":{"jobs":3070,"pop":2040,"pointCount":2,"homeWorkCommuteMedian":8815,"workHomeCommuteMedian":10280},"geometry":{"type":"Polygon","coordinates":[[[-119.2327687348584,46.20914227424725],[-119.2327687348584,46.218135477884495],[-119.22377553122115,46.218135477884495],[-119.22377553122115,46.20914227424725],[-119.2327687348584,46.20914227424725]]]}},{"type":"Feature","properties":{"jobs":10025,"pop":2265,"pointCount":4,"homeWorkCommuteMedian":10002,"workHomeCommuteMedian":9026},"geometry":{"type":"Polygon","coordinates":[[[-119.2327687348584,46.218135477884495],[-119.2327687348584,46.22712868152174],[-119.22377553122115,46.22712868152174],[-119.22377553122115,46.218135477884495],[-119.2327687348584,46.218135477884495]]]}},{"type":"Feature","properties":{"jobs":2615,"pop":865,"pointCount":1,"homeWorkCommuteMedian":10456,"workHomeCommuteMedian":10007},"geometry":{"type":"Polygon","coordinates":[[[-119.2327687348584,46.23612188515899],[-119.2327687348584,46.24511508879623],[-119.22377553122115,46.24511508879623],[-119.22377553122115,46.23612188515899],[-119.2327687348584,46.23612188515899]]]}},{"type":"Feature","properties":{"jobs":95,"pop":20,"pointCount":1,"homeWorkCommuteMedian":24385,"workHomeCommuteMedian":16852},"geometry":{"type":"Polygon","coordinates":[[[-119.2327687348584,46.29907431061971],[-119.2327687348584,46.308067514256955],[-119.22377553122115,46.308067514256955],[-119.22377553122115,46.29907431061971],[-119.2327687348584,46.29907431061971]]]}},{"type":"Feature","properties":{"jobs":1320,"pop":220,"pointCount":1,"homeWorkCommuteMedian":13035,"workHomeCommuteMedian":14040},"geometry":{"type":"Polygon","coordinates":[[[-119.22377553122115,46.173169459698265],[-119.22377553122115,46.18216266333551],[-119.2147823275839,46.18216266333551],[-119.2147823275839,46.173169459698265],[-119.22377553122115,46.173169459698265]]]}},{"type":"Feature","properties":{"jobs":190,"pop":2390,"pointCount":2,"homeWorkCommuteMedian":10767,"workHomeCommuteMedian":8583},"geometry":{"type":"Polygon","coordinates":[[[-119.22377553122115,46.20014907061],[-119.22377553122115,46.20914227424725],[-119.2147823275839,46.20914227424725],[-119.2147823275839,46.20014907061],[-119.22377553122115,46.20014907061]]]}},{"type":"Feature","properties":{"jobs":7135,"pop":385,"pointCount":3,"homeWorkCommuteMedian":12728,"workHomeCommuteMedian":9947},"geometry":{"type":"Polygon","coordinates":[[[-119.22377553122115,46.20914227424725],[-119.22377553122115,46.218135477884495],[-119.2147823275839,46.218135477884495],[-119.2147823275839,46.20914227424725],[-119.22377553122115,46.20914227424725]]]}},{"type":"Feature","properties":{"jobs":7605,"pop":610,"pointCount":6,"homeWorkCommuteMedian":10906,"workHomeCommuteMedian":10330},"geometry":{"type":"Polygon","coordinates":[[[-119.22377553122115,46.218135477884495],[-119.22377553122115,46.22712868152174],[-119.2147823275839,46.22712868152174],[-119.2147823275839,46.218135477884495],[-119.22377553122115,46.218135477884495]]]}},{"type":"Feature","properties":{"jobs":3290,"pop":1110,"pointCount":1,"homeWorkCommuteMedian":11290,"workHomeCommuteMedian":10846},"geometry":{"type":"Polygon","coordinates":[[[-119.22377553122115,46.22712868152174],[-119.22377553122115,46.23612188515899],[-119.2147823275839,46.23612188515899],[-119.2147823275839,46.22712868152174],[-119.22377553122115,46.22712868152174]]]}},{"type":"Feature","properties":{"jobs":380,"pop":1795,"pointCount":1,"homeWorkCommuteMedian":13256,"workHomeCommuteMedian":12684},"geometry":{"type":"Polygon","coordinates":[[[-119.22377553122115,46.25410829243348],[-119.22377553122115,46.263101496070725],[-119.2147823275839,46.263101496070725],[-119.2147823275839,46.25410829243348],[-119.22377553122115,46.25410829243348]]]}},{"type":"Feature","properties":{"jobs":2045,"pop":185,"pointCount":1,"homeWorkCommuteMedian":12597,"workHomeCommuteMedian":12569},"geometry":{"type":"Polygon","coordinates":[[[-119.22377553122115,46.27209469970797],[-119.22377553122115,46.28108790334522],[-119.2147823275839,46.28108790334522],[-119.2147823275839,46.27209469970797],[-119.22377553122115,46.27209469970797]]]}},{"type":"Feature","properties":{"jobs":140,"pop":5,"pointCount":1,"homeWorkCommuteMedian":9402,"workHomeCommuteMedian":13498},"geometry":{"type":"Polygon","coordinates":[[[-119.22377553122115,46.3170607178942],[-119.22377553122115,46.32605392153145],[-119.2147823275839,46.32605392153145],[-119.2147823275839,46.3170607178942],[-119.22377553122115,46.3170607178942]]]}},{"type":"Feature","properties":{"jobs":10,"pop":2100,"pointCount":1,"homeWorkCommuteMedian":9536,"workHomeCommuteMedian":1994},"geometry":{"type":"Polygon","coordinates":[[[-119.2147823275839,46.18216266333551],[-119.2147823275839,46.19115586697276],[-119.20578912394666,46.19115586697276],[-119.20578912394666,46.18216266333551],[-119.2147823275839,46.18216266333551]]]}},{"type":"Feature","properties":{"jobs":35,"pop":1215,"pointCount":1,"homeWorkCommuteMedian":13337,"workHomeCommuteMedian":16097},"geometry":{"type":"Polygon","coordinates":[[[-119.2147823275839,46.19115586697276],[-119.2147823275839,46.20014907061],[-119.20578912394666,46.20014907061],[-119.20578912394666,46.19115586697276],[-119.2147823275839,46.19115586697276]]]}},{"type":"Feature","properties":{"jobs":2870,"pop":615,"pointCount":3,"homeWorkCommuteMedian":7521,"workHomeCommuteMedian":10221},"geometry":{"type":"Polygon","coordinates":[[[-119.2147823275839,46.20914227424725],[-119.2147823275839,46.218135477884495],[-119.20578912394666,46.218135477884495],[-119.20578912394666,46.20914227424725],[-119.2147823275839,46.20914227424725]]]}},{"type":"Feature","properties":{"jobs":3740,"pop":290,"pointCount":2,"homeWorkCommuteMedian":9845,"workHomeCommuteMedian":10183},"geometry":{"type":"Polygon","coordinates":[[[-119.2147823275839,46.218135477884495],[-119.2147823275839,46.22712868152174],[-119.20578912394666,46.22712868152174],[-119.20578912394666,46.218135477884495],[-119.2147823275839,46.218135477884495]]]}},{"type":"Feature","properties":{"jobs":930,"pop":5085,"pointCount":2,"homeWorkCommuteMedian":13249,"workHomeCommuteMedian":12001},"geometry":{"type":"Polygon","coordinates":[[[-119.2147823275839,46.263101496070725],[-119.2147823275839,46.27209469970797],[-119.20578912394666,46.27209469970797],[-119.20578912394666,46.263101496070725],[-119.2147823275839,46.263101496070725]]]}},{"type":"Feature","properties":{"jobs":690,"pop":1090,"pointCount":1,"homeWorkCommuteMedian":12136,"workHomeCommuteMedian":14259},"geometry":{"type":"Polygon","coordinates":[[[-119.2147823275839,46.27209469970797],[-119.2147823275839,46.28108790334522],[-119.20578912394666,46.28108790334522],[-119.20578912394666,46.27209469970797],[-119.2147823275839,46.27209469970797]]]}},{"type":"Feature","properties":{"jobs":0,"pop":30,"pointCount":1,"homeWorkCommuteMedian":15702,"workHomeCommuteMedian":-1},"geometry":{"type":"Polygon","coordinates":[[[-119.2147823275839,46.29008110698246],[-119.2147823275839,46.29907431061971],[-119.20578912394666,46.29907431061971],[-119.20578912394666,46.29008110698246],[-119.2147823275839,46.29008110698246]]]}},{"type":"Feature","properties":{"jobs":350,"pop":0,"pointCount":1,"homeWorkCommuteMedian":-1,"workHomeCommuteMedian":12939},"geometry":{"type":"Polygon","coordinates":[[[-119.20578912394666,46.16417625606102],[-119.20578912394666,46.173169459698265],[-119.19679592030941,46.173169459698265],[-119.19679592030941,46.16417625606102],[-119.20578912394666,46.16417625606102]]]}},{"type":"Feature","properties":{"jobs":25,"pop":1925,"pointCount":2,"homeWorkCommuteMedian":13229,"workHomeCommuteMedian":7412},"geometry":{"type":"Polygon","coordinates":[[[-119.20578912394666,46.18216266333551],[-119.20578912394666,46.19115586697276],[-119.19679592030941,46.19115586697276],[-119.19679592030941,46.18216266333551],[-119.20578912394666,46.18216266333551]]]}},{"type":"Feature","properties":{"jobs":35,"pop":1320,"pointCount":1,"homeWorkCommuteMedian":11764,"workHomeCommuteMedian":11518},"geometry":{"type":"Polygon","coordinates":[[[-119.20578912394666,46.19115586697276],[-119.20578912394666,46.20014907061],[-119.19679592030941,46.20014907061],[-119.19679592030941,46.19115586697276],[-119.20578912394666,46.19115586697276]]]}},{"type":"Feature","properties":{"jobs":1275,"pop":1080,"pointCount":2,"homeWorkCommuteMedian":10228,"workHomeCommuteMedian":11307},"geometry":{"type":"Polygon","coordinates":[[[-119.20578912394666,46.20914227424725],[-119.20578912394666,46.218135477884495],[-119.19679592030941,46.218135477884495],[-119.19679592030941,46.20914227424725],[-119.20578912394666,46.20914227424725]]]}},{"type":"Feature","properties":{"jobs":2270,"pop":1690,"pointCount":3,"homeWorkCommuteMedian":10510,"workHomeCommuteMedian":9887},"geometry":{"type":"Polygon","coordinates":[[[-119.20578912394666,46.218135477884495],[-119.20578912394666,46.22712868152174],[-119.19679592030941,46.22712868152174],[-119.19679592030941,46.218135477884495],[-119.20578912394666,46.218135477884495]]]}},{"type":"Feature","properties":{"jobs":620,"pop":16755,"pointCount":4,"homeWorkCommuteMedian":12003,"workHomeCommuteMedian":12392},"geometry":{"type":"Polygon","coordinates":[[[-119.20578912394666,46.27209469970797],[-119.20578912394666,46.28108790334522],[-119.19679592030941,46.28108790334522],[-119.19679592030941,46.27209469970797],[-119.20578912394666,46.27209469970797]]]}},{"type":"Feature","properties":{"jobs":3470,"pop":80,"pointCount":1,"homeWorkCommuteMedian":11059,"workHomeCommuteMedian":12023},"geometry":{"type":"Polygon","coordinates":[[[-119.19679592030941,46.173169459698265],[-119.19679592030941,46.18216266333551],[-119.18780271667217,46.18216266333551],[-119.18780271667217,46.173169459698265],[-119.19679592030941,46.173169459698265]]]}},{"type":"Feature","properties":{"jobs":410,"pop":1640,"pointCount":1,"homeWorkCommuteMedian":11253,"workHomeCommuteMedian":11268},"geometry":{"type":"Polygon","coordinates":[[[-119.19679592030941,46.19115586697276],[-119.19679592030941,46.20014907061],[-119.18780271667217,46.20014907061],[-119.18780271667217,46.19115586697276],[-119.19679592030941,46.19115586697276]]]}},{"type":"Feature","properties":{"jobs":25,"pop":2495,"pointCount":1,"homeWorkCommuteMedian":9203,"workHomeCommuteMedian":3398},"geometry":{"type":"Polygon","coordinates":[[[-119.19679592030941,46.20014907061],[-119.19679592030941,46.20914227424725],[-119.18780271667217,46.20914227424725],[-119.18780271667217,46.20014907061],[-119.19679592030941,46.20014907061]]]}},{"type":"Feature","properties":{"jobs":2345,"pop":3870,"pointCount":3,"homeWorkCommuteMedian":8885,"workHomeCommuteMedian":10658},"geometry":{"type":"Polygon","coordinates":[[[-119.19679592030941,46.20914227424725],[-119.19679592030941,46.218135477884495],[-119.18780271667217,46.218135477884495],[-119.18780271667217,46.20914227424725],[-119.19679592030941,46.20914227424725]]]}},{"type":"Feature","properties":{"jobs":680,"pop":445,"pointCount":1,"homeWorkCommuteMedian":10862,"workHomeCommuteMedian":11442},"geometry":{"type":"Polygon","coordinates":[[[-119.19679592030941,46.218135477884495],[-119.19679592030941,46.22712868152174],[-119.18780271667217,46.22712868152174],[-119.18780271667217,46.218135477884495],[-119.19679592030941,46.218135477884495]]]}},{"type":"Feature","properties":{"jobs":190,"pop":705,"pointCount":1,"homeWorkCommuteMedian":11271,"workHomeCommuteMedian":14141},"geometry":{"type":"Polygon","coordinates":[[[-119.19679592030941,46.24511508879623],[-119.19679592030941,46.25410829243348],[-119.18780271667217,46.25410829243348],[-119.18780271667217,46.24511508879623],[-119.19679592030941,46.24511508879623]]]}},{"type":"Feature","properties":{"jobs":3000,"pop":2415,"pointCount":1,"homeWorkCommuteMedian":11611,"workHomeCommuteMedian":12936},"geometry":{"type":"Polygon","coordinates":[[[-119.19679592030941,46.263101496070725],[-119.19679592030941,46.27209469970797],[-119.18780271667217,46.27209469970797],[-119.18780271667217,46.263101496070725],[-119.19679592030941,46.263101496070725]]]}},{"type":"Feature","properties":{"jobs":795,"pop":810,"pointCount":1,"homeWorkCommuteMedian":11252,"workHomeCommuteMedian":12605},"geometry":{"type":"Polygon","coordinates":[[[-119.19679592030941,46.27209469970797],[-119.19679592030941,46.28108790334522],[-119.18780271667217,46.28108790334522],[-119.18780271667217,46.27209469970797],[-119.19679592030941,46.27209469970797]]]}},{"type":"Feature","properties":{"jobs":370,"pop":290,"pointCount":1,"homeWorkCommuteMedian":10576,"workHomeCommuteMedian":14039},"geometry":{"type":"Polygon","coordinates":[[[-119.18780271667217,46.173169459698265],[-119.18780271667217,46.18216266333551],[-119.17880951303492,46.18216266333551],[-119.17880951303492,46.173169459698265],[-119.18780271667217,46.173169459698265]]]}},{"type":"Feature","properties":{"jobs":1040,"pop":575,"pointCount":1,"homeWorkCommuteMedian":8518,"workHomeCommuteMedian":12658},"geometry":{"type":"Polygon","coordinates":[[[-119.18780271667217,46.18216266333551],[-119.18780271667217,46.19115586697276],[-119.17880951303492,46.19115586697276],[-119.17880951303492,46.18216266333551],[-119.18780271667217,46.18216266333551]]]}},{"type":"Feature","properties":{"jobs":135,"pop":3660,"pointCount":1,"homeWorkCommuteMedian":7506,"workHomeCommuteMedian":10517},"geometry":{"type":"Polygon","coordinates":[[[-119.18780271667217,46.20014907061],[-119.18780271667217,46.20914227424725],[-119.17880951303492,46.20914227424725],[-119.17880951303492,46.20014907061],[-119.18780271667217,46.20014907061]]]}},{"type":"Feature","properties":{"jobs":1895,"pop":5300,"pointCount":2,"homeWorkCommuteMedian":7575,"workHomeCommuteMedian":10563},"geometry":{"type":"Polygon","coordinates":[[[-119.18780271667217,46.20914227424725],[-119.18780271667217,46.218135477884495],[-119.17880951303492,46.218135477884495],[-119.17880951303492,46.20914227424725],[-119.18780271667217,46.20914227424725]]]}},{"type":"Feature","properties":{"jobs":695,"pop":2900,"pointCount":1,"homeWorkCommuteMedian":13853,"workHomeCommuteMedian":11759},"geometry":{"type":"Polygon","coordinates":[[[-119.18780271667217,46.24511508879623],[-119.18780271667217,46.25410829243348],[-119.17880951303492,46.25410829243348],[-119.17880951303492,46.24511508879623],[-119.18780271667217,46.24511508879623]]]}},{"type":"Feature","properties":{"jobs":3400,"pop":0,"pointCount":1,"homeWorkCommuteMedian":-1,"workHomeCommuteMedian":2395},"geometry":{"type":"Polygon","coordinates":[[[-119.18780271667217,46.263101496070725],[-119.18780271667217,46.27209469970797],[-119.17880951303492,46.27209469970797],[-119.17880951303492,46.263101496070725],[-119.18780271667217,46.263101496070725]]]}},{"type":"Feature","properties":{"jobs":695,"pop":945,"pointCount":1,"homeWorkCommuteMedian":12353,"workHomeCommuteMedian":14170},"geometry":{"type":"Polygon","coordinates":[[[-119.18780271667217,46.27209469970797],[-119.18780271667217,46.28108790334522],[-119.17880951303492,46.28108790334522],[-119.17880951303492,46.27209469970797],[-119.18780271667217,46.27209469970797]]]}},{"type":"Feature","properties":{"jobs":1200,"pop":1070,"pointCount":1,"homeWorkCommuteMedian":13865,"workHomeCommuteMedian":14597},"geometry":{"type":"Polygon","coordinates":[[[-119.18780271667217,46.28108790334522],[-119.18780271667217,46.29008110698246],[-119.17880951303492,46.29008110698246],[-119.17880951303492,46.28108790334522],[-119.18780271667217,46.28108790334522]]]}},{"type":"Feature","properties":{"jobs":1225,"pop":10,"pointCount":1,"homeWorkCommuteMedian":17794,"workHomeCommuteMedian":15661},"geometry":{"type":"Polygon","coordinates":[[[-119.18780271667217,46.3170607178942],[-119.18780271667217,46.32605392153145],[-119.17880951303492,46.32605392153145],[-119.17880951303492,46.3170607178942],[-119.18780271667217,46.3170607178942]]]}},{"type":"Feature","properties":{"jobs":110,"pop":0,"pointCount":1,"homeWorkCommuteMedian":-1,"workHomeCommuteMedian":14837},"geometry":{"type":"Polygon","coordinates":[[[-119.17880951303492,46.15518305242377],[-119.17880951303492,46.16417625606102],[-119.16981630939767,46.16417625606102],[-119.16981630939767,46.15518305242377],[-119.17880951303492,46.15518305242377]]]}},{"type":"Feature","properties":{"jobs":670,"pop":110,"pointCount":1,"homeWorkCommuteMedian":17127,"workHomeCommuteMedian":12250},"geometry":{"type":"Polygon","coordinates":[[[-119.17880951303492,46.18216266333551],[-119.17880951303492,46.19115586697276],[-119.16981630939767,46.19115586697276],[-119.16981630939767,46.18216266333551],[-119.17880951303492,46.18216266333551]]]}},{"type":"Feature","properties":{"jobs":1540,"pop":3480,"pointCount":2,"homeWorkCommuteMedian":12409,"workHomeCommuteMedian":10037},"geometry":{"type":"Polygon","coordinates":[[[-119.17880951303492,46.19115586697276],[-119.17880951303492,46.20014907061],[-119.16981630939767,46.20014907061],[-119.16981630939767,46.19115586697276],[-119.17880951303492,46.19115586697276]]]}},{"type":"Feature","properties":{"jobs":3325,"pop":7595,"pointCount":3,"homeWorkCommuteMedian":9090,"workHomeCommuteMedian":10115},"geometry":{"type":"Polygon","coordinates":[[[-119.17880951303492,46.20914227424725],[-119.17880951303492,46.218135477884495],[-119.16981630939767,46.218135477884495],[-119.16981630939767,46.20914227424725],[-119.17880951303492,46.20914227424725]]]}},{"type":"Feature","properties":{"jobs":1420,"pop":760,"pointCount":1,"homeWorkCommuteMedian":9530,"workHomeCommuteMedian":11258},"geometry":{"type":"Polygon","coordinates":[[[-119.17880951303492,46.22712868152174],[-119.17880951303492,46.23612188515899],[-119.16981630939767,46.23612188515899],[-119.16981630939767,46.22712868152174],[-119.17880951303492,46.22712868152174]]]}},{"type":"Feature","properties":{"jobs":290,"pop":3615,"pointCount":1,"homeWorkCommuteMedian":13581,"workHomeCommuteMedian":11722},"geometry":{"type":"Polygon","coordinates":[[[-119.17880951303492,46.25410829243348],[-119.17880951303492,46.263101496070725],[-119.16981630939767,46.263101496070725],[-119.16981630939767,46.25410829243348],[-119.17880951303492,46.25410829243348]]]}},{"type":"Feature","properties":{"jobs":5250,"pop":3240,"pointCount":2,"homeWorkCommuteMedian":13177,"workHomeCommuteMedian":12302},"geometry":{"type":"Polygon","coordinates":[[[-119.17880951303492,46.263101496070725],[-119.17880951303492,46.27209469970797],[-119.16981630939767,46.27209469970797],[-119.16981630939767,46.263101496070725],[-119.17880951303492,46.263101496070725]]]}},{"type":"Feature","properties":{"jobs":245,"pop":3925,"pointCount":1,"homeWorkCommuteMedian":12880,"workHomeCommuteMedian":13881},"geometry":{"type":"Polygon","coordinates":[[[-119.17880951303492,46.27209469970797],[-119.17880951303492,46.28108790334522],[-119.16981630939767,46.28108790334522],[-119.16981630939767,46.27209469970797],[-119.17880951303492,46.27209469970797]]]}},{"type":"Feature","properties":{"jobs":345,"pop":610,"pointCount":1,"homeWorkCommuteMedian":15011,"workHomeCommuteMedian":14538},"geometry":{"type":"Polygon","coordinates":[[[-119.17880951303492,46.28108790334522],[-119.17880951303492,46.29008110698246],[-119.16981630939767,46.29008110698246],[-119.16981630939767,46.28108790334522],[-119.17880951303492,46.28108790334522]]]}},{"type":"Feature","properties":{"jobs":215,"pop":670,"pointCount":1,"homeWorkCommuteMedian":11401,"workHomeCommuteMedian":11054},"geometry":{"type":"Polygon","coordinates":[[[-119.16981630939767,46.173169459698265],[-119.16981630939767,46.18216266333551],[-119.16082310576043,46.18216266333551],[-119.16082310576043,46.173169459698265],[-119.16981630939767,46.173169459698265]]]}},{"type":"Feature","properties":{"jobs":1670,"pop":2345,"pointCount":3,"homeWorkCommuteMedian":11327,"workHomeCommuteMedian":10356},"geometry":{"type":"Polygon","coordinates":[[[-119.16981630939767,46.18216266333551],[-119.16981630939767,46.19115586697276],[-119.16082310576043,46.19115586697276],[-119.16082310576043,46.18216266333551],[-119.16981630939767,46.18216266333551]]]}},{"type":"Feature","properties":{"jobs":760,"pop":2820,"pointCount":1,"homeWorkCommuteMedian":7763,"workHomeCommuteMedian":10306},"geometry":{"type":"Polygon","coordinates":[[[-119.16981630939767,46.20014907061],[-119.16981630939767,46.20914227424725],[-119.16082310576043,46.20914227424725],[-119.16082310576043,46.20014907061],[-119.16981630939767,46.20014907061]]]}},{"type":"Feature","properties":{"jobs":3210,"pop":2520,"pointCount":2,"homeWorkCommuteMedian":7688,"workHomeCommuteMedian":9932},"geometry":{"type":"Polygon","coordinates":[[[-119.16981630939767,46.20914227424725],[-119.16981630939767,46.218135477884495],[-119.16082310576043,46.218135477884495],[-119.16082310576043,46.20914227424725],[-119.16981630939767,46.20914227424725]]]}},{"type":"Feature","properties":{"jobs":200,"pop":1675,"pointCount":1,"homeWorkCommuteMedian":10705,"workHomeCommuteMedian":10973},"geometry":{"type":"Polygon","coordinates":[[[-119.16981630939767,46.23612188515899],[-119.16981630939767,46.24511508879623],[-119.16082310576043,46.24511508879623],[-119.16082310576043,46.23612188515899],[-119.16981630939767,46.23612188515899]]]}},{"type":"Feature","properties":{"jobs":170,"pop":9160,"pointCount":2,"homeWorkCommuteMedian":14590,"workHomeCommuteMedian":10945},"geometry":{"type":"Polygon","coordinates":[[[-119.16981630939767,46.263101496070725],[-119.16981630939767,46.27209469970797],[-119.16082310576043,46.27209469970797],[-119.16082310576043,46.263101496070725],[-119.16981630939767,46.263101496070725]]]}},{"type":"Feature","properties":{"jobs":150,"pop":2985,"pointCount":1,"homeWorkCommuteMedian":14701,"workHomeCommuteMedian":13805},"geometry":{"type":"Polygon","coordinates":[[[-119.16981630939767,46.27209469970797],[-119.16981630939767,46.28108790334522],[-119.16082310576043,46.28108790334522],[-119.16082310576043,46.27209469970797],[-119.16981630939767,46.27209469970797]]]}},{"type":"Feature","properties":{"jobs":5,"pop":30,"pointCount":1,"homeWorkCommuteMedian":12804,"workHomeCommuteMedian":20207},"geometry":{"type":"Polygon","coordinates":[[[-119.16981630939767,46.29008110698246],[-119.16981630939767,46.29907431061971],[-119.16082310576043,46.29907431061971],[-119.16082310576043,46.29008110698246],[-119.16981630939767,46.29008110698246]]]}},{"type":"Feature","properties":{"jobs":315,"pop":2225,"pointCount":1,"homeWorkCommuteMedian":9345,"workHomeCommuteMedian":12712},"geometry":{"type":"Polygon","coordinates":[[[-119.16082310576043,46.173169459698265],[-119.16082310576043,46.18216266333551],[-119.15182990212318,46.18216266333551],[-119.15182990212318,46.173169459698265],[-119.16082310576043,46.173169459698265]]]}},{"type":"Feature","properties":{"jobs":1610,"pop":1415,"pointCount":1,"homeWorkCommuteMedian":10342,"workHomeCommuteMedian":11512},"geometry":{"type":"Polygon","coordinates":[[[-119.16082310576043,46.18216266333551],[-119.16082310576043,46.19115586697276],[-119.15182990212318,46.19115586697276],[-119.15182990212318,46.18216266333551],[-119.16082310576043,46.18216266333551]]]}},{"type":"Feature","properties":{"jobs":1610,"pop":2375,"pointCount":1,"homeWorkCommuteMedian":8041,"workHomeCommuteMedian":11176},"geometry":{"type":"Polygon","coordinates":[[[-119.16082310576043,46.19115586697276],[-119.16082310576043,46.20014907061],[-119.15182990212318,46.20014907061],[-119.15182990212318,46.19115586697276],[-119.16082310576043,46.19115586697276]]]}},{"type":"Feature","properties":{"jobs":1510,"pop":1060,"pointCount":2,"homeWorkCommuteMedian":8206,"workHomeCommuteMedian":10423},"geometry":{"type":"Polygon","coordinates":[[[-119.16082310576043,46.20014907061],[-119.16082310576043,46.20914227424725],[-119.15182990212318,46.20914227424725],[-119.15182990212318,46.20014907061],[-119.16082310576043,46.20014907061]]]}},{"type":"Feature","properties":{"jobs":4155,"pop":1015,"pointCount":4,"homeWorkCommuteMedian":9314,"workHomeCommuteMedian":9549},"geometry":{"type":"Polygon","coordinates":[[[-119.16082310576043,46.20914227424725],[-119.16082310576043,46.218135477884495],[-119.15182990212318,46.218135477884495],[-119.15182990212318,46.20914227424725],[-119.16082310576043,46.20914227424725]]]}},{"type":"Feature","properties":{"jobs":65,"pop":4705,"pointCount":1,"homeWorkCommuteMedian":13865,"workHomeCommuteMedian":12409},"geometry":{"type":"Polygon","coordinates":[[[-119.16082310576043,46.27209469970797],[-119.16082310576043,46.28108790334522],[-119.15182990212318,46.28108790334522],[-119.15182990212318,46.27209469970797],[-119.16082310576043,46.27209469970797]]]}},{"type":"Feature","properties":{"jobs":190,"pop":6475,"pointCount":1,"homeWorkCommuteMedian":10280,"workHomeCommuteMedian":8961},"geometry":{"type":"Polygon","coordinates":[[[-119.15182990212318,46.173169459698265],[-119.15182990212318,46.18216266333551],[-119.14283669848594,46.18216266333551],[-119.14283669848594,46.173169459698265],[-119.15182990212318,46.173169459698265]]]}},{"type":"Feature","properties":{"jobs":275,"pop":1225,"pointCount":1,"homeWorkCommuteMedian":8849,"workHomeCommuteMedian":10477},"geometry":{"type":"Polygon","coordinates":[[[-119.15182990212318,46.20014907061],[-119.15182990212318,46.20914227424725],[-119.14283669848594,46.20914227424725],[-119.14283669848594,46.20014907061],[-119.15182990212318,46.20014907061]]]}},{"type":"Feature","properties":{"jobs":1680,"pop":2215,"pointCount":1,"homeWorkCommuteMedian":13382,"workHomeCommuteMedian":11688},"geometry":{"type":"Polygon","coordinates":[[[-119.15182990212318,46.23612188515899],[-119.15182990212318,46.24511508879623],[-119.14283669848594,46.24511508879623],[-119.14283669848594,46.23612188515899],[-119.15182990212318,46.23612188515899]]]}},{"type":"Feature","properties":{"jobs":300,"pop":775,"pointCount":1,"homeWorkCommuteMedian":10453,"workHomeCommuteMedian":10793},"geometry":{"type":"Polygon","coordinates":[[[-119.15182990212318,46.25410829243348],[-119.15182990212318,46.263101496070725],[-119.14283669848594,46.263101496070725],[-119.14283669848594,46.25410829243348],[-119.15182990212318,46.25410829243348]]]}},{"type":"Feature","properties":{"jobs":135,"pop":2270,"pointCount":1,"homeWorkCommuteMedian":12151,"workHomeCommuteMedian":7178},"geometry":{"type":"Polygon","coordinates":[[[-119.15182990212318,46.263101496070725],[-119.15182990212318,46.27209469970797],[-119.14283669848594,46.27209469970797],[-119.14283669848594,46.263101496070725],[-119.15182990212318,46.263101496070725]]]}},{"type":"Feature","properties":{"jobs":375,"pop":2840,"pointCount":1,"homeWorkCommuteMedian":11590,"workHomeCommuteMedian":12033},"geometry":{"type":"Polygon","coordinates":[[[-119.15182990212318,46.27209469970797],[-119.15182990212318,46.28108790334522],[-119.14283669848594,46.28108790334522],[-119.14283669848594,46.27209469970797],[-119.15182990212318,46.27209469970797]]]}},{"type":"Feature","properties":{"jobs":150,"pop":5,"pointCount":1,"homeWorkCommuteMedian":20044,"workHomeCommuteMedian":10168},"geometry":{"type":"Polygon","coordinates":[[[-119.15182990212318,46.29008110698246],[-119.15182990212318,46.29907431061971],[-119.14283669848594,46.29907431061971],[-119.14283669848594,46.29008110698246],[-119.15182990212318,46.29008110698246]]]}},{"type":"Feature","properties":{"jobs":420,"pop":3620,"pointCount":1,"homeWorkCommuteMedian":10330,"workHomeCommuteMedian":10597},"geometry":{"type":"Polygon","coordinates":[[[-119.14283669848594,46.18216266333551],[-119.14283669848594,46.19115586697276],[-119.13384349484869,46.19115586697276],[-119.13384349484869,46.18216266333551],[-119.14283669848594,46.18216266333551]]]}},{"type":"Feature","properties":{"jobs":180,"pop":13275,"pointCount":2,"homeWorkCommuteMedian":9256,"workHomeCommuteMedian":8455},"geometry":{"type":"Polygon","coordinates":[[[-119.14283669848594,46.19115586697276],[-119.14283669848594,46.20014907061],[-119.13384349484869,46.20014907061],[-119.13384349484869,46.19115586697276],[-119.14283669848594,46.19115586697276]]]}},{"type":"Feature","properties":{"jobs":820,"pop":2715,"pointCount":1,"homeWorkCommuteMedian":9073,"workHomeCommuteMedian":8288},"geometry":{"type":"Polygon","coordinates":[[[-119.14283669848594,46.20014907061],[-119.14283669848594,46.20914227424725],[-119.13384349484869,46.20914227424725],[-119.13384349484869,46.20014907061],[-119.14283669848594,46.20014907061]]]}},{"type":"Feature","properties":{"jobs":3065,"pop":630,"pointCount":2,"homeWorkCommuteMedian":8022,"workHomeCommuteMedian":8783},"geometry":{"type":"Polygon","coordinates":[[[-119.14283669848594,46.20914227424725],[-119.14283669848594,46.218135477884495],[-119.13384349484869,46.218135477884495],[-119.13384349484869,46.20914227424725],[-119.14283669848594,46.20914227424725]]]}},{"type":"Feature","properties":{"jobs":955,"pop":1105,"pointCount":1,"homeWorkCommuteMedian":7755,"workHomeCommuteMedian":10727},"geometry":{"type":"Polygon","coordinates":[[[-119.14283669848594,46.23612188515899],[-119.14283669848594,46.24511508879623],[-119.13384349484869,46.24511508879623],[-119.13384349484869,46.23612188515899],[-119.14283669848594,46.23612188515899]]]}},{"type":"Feature","properties":{"jobs":15,"pop":0,"pointCount":1,"homeWorkCommuteMedian":-1,"workHomeCommuteMedian":23268},"geometry":{"type":"Polygon","coordinates":[[[-119.14283669848594,46.3170607178942],[-119.14283669848594,46.32605392153145],[-119.13384349484869,46.32605392153145],[-119.13384349484869,46.3170607178942],[-119.14283669848594,46.3170607178942]]]}},{"type":"Feature","properties":{"jobs":410,"pop":1710,"pointCount":1,"homeWorkCommuteMedian":15985,"workHomeCommuteMedian":11964},"geometry":{"type":"Polygon","coordinates":[[[-119.13384349484869,46.16417625606102],[-119.13384349484869,46.173169459698265],[-119.12485029121144,46.173169459698265],[-119.12485029121144,46.16417625606102],[-119.13384349484869,46.16417625606102]]]}},{"type":"Feature","properties":{"jobs":1365,"pop":5455,"pointCount":2,"homeWorkCommuteMedian":10615,"workHomeCommuteMedian":9453},"geometry":{"type":"Polygon","coordinates":[[[-119.13384349484869,46.20014907061],[-119.13384349484869,46.20914227424725],[-119.12485029121144,46.20914227424725],[-119.12485029121144,46.20014907061],[-119.13384349484869,46.20014907061]]]}},{"type":"Feature","properties":{"jobs":1095,"pop":585,"pointCount":1,"homeWorkCommuteMedian":10824,"workHomeCommuteMedian":10004},"geometry":{"type":"Polygon","coordinates":[[[-119.13384349484869,46.22712868152174],[-119.13384349484869,46.23612188515899],[-119.12485029121144,46.23612188515899],[-119.12485029121144,46.22712868152174],[-119.13384349484869,46.22712868152174]]]}},{"type":"Feature","properties":{"jobs":2790,"pop":2860,"pointCount":3,"homeWorkCommuteMedian":8766,"workHomeCommuteMedian":9824},"geometry":{"type":"Polygon","coordinates":[[[-119.13384349484869,46.23612188515899],[-119.13384349484869,46.24511508879623],[-119.12485029121144,46.24511508879623],[-119.12485029121144,46.23612188515899],[-119.13384349484869,46.23612188515899]]]}},{"type":"Feature","properties":{"jobs":95,"pop":3270,"pointCount":1,"homeWorkCommuteMedian":11353,"workHomeCommuteMedian":11644},"geometry":{"type":"Polygon","coordinates":[[[-119.12485029121144,46.173169459698265],[-119.12485029121144,46.18216266333551],[-119.1158570875742,46.18216266333551],[-119.1158570875742,46.173169459698265],[-119.12485029121144,46.173169459698265]]]}},{"type":"Feature","properties":{"jobs":145,"pop":3205,"pointCount":1,"homeWorkCommuteMedian":12301,"workHomeCommuteMedian":8899},"geometry":{"type":"Polygon","coordinates":[[[-119.12485029121144,46.18216266333551],[-119.12485029121144,46.19115586697276],[-119.1158570875742,46.19115586697276],[-119.1158570875742,46.18216266333551],[-119.12485029121144,46.18216266333551]]]}},{"type":"Feature","properties":{"jobs":1645,"pop":1335,"pointCount":1,"homeWorkCommuteMedian":11416,"workHomeCommuteMedian":9610},"geometry":{"type":"Polygon","coordinates":[[[-119.12485029121144,46.19115586697276],[-119.12485029121144,46.20014907061],[-119.1158570875742,46.20014907061],[-119.1158570875742,46.19115586697276],[-119.12485029121144,46.19115586697276]]]}},{"type":"Feature","properties":{"jobs":19395,"pop":405,"pointCount":3,"homeWorkCommuteMedian":7760,"workHomeCommuteMedian":9092},"geometry":{"type":"Polygon","coordinates":[[[-119.12485029121144,46.20014907061],[-119.12485029121144,46.20914227424725],[-119.1158570875742,46.20914227424725],[-119.1158570875742,46.20014907061],[-119.12485029121144,46.20014907061]]]}},{"type":"Feature","properties":{"jobs":2905,"pop":290,"pointCount":2,"homeWorkCommuteMedian":5849,"workHomeCommuteMedian":10416},"geometry":{"type":"Polygon","coordinates":[[[-119.12485029121144,46.20914227424725],[-119.12485029121144,46.218135477884495],[-119.1158570875742,46.218135477884495],[-119.1158570875742,46.20914227424725],[-119.12485029121144,46.20914227424725]]]}},{"type":"Feature","properties":{"jobs":3375,"pop":4150,"pointCount":3,"homeWorkCommuteMedian":7880,"workHomeCommuteMedian":9145},"geometry":{"type":"Polygon","coordinates":[[[-119.12485029121144,46.22712868152174],[-119.12485029121144,46.23612188515899],[-119.1158570875742,46.23612188515899],[-119.1158570875742,46.22712868152174],[-119.12485029121144,46.22712868152174]]]}},{"type":"Feature","properties":{"jobs":1645,"pop":4165,"pointCount":1,"homeWorkCommuteMedian":9554,"workHomeCommuteMedian":9565},"geometry":{"type":"Polygon","coordinates":[[[-119.12485029121144,46.23612188515899],[-119.12485029121144,46.24511508879623],[-119.1158570875742,46.24511508879623],[-119.1158570875742,46.23612188515899],[-119.12485029121144,46.23612188515899]]]}},{"type":"Feature","properties":{"jobs":5400,"pop":695,"pointCount":3,"homeWorkCommuteMedian":9299,"workHomeCommuteMedian":8324},"geometry":{"type":"Polygon","coordinates":[[[-119.12485029121144,46.24511508879623],[-119.12485029121144,46.25410829243348],[-119.1158570875742,46.25410829243348],[-119.1158570875742,46.24511508879623],[-119.12485029121144,46.24511508879623]]]}},{"type":"Feature","properties":{"jobs":840,"pop":75,"pointCount":1,"homeWorkCommuteMedian":8413,"workHomeCommuteMedian":11525},"geometry":{"type":"Polygon","coordinates":[[[-119.12485029121144,46.25410829243348],[-119.12485029121144,46.263101496070725],[-119.1158570875742,46.263101496070725],[-119.1158570875742,46.25410829243348],[-119.12485029121144,46.25410829243348]]]}},{"type":"Feature","properties":{"jobs":2400,"pop":0,"pointCount":1,"homeWorkCommuteMedian":-1,"workHomeCommuteMedian":10935},"geometry":{"type":"Polygon","coordinates":[[[-119.12485029121144,46.263101496070725],[-119.12485029121144,46.27209469970797],[-119.1158570875742,46.27209469970797],[-119.1158570875742,46.263101496070725],[-119.12485029121144,46.263101496070725]]]}},{"type":"Feature","properties":{"jobs":2585,"pop":0,"pointCount":1,"homeWorkCommuteMedian":-1,"workHomeCommuteMedian":14819},"geometry":{"type":"Polygon","coordinates":[[[-119.12485029121144,46.29907431061971],[-119.12485029121144,46.308067514256955],[-119.1158570875742,46.308067514256955],[-119.1158570875742,46.29907431061971],[-119.12485029121144,46.29907431061971]]]}},{"type":"Feature","properties":{"jobs":355,"pop":2880,"pointCount":1,"homeWorkCommuteMedian":11121,"workHomeCommuteMedian":8140},"geometry":{"type":"Polygon","coordinates":[[[-119.1158570875742,46.19115586697276],[-119.1158570875742,46.20014907061],[-119.10686388393695,46.20014907061],[-119.10686388393695,46.19115586697276],[-119.1158570875742,46.19115586697276]]]}},{"type":"Feature","properties":{"jobs":2405,"pop":410,"pointCount":2,"homeWorkCommuteMedian":7517,"workHomeCommuteMedian":10456},"geometry":{"type":"Polygon","coordinates":[[[-119.1158570875742,46.20914227424725],[-119.1158570875742,46.218135477884495],[-119.10686388393695,46.218135477884495],[-119.10686388393695,46.20914227424725],[-119.1158570875742,46.20914227424725]]]}},{"type":"Feature","properties":{"jobs":800,"pop":3530,"pointCount":1,"homeWorkCommuteMedian":8649,"workHomeCommuteMedian":9093},"geometry":{"type":"Polygon","coordinates":[[[-119.1158570875742,46.23612188515899],[-119.1158570875742,46.24511508879623],[-119.10686388393695,46.24511508879623],[-119.10686388393695,46.23612188515899],[-119.1158570875742,46.23612188515899]]]}},{"type":"Feature","properties":{"jobs":825,"pop":165,"pointCount":1,"homeWorkCommuteMedian":8887,"workHomeCommuteMedian":14889},"geometry":{"type":"Polygon","coordinates":[[[-119.1158570875742,46.24511508879623],[-119.1158570875742,46.25410829243348],[-119.10686388393695,46.25410829243348],[-119.10686388393695,46.24511508879623],[-119.1158570875742,46.24511508879623]]]}},{"type":"Feature","properties":{"jobs":345,"pop":0,"pointCount":1,"homeWorkCommuteMedian":-1,"workHomeCommuteMedian":16569},"geometry":{"type":"Polygon","coordinates":[[[-119.1158570875742,46.29008110698246],[-119.1158570875742,46.29907431061971],[-119.10686388393695,46.29907431061971],[-119.10686388393695,46.29008110698246],[-119.1158570875742,46.29008110698246]]]}},{"type":"Feature","properties":{"jobs":70,"pop":275,"pointCount":1,"homeWorkCommuteMedian":13968,"workHomeCommuteMedian":10972},"geometry":{"type":"Polygon","coordinates":[[[-119.10686388393695,46.16417625606102],[-119.10686388393695,46.173169459698265],[-119.0978706802997,46.173169459698265],[-119.0978706802997,46.16417625606102],[-119.10686388393695,46.16417625606102]]]}},{"type":"Feature","properties":{"jobs":185,"pop":655,"pointCount":1,"homeWorkCommuteMedian":12521,"workHomeCommuteMedian":7094},"geometry":{"type":"Polygon","coordinates":[[[-119.10686388393695,46.18216266333551],[-119.10686388393695,46.19115586697276],[-119.0978706802997,46.19115586697276],[-119.0978706802997,46.18216266333551],[-119.10686388393695,46.18216266333551]]]}},{"type":"Feature","properties":{"jobs":1295,"pop":115,"pointCount":1,"homeWorkCommuteMedian":13721,"workHomeCommuteMedian":9596},"geometry":{"type":"Polygon","coordinates":[[[-119.10686388393695,46.218135477884495],[-119.10686388393695,46.22712868152174],[-119.0978706802997,46.22712868152174],[-119.0978706802997,46.218135477884495],[-119.10686388393695,46.218135477884495]]]}},{"type":"Feature","properties":{"jobs":12205,"pop":790,"pointCount":1,"homeWorkCommuteMedian":8640,"workHomeCommuteMedian":10727},"geometry":{"type":"Polygon","coordinates":[[[-119.10686388393695,46.22712868152174],[-119.10686388393695,46.23612188515899],[-119.0978706802997,46.23612188515899],[-119.0978706802997,46.22712868152174],[-119.10686388393695,46.22712868152174]]]}},{"type":"Feature","properties":{"jobs":895,"pop":7460,"pointCount":2,"homeWorkCommuteMedian":9478,"workHomeCommuteMedian":9180},"geometry":{"type":"Polygon","coordinates":[[[-119.10686388393695,46.23612188515899],[-119.10686388393695,46.24511508879623],[-119.0978706802997,46.24511508879623],[-119.0978706802997,46.23612188515899],[-119.10686388393695,46.23612188515899]]]}},{"type":"Feature","properties":{"jobs":2730,"pop":10,"pointCount":1,"homeWorkCommuteMedian":18865,"workHomeCommuteMedian":15723},"geometry":{"type":"Polygon","coordinates":[[[-119.10686388393695,46.27209469970797],[-119.10686388393695,46.28108790334522],[-119.0978706802997,46.28108790334522],[-119.0978706802997,46.27209469970797],[-119.10686388393695,46.27209469970797]]]}},{"type":"Feature","properties":{"jobs":365,"pop":0,"pointCount":1,"homeWorkCommuteMedian":-1,"workHomeCommuteMedian":15533},"geometry":{"type":"Polygon","coordinates":[[[-119.10686388393695,46.28108790334522],[-119.10686388393695,46.29008110698246],[-119.0978706802997,46.29008110698246],[-119.0978706802997,46.28108790334522],[-119.10686388393695,46.28108790334522]]]}},{"type":"Feature","properties":{"jobs":615,"pop":660,"pointCount":1,"homeWorkCommuteMedian":13124,"workHomeCommuteMedian":10862},"geometry":{"type":"Polygon","coordinates":[[[-119.0978706802997,46.19115586697276],[-119.0978706802997,46.20014907061],[-119.08887747666246,46.20014907061],[-119.08887747666246,46.19115586697276],[-119.0978706802997,46.19115586697276]]]}},{"type":"Feature","properties":{"jobs":5380,"pop":820,"pointCount":3,"homeWorkCommuteMedian":9625,"workHomeCommuteMedian":10441},"geometry":{"type":"Polygon","coordinates":[[[-119.0978706802997,46.22712868152174],[-119.0978706802997,46.23612188515899],[-119.08887747666246,46.23612188515899],[-119.08887747666246,46.22712868152174],[-119.0978706802997,46.22712868152174]]]}},{"type":"Feature","properties":{"jobs":4815,"pop":2835,"pointCount":3,"homeWorkCommuteMedian":8118,"workHomeCommuteMedian":10748},"geometry":{"type":"Polygon","coordinates":[[[-119.0978706802997,46.23612188515899],[-119.0978706802997,46.24511508879623],[-119.08887747666246,46.24511508879623],[-119.08887747666246,46.23612188515899],[-119.0978706802997,46.23612188515899]]]}},{"type":"Feature","properties":{"jobs":1370,"pop":90,"pointCount":1,"homeWorkCommuteMedian":18463,"workHomeCommuteMedian":15528},"geometry":{"type":"Polygon","coordinates":[[[-119.0978706802997,46.25410829243348],[-119.0978706802997,46.263101496070725],[-119.08887747666246,46.263101496070725],[-119.08887747666246,46.25410829243348],[-119.0978706802997,46.25410829243348]]]}},{"type":"Feature","properties":{"jobs":1280,"pop":0,"pointCount":1,"homeWorkCommuteMedian":-1,"workHomeCommuteMedian":15476},"geometry":{"type":"Polygon","coordinates":[[[-119.0978706802997,46.263101496070725],[-119.0978706802997,46.27209469970797],[-119.08887747666246,46.27209469970797],[-119.08887747666246,46.263101496070725],[-119.0978706802997,46.263101496070725]]]}},{"type":"Feature","properties":{"jobs":925,"pop":340,"pointCount":1,"homeWorkCommuteMedian":11840,"workHomeCommuteMedian":9657},"geometry":{"type":"Polygon","coordinates":[[[-119.08887747666246,46.218135477884495],[-119.08887747666246,46.22712868152174],[-119.07988427302521,46.22712868152174],[-119.07988427302521,46.218135477884495],[-119.08887747666246,46.218135477884495]]]}},{"type":"Feature","properties":{"jobs":1595,"pop":440,"pointCount":1,"homeWorkCommuteMedian":12965,"workHomeCommuteMedian":11768},"geometry":{"type":"Polygon","coordinates":[[[-119.08887747666246,46.23612188515899],[-119.08887747666246,46.24511508879623],[-119.07988427302521,46.24511508879623],[-119.07988427302521,46.23612188515899],[-119.08887747666246,46.23612188515899]]]}},{"type":"Feature","properties":{"jobs":1005,"pop":95,"pointCount":1,"homeWorkCommuteMedian":5074,"workHomeCommuteMedian":11612},"geometry":{"type":"Polygon","coordinates":[[[-119.08887747666246,46.24511508879623],[-119.08887747666246,46.25410829243348],[-119.07988427302521,46.25410829243348],[-119.07988427302521,46.24511508879623],[-119.08887747666246,46.24511508879623]]]}},{"type":"Feature","properties":{"jobs":660,"pop":0,"pointCount":1,"homeWorkCommuteMedian":-1,"workHomeCommuteMedian":14966},"geometry":{"type":"Polygon","coordinates":[[[-119.08887747666246,46.25410829243348],[-119.08887747666246,46.263101496070725],[-119.07988427302521,46.263101496070725],[-119.07988427302521,46.25410829243348],[-119.08887747666246,46.25410829243348]]]}},{"type":"Feature","properties":{"jobs":2925,"pop":0,"pointCount":1,"homeWorkCommuteMedian":-1,"workHomeCommuteMedian":13755},"geometry":{"type":"Polygon","coordinates":[[[-119.08887747666246,46.263101496070725],[-119.08887747666246,46.27209469970797],[-119.07988427302521,46.27209469970797],[-119.07988427302521,46.263101496070725],[-119.08887747666246,46.263101496070725]]]}},{"type":"Feature","properties":{"jobs":150,"pop":20,"pointCount":1,"homeWorkCommuteMedian":16014,"workHomeCommuteMedian":19260},"geometry":{"type":"Polygon","coordinates":[[[-119.08887747666246,46.3170607178942],[-119.08887747666246,46.32605392153145],[-119.07988427302521,46.32605392153145],[-119.07988427302521,46.3170607178942],[-119.08887747666246,46.3170607178942]]]}},{"type":"Feature","properties":{"jobs":0,"pop":20,"pointCount":1,"homeWorkCommuteMedian":24684,"workHomeCommuteMedian":-1},"geometry":{"type":"Polygon","coordinates":[[[-119.07988427302521,46.13719664514928],[-119.07988427302521,46.14618984878653],[-119.07089106938797,46.14618984878653],[-119.07089106938797,46.13719664514928],[-119.07988427302521,46.13719664514928]]]}},{"type":"Feature","properties":{"jobs":180,"pop":520,"pointCount":1,"homeWorkCommuteMedian":13534,"workHomeCommuteMedian":19906},"geometry":{"type":"Polygon","coordinates":[[[-119.07988427302521,46.15518305242377],[-119.07988427302521,46.16417625606102],[-119.07089106938797,46.16417625606102],[-119.07089106938797,46.15518305242377],[-119.07988427302521,46.15518305242377]]]}},{"type":"Feature","properties":{"jobs":125,"pop":1830,"pointCount":1,"homeWorkCommuteMedian":14530,"workHomeCommuteMedian":14817},"geometry":{"type":"Polygon","coordinates":[[[-119.07988427302521,46.173169459698265],[-119.07988427302521,46.18216266333551],[-119.07089106938797,46.18216266333551],[-119.07089106938797,46.173169459698265],[-119.07988427302521,46.173169459698265]]]}},{"type":"Feature","properties":{"jobs":1335,"pop":295,"pointCount":1,"homeWorkCommuteMedian":6527,"workHomeCommuteMedian":10578},"geometry":{"type":"Polygon","coordinates":[[[-119.07988427302521,46.22712868152174],[-119.07988427302521,46.23612188515899],[-119.07089106938797,46.23612188515899],[-119.07089106938797,46.22712868152174],[-119.07988427302521,46.22712868152174]]]}},{"type":"Feature","properties":{"jobs":1320,"pop":1375,"pointCount":1,"homeWorkCommuteMedian":9767,"workHomeCommuteMedian":10888},"geometry":{"type":"Polygon","coordinates":[[[-119.07988427302521,46.23612188515899],[-119.07988427302521,46.24511508879623],[-119.07089106938797,46.24511508879623],[-119.07089106938797,46.23612188515899],[-119.07988427302521,46.23612188515899]]]}},{"type":"Feature","properties":{"jobs":2460,"pop":140,"pointCount":1,"homeWorkCommuteMedian":9959,"workHomeCommuteMedian":15591},"geometry":{"type":"Polygon","coordinates":[[[-119.07988427302521,46.24511508879623],[-119.07988427302521,46.25410829243348],[-119.07089106938797,46.25410829243348],[-119.07089106938797,46.24511508879623],[-119.07988427302521,46.24511508879623]]]}},{"type":"Feature","properties":{"jobs":275,"pop":910,"pointCount":1,"homeWorkCommuteMedian":11518,"workHomeCommuteMedian":15288},"geometry":{"type":"Polygon","coordinates":[[[-119.07089106938797,46.18216266333551],[-119.07089106938797,46.19115586697276],[-119.06189786575072,46.19115586697276],[-119.06189786575072,46.18216266333551],[-119.07089106938797,46.18216266333551]]]}},{"type":"Feature","properties":{"jobs":720,"pop":395,"pointCount":1,"homeWorkCommuteMedian":8261,"workHomeCommuteMedian":9526},"geometry":{"type":"Polygon","coordinates":[[[-119.07089106938797,46.19115586697276],[-119.07089106938797,46.20014907061],[-119.06189786575072,46.20014907061],[-119.06189786575072,46.19115586697276],[-119.07089106938797,46.19115586697276]]]}},{"type":"Feature","properties":{"jobs":985,"pop":830,"pointCount":1,"homeWorkCommuteMedian":13733,"workHomeCommuteMedian":12536},"geometry":{"type":"Polygon","coordinates":[[[-119.07089106938797,46.20914227424725],[-119.07089106938797,46.218135477884495],[-119.06189786575072,46.218135477884495],[-119.06189786575072,46.20914227424725],[-119.07089106938797,46.20914227424725]]]}},{"type":"Feature","properties":{"jobs":435,"pop":4795,"pointCount":1,"homeWorkCommuteMedian":11902,"workHomeCommuteMedian":12492},"geometry":{"type":"Polygon","coordinates":[[[-119.07089106938797,46.23612188515899],[-119.07089106938797,46.24511508879623],[-119.06189786575072,46.24511508879623],[-119.06189786575072,46.23612188515899],[-119.07089106938797,46.23612188515899]]]}},{"type":"Feature","properties":{"jobs":3145,"pop":0,"pointCount":1,"homeWorkCommuteMedian":-1,"workHomeCommuteMedian":13992},"geometry":{"type":"Polygon","coordinates":[[[-119.07089106938797,46.25410829243348],[-119.07089106938797,46.263101496070725],[-119.06189786575072,46.263101496070725],[-119.06189786575072,46.25410829243348],[-119.07089106938797,46.25410829243348]]]}},{"type":"Feature","properties":{"jobs":0,"pop":10,"pointCount":1,"homeWorkCommuteMedian":24106,"workHomeCommuteMedian":-1},"geometry":{"type":"Polygon","coordinates":[[[-119.07089106938797,46.3170607178942],[-119.07089106938797,46.32605392153145],[-119.06189786575072,46.32605392153145],[-119.06189786575072,46.3170607178942],[-119.07089106938797,46.3170607178942]]]}},{"type":"Feature","properties":{"jobs":20,"pop":285,"pointCount":1,"homeWorkCommuteMedian":14487,"workHomeCommuteMedian":18409},"geometry":{"type":"Polygon","coordinates":[[[-119.06189786575072,46.14618984878653],[-119.06189786575072,46.15518305242377],[-119.05290466211348,46.15518305242377],[-119.05290466211348,46.14618984878653],[-119.06189786575072,46.14618984878653]]]}},{"type":"Feature","properties":{"jobs":395,"pop":1745,"pointCount":1,"homeWorkCommuteMedian":15462,"workHomeCommuteMedian":14345},"geometry":{"type":"Polygon","coordinates":[[[-119.06189786575072,46.16417625606102],[-119.06189786575072,46.173169459698265],[-119.05290466211348,46.173169459698265],[-119.05290466211348,46.16417625606102],[-119.06189786575072,46.16417625606102]]]}},{"type":"Feature","properties":{"jobs":255,"pop":1410,"pointCount":1,"homeWorkCommuteMedian":13046,"workHomeCommuteMedian":11687},"geometry":{"type":"Polygon","coordinates":[[[-119.06189786575072,46.218135477884495],[-119.06189786575072,46.22712868152174],[-119.05290466211348,46.22712868152174],[-119.05290466211348,46.218135477884495],[-119.06189786575072,46.218135477884495]]]}},{"type":"Feature","properties":{"jobs":390,"pop":4240,"pointCount":1,"homeWorkCommuteMedian":10381,"workHomeCommuteMedian":11676},"geometry":{"type":"Polygon","coordinates":[[[-119.06189786575072,46.22712868152174],[-119.06189786575072,46.23612188515899],[-119.05290466211348,46.23612188515899],[-119.05290466211348,46.22712868152174],[-119.06189786575072,46.22712868152174]]]}},{"type":"Feature","properties":{"jobs":80,"pop":0,"pointCount":1,"homeWorkCommuteMedian":-1,"workHomeCommuteMedian":13872},"geometry":{"type":"Polygon","coordinates":[[[-119.06189786575072,46.28108790334522],[-119.06189786575072,46.29008110698246],[-119.05290466211348,46.29008110698246],[-119.05290466211348,46.28108790334522],[-119.06189786575072,46.28108790334522]]]}},{"type":"Feature","properties":{"jobs":125,"pop":85,"pointCount":1,"homeWorkCommuteMedian":16182,"workHomeCommuteMedian":19956},"geometry":{"type":"Polygon","coordinates":[[[-119.05290466211348,46.128203441512035],[-119.05290466211348,46.13719664514928],[-119.04391145847623,46.13719664514928],[-119.04391145847623,46.128203441512035],[-119.05290466211348,46.128203441512035]]]}},{"type":"Feature","properties":{"jobs":40,"pop":1720,"pointCount":1,"homeWorkCommuteMedian":16795,"workHomeCommuteMedian":12922},"geometry":{"type":"Polygon","coordinates":[[[-119.05290466211348,46.15518305242377],[-119.05290466211348,46.16417625606102],[-119.04391145847623,46.16417625606102],[-119.04391145847623,46.15518305242377],[-119.05290466211348,46.15518305242377]]]}},{"type":"Feature","properties":{"jobs":25,"pop":335,"pointCount":1,"homeWorkCommuteMedian":10431,"workHomeCommuteMedian":17462},"geometry":{"type":"Polygon","coordinates":[[[-119.05290466211348,46.18216266333551],[-119.05290466211348,46.19115586697276],[-119.04391145847623,46.19115586697276],[-119.04391145847623,46.18216266333551],[-119.05290466211348,46.18216266333551]]]}},{"type":"Feature","properties":{"jobs":530,"pop":15,"pointCount":1,"homeWorkCommuteMedian":26391,"workHomeCommuteMedian":13692},"geometry":{"type":"Polygon","coordinates":[[[-119.05290466211348,46.23612188515899],[-119.05290466211348,46.24511508879623],[-119.04391145847623,46.24511508879623],[-119.04391145847623,46.23612188515899],[-119.05290466211348,46.23612188515899]]]}},{"type":"Feature","properties":{"jobs":315,"pop":420,"pointCount":1,"homeWorkCommuteMedian":12083,"workHomeCommuteMedian":15291},"geometry":{"type":"Polygon","coordinates":[[[-119.04391145847623,46.20914227424725],[-119.04391145847623,46.218135477884495],[-119.03491825483898,46.218135477884495],[-119.03491825483898,46.20914227424725],[-119.04391145847623,46.20914227424725]]]}},{"type":"Feature","properties":{"jobs":85,"pop":0,"pointCount":1,"homeWorkCommuteMedian":-1,"workHomeCommuteMedian":11419},"geometry":{"type":"Polygon","coordinates":[[[-119.04391145847623,46.25410829243348],[-119.04391145847623,46.263101496070725],[-119.03491825483898,46.263101496070725],[-119.03491825483898,46.25410829243348],[-119.04391145847623,46.25410829243348]]]}},{"type":"Feature","properties":{"jobs":105,"pop":115,"pointCount":1,"homeWorkCommuteMedian":18468,"workHomeCommuteMedian":18137},"geometry":{"type":"Polygon","coordinates":[[[-119.03491825483898,46.128203441512035],[-119.03491825483898,46.13719664514928],[-119.02592505120174,46.13719664514928],[-119.02592505120174,46.128203441512035],[-119.03491825483898,46.128203441512035]]]}},{"type":"Feature","properties":{"jobs":120,"pop":570,"pointCount":1,"homeWorkCommuteMedian":14204,"workHomeCommuteMedian":14219},"geometry":{"type":"Polygon","coordinates":[[[-119.03491825483898,46.14618984878653],[-119.03491825483898,46.15518305242377],[-119.02592505120174,46.15518305242377],[-119.02592505120174,46.14618984878653],[-119.03491825483898,46.14618984878653]]]}},{"type":"Feature","properties":{"jobs":830,"pop":590,"pointCount":1,"homeWorkCommuteMedian":20347,"workHomeCommuteMedian":15680},"geometry":{"type":"Polygon","coordinates":[[[-119.03491825483898,46.15518305242377],[-119.03491825483898,46.16417625606102],[-119.02592505120174,46.16417625606102],[-119.02592505120174,46.15518305242377],[-119.03491825483898,46.15518305242377]]]}},{"type":"Feature","properties":{"jobs":45,"pop":0,"pointCount":1,"homeWorkCommuteMedian":-1,"workHomeCommuteMedian":18245},"geometry":{"type":"Polygon","coordinates":[[[-119.03491825483898,46.27209469970797],[-119.03491825483898,46.28108790334522],[-119.02592505120174,46.28108790334522],[-119.02592505120174,46.27209469970797],[-119.03491825483898,46.27209469970797]]]}},{"type":"Feature","properties":{"jobs":100,"pop":50,"pointCount":1,"homeWorkCommuteMedian":25190,"workHomeCommuteMedian":28891},"geometry":{"type":"Polygon","coordinates":[[[-119.03491825483898,46.308067514256955],[-119.03491825483898,46.3170607178942],[-119.02592505120174,46.3170607178942],[-119.02592505120174,46.308067514256955],[-119.03491825483898,46.308067514256955]]]}},{"type":"Feature","properties":{"jobs":520,"pop":110,"pointCount":1,"homeWorkCommuteMedian":11397,"workHomeCommuteMedian":17984},"geometry":{"type":"Polygon","coordinates":[[[-119.02592505120174,46.16417625606102],[-119.02592505120174,46.173169459698265],[-119.01693184756449,46.173169459698265],[-119.01693184756449,46.16417625606102],[-119.02592505120174,46.16417625606102]]]}},{"type":"Feature","properties":{"jobs":380,"pop":100,"pointCount":1,"homeWorkCommuteMedian":13948,"workHomeCommuteMedian":20914},"geometry":{"type":"Polygon","coordinates":[[[-119.02592505120174,46.20014907061],[-119.02592505120174,46.20914227424725],[-119.01693184756449,46.20914227424725],[-119.01693184756449,46.20014907061],[-119.02592505120174,46.20014907061]]]}},{"type":"Feature","properties":{"jobs":0,"pop":30,"pointCount":1,"homeWorkCommuteMedian":32937,"workHomeCommuteMedian":-1},"geometry":{"type":"Polygon","coordinates":[[[-119.02592505120174,46.29008110698246],[-119.02592505120174,46.29907431061971],[-119.01693184756449,46.29907431061971],[-119.01693184756449,46.29008110698246],[-119.02592505120174,46.29008110698246]]]}},{"type":"Feature","properties":{"jobs":30,"pop":135,"pointCount":1,"homeWorkCommuteMedian":14712,"workHomeCommuteMedian":18926},"geometry":{"type":"Polygon","coordinates":[[[-119.01693184756449,46.18216266333551],[-119.01693184756449,46.19115586697276],[-119.00793864392725,46.19115586697276],[-119.00793864392725,46.18216266333551],[-119.01693184756449,46.18216266333551]]]}},{"type":"Feature","properties":{"jobs":160,"pop":50,"pointCount":1,"homeWorkCommuteMedian":10601,"workHomeCommuteMedian":15985},"geometry":{"type":"Polygon","coordinates":[[[-119.01693184756449,46.23612188515899],[-119.01693184756449,46.24511508879623],[-119.00793864392725,46.24511508879623],[-119.00793864392725,46.23612188515899],[-119.01693184756449,46.23612188515899]]]}},{"type":"Feature","properties":{"jobs":515,"pop":25,"pointCount":1,"homeWorkCommuteMedian":22893,"workHomeCommuteMedian":17575},"geometry":{"type":"Polygon","coordinates":[[[-119.00793864392725,46.13719664514928],[-119.00793864392725,46.14618984878653],[-118.99894544029,46.14618984878653],[-118.99894544029,46.13719664514928],[-119.00793864392725,46.13719664514928]]]}},{"type":"Feature","properties":{"jobs":0,"pop":85,"pointCount":1,"homeWorkCommuteMedian":14566,"workHomeCommuteMedian":-1},"geometry":{"type":"Polygon","coordinates":[[[-119.00793864392725,46.15518305242377],[-119.00793864392725,46.16417625606102],[-118.99894544029,46.16417625606102],[-118.99894544029,46.15518305242377],[-119.00793864392725,46.15518305242377]]]}},{"type":"Feature","properties":{"jobs":540,"pop":200,"pointCount":1,"homeWorkCommuteMedian":18120,"workHomeCommuteMedian":18856},"geometry":{"type":"Polygon","coordinates":[[[-119.00793864392725,46.19115586697276],[-119.00793864392725,46.20014907061],[-118.99894544029,46.20014907061],[-118.99894544029,46.19115586697276],[-119.00793864392725,46.19115586697276]]]}},{"type":"Feature","properties":{"jobs":360,"pop":455,"pointCount":1,"homeWorkCommuteMedian":14287,"workHomeCommuteMedian":19808},"geometry":{"type":"Polygon","coordinates":[[[-118.99894544029,46.20014907061],[-118.99894544029,46.20914227424725],[-118.98995223665275,46.20914227424725],[-118.98995223665275,46.20014907061],[-118.99894544029,46.20014907061]]]}},{"type":"Feature","properties":{"jobs":0,"pop":10,"pointCount":1,"homeWorkCommuteMedian":24713,"workHomeCommuteMedian":-1},"geometry":{"type":"Polygon","coordinates":[[[-118.99894544029,46.263101496070725],[-118.99894544029,46.27209469970797],[-118.98995223665275,46.27209469970797],[-118.98995223665275,46.263101496070725],[-118.99894544029,46.263101496070725]]]}},{"type":"Feature","properties":{"jobs":2980,"pop":945,"pointCount":1,"homeWorkCommuteMedian":13446,"workHomeCommuteMedian":20623},"geometry":{"type":"Polygon","coordinates":[[[-118.98995223665275,46.19115586697276],[-118.98995223665275,46.20014907061],[-118.98095903301551,46.20014907061],[-118.98095903301551,46.19115586697276],[-118.98995223665275,46.19115586697276]]]}},{"type":"Feature","properties":{"jobs":570,"pop":40,"pointCount":1,"homeWorkCommuteMedian":26831,"workHomeCommuteMedian":18444},"geometry":{"type":"Polygon","coordinates":[[[-118.98995223665275,46.24511508879623],[-118.98995223665275,46.25410829243348],[-118.98095903301551,46.25410829243348],[-118.98095903301551,46.24511508879623],[-118.98995223665275,46.24511508879623]]]}},{"type":"Feature","properties":{"jobs":15,"pop":60,"pointCount":1,"homeWorkCommuteMedian":29493,"workHomeCommuteMedian":35059},"geometry":{"type":"Polygon","coordinates":[[[-118.98995223665275,46.29008110698246],[-118.98995223665275,46.29907431061971],[-118.98095903301551,46.29907431061971],[-118.98095903301551,46.29008110698246],[-118.98995223665275,46.29008110698246]]]}},{"type":"Feature","properties":{"jobs":140,"pop":310,"pointCount":1,"homeWorkCommuteMedian":15533,"workHomeCommuteMedian":20895},"geometry":{"type":"Polygon","coordinates":[[[-118.98095903301551,46.218135477884495],[-118.98095903301551,46.22712868152174],[-118.97196582937826,46.22712868152174],[-118.97196582937826,46.218135477884495],[-118.98095903301551,46.218135477884495]]]}},{"type":"Feature","properties":{"jobs":145,"pop":125,"pointCount":1,"homeWorkCommuteMedian":21134,"workHomeCommuteMedian":22138},"geometry":{"type":"Polygon","coordinates":[[[-118.97196582937826,46.173169459698265],[-118.97196582937826,46.18216266333551],[-118.96297262574102,46.18216266333551],[-118.96297262574102,46.173169459698265],[-118.97196582937826,46.173169459698265]]]}},{"type":"Feature","properties":{"jobs":0,"pop":50,"pointCount":1,"homeWorkCommuteMedian":19332,"workHomeCommuteMedian":-1},"geometry":{"type":"Polygon","coordinates":[[[-118.97196582937826,46.23612188515899],[-118.97196582937826,46.24511508879623],[-118.96297262574102,46.24511508879623],[-118.96297262574102,46.23612188515899],[-118.97196582937826,46.23612188515899]]]}},{"type":"Feature","properties":{"jobs":0,"pop":20,"pointCount":1,"homeWorkCommuteMedian":20399,"workHomeCommuteMedian":-1},"geometry":{"type":"Polygon","coordinates":[[[-118.97196582937826,46.29907431061971],[-118.97196582937826,46.308067514256955],[-118.96297262574102,46.308067514256955],[-118.96297262574102,46.29907431061971],[-118.97196582937826,46.29907431061971]]]}},{"type":"Feature","properties":{"jobs":45,"pop":0,"pointCount":1,"homeWorkCommuteMedian":-1,"workHomeCommuteMedian":30829},"geometry":{"type":"Polygon","coordinates":[[[-118.96297262574102,46.20014907061],[-118.96297262574102,46.20914227424725],[-118.95397942210377,46.20914227424725],[-118.95397942210377,46.20014907061],[-118.96297262574102,46.20014907061]]]}},{"type":"Feature","properties":{"jobs":20,"pop":150,"pointCount":1,"homeWorkCommuteMedian":18585,"workHomeCommuteMedian":25657},"geometry":{"type":"Polygon","coordinates":[[[-118.96297262574102,46.25410829243348],[-118.96297262574102,46.263101496070725],[-118.95397942210377,46.263101496070725],[-118.95397942210377,46.25410829243348],[-118.96297262574102,46.25410829243348]]]}},{"type":"Feature","properties":{"jobs":5,"pop":0,"pointCount":1,"homeWorkCommuteMedian":-1,"workHomeCommuteMedian":7806},"geometry":{"type":"Polygon","coordinates":[[[-118.95397942210377,46.173169459698265],[-118.95397942210377,46.18216266333551],[-118.94498621846652,46.18216266333551],[-118.94498621846652,46.173169459698265],[-118.95397942210377,46.173169459698265]]]}},{"type":"Feature","properties":{"jobs":75,"pop":5,"pointCount":1,"homeWorkCommuteMedian":13686,"workHomeCommuteMedian":19048},"geometry":{"type":"Polygon","coordinates":[[[-118.94498621846652,46.20014907061],[-118.94498621846652,46.20914227424725],[-118.93599301482928,46.20914227424725],[-118.93599301482928,46.20014907061],[-118.94498621846652,46.20014907061]]]}},{"type":"Feature","properties":{"jobs":0,"pop":30,"pointCount":1,"homeWorkCommuteMedian":24321,"workHomeCommuteMedian":-1},"geometry":{"type":"Polygon","coordinates":[[[-118.94498621846652,46.22712868152174],[-118.94498621846652,46.23612188515899],[-118.93599301482928,46.23612188515899],[-118.93599301482928,46.22712868152174],[-118.94498621846652,46.22712868152174]]]}},{"type":"Feature","properties":{"jobs":25,"pop":0,"pointCount":1,"homeWorkCommuteMedian":-1,"workHomeCommuteMedian":40544},"geometry":{"type":"Polygon","coordinates":[[[-118.91800660755479,46.13719664514928],[-118.91800660755479,46.14618984878653],[-118.90901340391754,46.14618984878653],[-118.90901340391754,46.13719664514928],[-118.91800660755479,46.13719664514928]]]}}],"properties":{"residentWeightedNearestNeighborKm":{"p10":0.3524233647539115,"p25":0.43670791118238467,"p50":0.5772154191327586,"p75":0.7418564283453801,"p90":1.0825108594254138,"mean":0.6449256194516614},"workerWeightedNearestNeighborKm":{"p10":0.2705349118739815,"p25":0.32722708850241294,"p50":0.43500743853395635,"p75":0.6911379875459072,"p90":1.0507468410175729,"mean":0.585753195138049},"commuteDistanceKm":{"p10":3309,"p25":6924,"p50":11763,"p75":16435,"p90":20770,"mean":12097.235046072154},"residentCellDensity":{"p10":40,"p25":225,"p50":830,"p75":2270,"p90":3925,"mean":1607.876712328767},"workerCellDensity":{"p10":45,"p25":150,"p50":520,"p75":1540,"p90":3375,"mean":1496.5086206896551},"detail":{"radiusKm":0.5010918089125439,"expectedPointSpacingKm":0.8584888223523796,"normalizedRadius":0.5836905453695742,"activityPerPoint":1081.2385321100917,"playableAreaKm2":588,"playableAreaPerPointKm2":1.798165137614679,"playableCatchmentRadiusKm":0.7565538581580221,"localityScore":0.4584874651851984,"deaggregationScore":0.5461385283832491,"score":0.5003975115030154},"polycentrism":{"activity":{"score":0.9859586253504304,"continuousScore":0.49899301153692893,"detectedCenterCount":3,"effectiveCenterCount":2.9180530478165787,"largestCenterShare":0.3891080847934609,"bandwidthKm":1.3,"reliabilityScore":1,"supportLevel":"high","usedFallback":false,"topCenters":[{"longitude":-119.10871135732708,"latitude":46.227253052162624,"massShare":0.3891080847934609,"assignedMass":275150,"assignedPointCount":137,"prominenceRatio":0.9999999999995097},{"longitude":-119.21366520945203,"latitude":46.220540193255346,"massShare":0.3538953233493134,"assignedMass":250250,"assignedPointCount":124,"prominenceRatio":1},{"longitude":-119.27692936202688,"latitude":46.28383618559717,"massShare":0.2569965918572257,"assignedMass":181730,"assignedPointCount":66,"prominenceRatio":0.9999999949324302}],"debug":{"rawPeakCount":15,"mergedPeakCount":14,"filteredPeakCount":3,"prominenceThreshold":0.22,"minPointsPerCenter":10,"rejectedCenters":[{"longitude":-119.13179169314509,"latitude":46.19600860679128,"massShare":0.13322161413035793,"assignedMass":94205,"assignedPointCount":30,"prominenceRatio":0.9999999738421202,"strongestCompetitorDistanceKm":7.7088478069994215,"strongestCompetitorPotential":61784.95278868817,"localConsolidatedShare":0.13322161413035793,"localConsolidatedMass":94205,"localContributorCount":1,"localContributorDistancesKm":[],"rejectionReasons":["not_dominant_local_peak","too_close_for_low_share_center"]},{"longitude":-119.17934716526514,"latitude":46.205936327848455,"massShare":0.11168384879725086,"assignedMass":78975,"assignedPointCount":39,"prominenceRatio":0.9875422237344105,"strongestCompetitorDistanceKm":3.9757619552523975,"strongestCompetitorPotential":61784.95278868817,"localConsolidatedShare":0.11168384879725086,"localConsolidatedMass":78975,"localContributorCount":1,"localContributorDistancesKm":[],"rejectionReasons":["not_dominant_local_peak","too_close_for_low_share_center"]},{"longitude":-119.1822628668522,"latitude":46.271859941318695,"massShare":0.12948114208137118,"assignedMass":91560,"assignedPointCount":34,"prominenceRatio":0.9999968432604485,"strongestCompetitorDistanceKm":6.618110960401277,"strongestCompetitorPotential":61784.95278868817,"localConsolidatedShare":0.12948114208137118,"localConsolidatedMass":91560,"localContributorCount":1,"localContributorDistancesKm":[],"rejectionReasons":["not_dominant_local_peak","too_close_for_low_share_center"]},{"longitude":-119.29108788661027,"latitude":46.24214455594086,"massShare":0.08369041053271675,"assignedMass":59180,"assignedPointCount":26,"prominenceRatio":0.9928743220332918,"strongestCompetitorDistanceKm":4.222754331379304,"strongestCompetitorPotential":50914.37398466622,"localConsolidatedShare":0.08369041053271675,"localConsolidatedMass":59180,"localContributorCount":1,"localContributorDistancesKm":[],"rejectionReasons":["not_dominant_local_peak","too_close_for_low_share_center"]},{"longitude":-118.90843604665025,"latitude":46.24361857207732,"massShare":0.008046610948481891,"assignedMass":5690,"assignedPointCount":2,"prominenceRatio":1,"strongestCompetitorDistanceKm":14.906860480148884,"strongestCompetitorPotential":50258.53009320723,"localConsolidatedShare":0.008046610948481891,"localConsolidatedMass":5690,"localContributorCount":1,"localContributorDistancesKm":[],"rejectionReasons":["below_min_points_per_center"]},{"longitude":-119.0522714397898,"latitude":46.16837270049787,"massShare":0.01873771442309052,"assignedMass":13250,"assignedPointCount":15,"prominenceRatio":0.9999999550624884,"strongestCompetitorDistanceKm":8.042090807064445,"strongestCompetitorPotential":50258.53009320723,"localConsolidatedShare":0.01873771442309052,"localConsolidatedMass":13250,"localContributorCount":1,"localContributorDistancesKm":[],"rejectionReasons":["below_secondary_share_floor"]},{"longitude":-118.99080342286474,"latitude":46.19908195340704,"massShare":0.009984019911473139,"assignedMass":7060,"assignedPointCount":11,"prominenceRatio":0.9999999999974966,"strongestCompetitorDistanceKm":9.904263669061963,"strongestCompetitorPotential":50258.53009320723,"localConsolidatedShare":0.009984019911473139,"localConsolidatedMass":7060,"localContributorCount":1,"localContributorDistancesKm":[],"rejectionReasons":["below_secondary_share_floor"]},{"longitude":-119.11499992311829,"latitude":46.30519548010753,"massShare":0.005260701709728055,"assignedMass":3720,"assignedPointCount":7,"prominenceRatio":0.9999997619957707,"strongestCompetitorDistanceKm":7.823157293802837,"strongestCompetitorPotential":50258.53009320723,"localConsolidatedShare":0.005260701709728055,"localConsolidatedMass":3720,"localContributorCount":1,"localContributorDistancesKm":[],"rejectionReasons":["below_min_points_per_center"]},{"longitude":-118.98931627476627,"latitude":46.25312913329816,"massShare":0.0016545755377370497,"assignedMass":1170,"assignedPointCount":7,"prominenceRatio":0.9999999960943851,"strongestCompetitorDistanceKm":8.939941635037398,"strongestCompetitorPotential":50258.53009320723,"localConsolidatedShare":0.0016545755377370497,"localConsolidatedMass":1170,"localContributorCount":1,"localContributorDistancesKm":[],"rejectionReasons":["below_min_points_per_center"]},{"longitude":-118.92367372098767,"latitude":46.12815501728395,"massShare":0.000572737686139748,"assignedMass":405,"assignedPointCount":2,"prominenceRatio":1,"strongestCompetitorDistanceKm":18.33016499271662,"strongestCompetitorPotential":50258.53009320723,"localConsolidatedShare":0.000572737686139748,"localConsolidatedMass":405,"localContributorCount":1,"localContributorDistancesKm":[],"rejectionReasons":["below_min_points_per_center"]},{"longitude":-119.02181738633335,"latitude":46.31012046188889,"massShare":0.0002828334252541965,"assignedMass":200,"assignedPointCount":3,"prominenceRatio":0.9999999999853203,"strongestCompetitorDistanceKm":10.18985558059226,"strongestCompetitorPotential":50258.53009320723,"localConsolidatedShare":0.0002828334252541965,"localConsolidatedMass":200,"localContributorCount":1,"localContributorDistancesKm":[],"rejectionReasons":["below_min_points_per_center"]}]}}}}}
