{"type":"FeatureCollection","features":[{"type":"Feature","properties":{"jobs":441,"pop":0,"pointCount":1,"homeWorkCommuteMedian":-1,"workHomeCommuteMedian":4913},"geometry":{"type":"Polygon","coordinates":[[[127.51396311270611,37.809307769083425],[127.51396311270611,37.81830097272067],[127.52295631634335,37.81830097272067],[127.52295631634335,37.809307769083425],[127.51396311270611,37.809307769083425]]]}},{"type":"Feature","properties":{"jobs":1217,"pop":15097,"pointCount":3,"homeWorkCommuteMedian":3313,"workHomeCommuteMedian":2898},"geometry":{"type":"Polygon","coordinates":[[[127.51396311270611,37.81830097272067],[127.51396311270611,37.82729417635792],[127.52295631634335,37.82729417635792],[127.52295631634335,37.81830097272067],[127.51396311270611,37.81830097272067]]]}},{"type":"Feature","properties":{"jobs":6164,"pop":0,"pointCount":2,"homeWorkCommuteMedian":-1,"workHomeCommuteMedian":3313},"geometry":{"type":"Polygon","coordinates":[[[127.51396311270611,37.82729417635792],[127.51396311270611,37.83628737999516],[127.52295631634335,37.83628737999516],[127.52295631634335,37.82729417635792],[127.51396311270611,37.82729417635792]]]}},{"type":"Feature","properties":{"jobs":4662,"pop":235,"pointCount":1,"homeWorkCommuteMedian":11590,"workHomeCommuteMedian":25378},"geometry":{"type":"Polygon","coordinates":[[[127.52295631634335,37.79132136180893],[127.52295631634335,37.80031456544618],[127.5319495199806,37.80031456544618],[127.5319495199806,37.79132136180893],[127.52295631634335,37.79132136180893]]]}},{"type":"Feature","properties":{"jobs":33,"pop":9545,"pointCount":1,"homeWorkCommuteMedian":27019,"workHomeCommuteMedian":-1},"geometry":{"type":"Polygon","coordinates":[[[127.5319495199806,37.719375732710965],[127.5319495199806,37.72836893634821],[127.54094272361785,37.72836893634821],[127.54094272361785,37.719375732710965],[127.5319495199806,37.719375732710965]]]}},{"type":"Feature","properties":{"jobs":453,"pop":0,"pointCount":2,"homeWorkCommuteMedian":-1,"workHomeCommuteMedian":21402},"geometry":{"type":"Polygon","coordinates":[[[127.54094272361785,37.82729417635792],[127.54094272361785,37.83628737999516],[127.54993592725509,37.83628737999516],[127.54993592725509,37.82729417635792],[127.54094272361785,37.82729417635792]]]}},{"type":"Feature","properties":{"jobs":57,"pop":0,"pointCount":1,"homeWorkCommuteMedian":-1,"workHomeCommuteMedian":42598},"geometry":{"type":"Polygon","coordinates":[[[127.56792233452958,37.96219223091661],[127.56792233452958,37.97118543455385],[127.57691553816683,37.97118543455385],[127.57691553816683,37.96219223091661],[127.56792233452958,37.96219223091661]]]}},{"type":"Feature","properties":{"jobs":37,"pop":0,"pointCount":1,"homeWorkCommuteMedian":-1,"workHomeCommuteMedian":2785},"geometry":{"type":"Polygon","coordinates":[[[127.57691553816683,37.72836893634821],[127.57691553816683,37.73736213998546],[127.58590874180408,37.73736213998546],[127.58590874180408,37.72836893634821],[127.57691553816683,37.72836893634821]]]}},{"type":"Feature","properties":{"jobs":308,"pop":0,"pointCount":1,"homeWorkCommuteMedian":-1,"workHomeCommuteMedian":26969},"geometry":{"type":"Polygon","coordinates":[[[127.57691553816683,37.82729417635792],[127.57691553816683,37.83628737999516],[127.58590874180408,37.83628737999516],[127.58590874180408,37.82729417635792],[127.57691553816683,37.82729417635792]]]}},{"type":"Feature","properties":{"jobs":108,"pop":2255,"pointCount":1,"homeWorkCommuteMedian":26384,"workHomeCommuteMedian":44747},"geometry":{"type":"Polygon","coordinates":[[[127.57691553816683,37.97118543455385],[127.57691553816683,37.9801786381911],[127.58590874180408,37.9801786381911],[127.58590874180408,37.97118543455385],[127.57691553816683,37.97118543455385]]]}},{"type":"Feature","properties":{"jobs":29,"pop":4142,"pointCount":1,"homeWorkCommuteMedian":18773,"workHomeCommuteMedian":-1},"geometry":{"type":"Polygon","coordinates":[[[127.58590874180408,37.72836893634821],[127.58590874180408,37.73736213998546],[127.59490194544132,37.73736213998546],[127.59490194544132,37.72836893634821],[127.58590874180408,37.72836893634821]]]}},{"type":"Feature","properties":{"jobs":586,"pop":0,"pointCount":1,"homeWorkCommuteMedian":-1,"workHomeCommuteMedian":26984},"geometry":{"type":"Polygon","coordinates":[[[127.58590874180408,37.81830097272067],[127.58590874180408,37.82729417635792],[127.59490194544132,37.82729417635792],[127.59490194544132,37.81830097272067],[127.58590874180408,37.81830097272067]]]}},{"type":"Feature","properties":{"jobs":147,"pop":0,"pointCount":1,"homeWorkCommuteMedian":-1,"workHomeCommuteMedian":13436},"geometry":{"type":"Polygon","coordinates":[[[127.60389514907857,37.7463553436227],[127.60389514907857,37.75534854725995],[127.61288835271581,37.75534854725995],[127.61288835271581,37.7463553436227],[127.60389514907857,37.7463553436227]]]}},{"type":"Feature","properties":{"jobs":359,"pop":0,"pointCount":1,"homeWorkCommuteMedian":-1,"workHomeCommuteMedian":22438},"geometry":{"type":"Polygon","coordinates":[[[127.61288835271581,37.79132136180893],[127.61288835271581,37.80031456544618],[127.62188155635306,37.80031456544618],[127.62188155635306,37.79132136180893],[127.61288835271581,37.79132136180893]]]}},{"type":"Feature","properties":{"jobs":967,"pop":97,"pointCount":1,"homeWorkCommuteMedian":18764,"workHomeCommuteMedian":17673},"geometry":{"type":"Polygon","coordinates":[[[127.61288835271581,37.84528058363241],[127.61288835271581,37.854273787269655],[127.62188155635306,37.854273787269655],[127.62188155635306,37.84528058363241],[127.61288835271581,37.84528058363241]]]}},{"type":"Feature","properties":{"jobs":2588,"pop":0,"pointCount":1,"homeWorkCommuteMedian":-1,"workHomeCommuteMedian":7831},"geometry":{"type":"Polygon","coordinates":[[[127.62188155635306,37.764341750897195],[127.62188155635306,37.77333495453444],[127.6308747599903,37.77333495453444],[127.6308747599903,37.764341750897195],[127.62188155635306,37.764341750897195]]]}},{"type":"Feature","properties":{"jobs":20,"pop":877,"pointCount":1,"homeWorkCommuteMedian":19367,"workHomeCommuteMedian":-1},"geometry":{"type":"Polygon","coordinates":[[[127.62188155635306,37.77333495453444],[127.62188155635306,37.78232815817169],[127.6308747599903,37.78232815817169],[127.6308747599903,37.77333495453444],[127.62188155635306,37.77333495453444]]]}},{"type":"Feature","properties":{"jobs":9,"pop":0,"pointCount":1,"homeWorkCommuteMedian":-1,"workHomeCommuteMedian":5490},"geometry":{"type":"Polygon","coordinates":[[[127.6308747599903,37.80031456544618],[127.6308747599903,37.809307769083425],[127.63986796362755,37.809307769083425],[127.63986796362755,37.80031456544618],[127.6308747599903,37.80031456544618]]]}},{"type":"Feature","properties":{"jobs":63,"pop":0,"pointCount":1,"homeWorkCommuteMedian":-1,"workHomeCommuteMedian":50606},"geometry":{"type":"Polygon","coordinates":[[[127.6308747599903,37.96219223091661],[127.6308747599903,37.97118543455385],[127.63986796362755,37.97118543455385],[127.63986796362755,37.96219223091661],[127.6308747599903,37.96219223091661]]]}},{"type":"Feature","properties":{"jobs":4,"pop":7,"pointCount":1,"homeWorkCommuteMedian":18183,"workHomeCommuteMedian":3309},"geometry":{"type":"Polygon","coordinates":[[[127.63986796362755,38.02514465637733],[127.63986796362755,38.034137860014575],[127.6488611672648,38.034137860014575],[127.6488611672648,38.02514465637733],[127.63986796362755,38.02514465637733]]]}},{"type":"Feature","properties":{"jobs":195,"pop":0,"pointCount":1,"homeWorkCommuteMedian":-1,"workHomeCommuteMedian":19465},"geometry":{"type":"Polygon","coordinates":[[[127.6488611672648,37.764341750897195],[127.6488611672648,37.77333495453444],[127.65785437090204,37.77333495453444],[127.65785437090204,37.764341750897195],[127.6488611672648,37.764341750897195]]]}},{"type":"Feature","properties":{"jobs":60,"pop":4686,"pointCount":1,"homeWorkCommuteMedian":15640,"workHomeCommuteMedian":-1},"geometry":{"type":"Polygon","coordinates":[[[127.6488611672648,37.89024660181864],[127.6488611672648,37.899239805455885],[127.65785437090204,37.899239805455885],[127.65785437090204,37.89024660181864],[127.6488611672648,37.89024660181864]]]}},{"type":"Feature","properties":{"jobs":51,"pop":0,"pointCount":1,"homeWorkCommuteMedian":-1,"workHomeCommuteMedian":15660},"geometry":{"type":"Polygon","coordinates":[[[127.65785437090204,37.72836893634821],[127.65785437090204,37.73736213998546],[127.66684757453929,37.73736213998546],[127.66684757453929,37.72836893634821],[127.65785437090204,37.72836893634821]]]}},{"type":"Feature","properties":{"jobs":212,"pop":0,"pointCount":1,"homeWorkCommuteMedian":-1,"workHomeCommuteMedian":24937},"geometry":{"type":"Polygon","coordinates":[[[127.65785437090204,37.81830097272067],[127.65785437090204,37.82729417635792],[127.66684757453929,37.82729417635792],[127.66684757453929,37.81830097272067],[127.65785437090204,37.81830097272067]]]}},{"type":"Feature","properties":{"jobs":109,"pop":0,"pointCount":1,"homeWorkCommuteMedian":-1,"workHomeCommuteMedian":21569},"geometry":{"type":"Polygon","coordinates":[[[127.67584077817654,37.764341750897195],[127.67584077817654,37.77333495453444],[127.68483398181378,37.77333495453444],[127.68483398181378,37.764341750897195],[127.67584077817654,37.764341750897195]]]}},{"type":"Feature","properties":{"jobs":2000,"pop":0,"pointCount":1,"homeWorkCommuteMedian":-1,"workHomeCommuteMedian":5765},"geometry":{"type":"Polygon","coordinates":[[[127.68483398181378,37.84528058363241],[127.68483398181378,37.854273787269655],[127.69382718545103,37.854273787269655],[127.69382718545103,37.84528058363241],[127.68483398181378,37.84528058363241]]]}},{"type":"Feature","properties":{"jobs":41,"pop":0,"pointCount":1,"homeWorkCommuteMedian":-1,"workHomeCommuteMedian":29646},"geometry":{"type":"Polygon","coordinates":[[[127.68483398181378,37.854273787269655],[127.68483398181378,37.8632669909069],[127.69382718545103,37.8632669909069],[127.69382718545103,37.854273787269655],[127.68483398181378,37.854273787269655]]]}},{"type":"Feature","properties":{"jobs":1387,"pop":0,"pointCount":1,"homeWorkCommuteMedian":-1,"workHomeCommuteMedian":7396},"geometry":{"type":"Polygon","coordinates":[[[127.68483398181378,37.8632669909069],[127.68483398181378,37.87226019454415],[127.69382718545103,37.87226019454415],[127.69382718545103,37.8632669909069],[127.68483398181378,37.8632669909069]]]}},{"type":"Feature","properties":{"jobs":4011,"pop":0,"pointCount":1,"homeWorkCommuteMedian":-1,"workHomeCommuteMedian":11079},"geometry":{"type":"Polygon","coordinates":[[[127.68483398181378,37.88125339818139],[127.68483398181378,37.89024660181864],[127.69382718545103,37.89024660181864],[127.69382718545103,37.88125339818139],[127.68483398181378,37.88125339818139]]]}},{"type":"Feature","properties":{"jobs":486,"pop":0,"pointCount":1,"homeWorkCommuteMedian":-1,"workHomeCommuteMedian":14748},"geometry":{"type":"Polygon","coordinates":[[[127.68483398181378,37.89024660181864],[127.68483398181378,37.899239805455885],[127.69382718545103,37.899239805455885],[127.69382718545103,37.89024660181864],[127.68483398181378,37.89024660181864]]]}},{"type":"Feature","properties":{"jobs":195,"pop":0,"pointCount":1,"homeWorkCommuteMedian":-1,"workHomeCommuteMedian":30937},"geometry":{"type":"Polygon","coordinates":[[[127.69382718545103,37.78232815817169],[127.69382718545103,37.79132136180893],[127.70282038908827,37.79132136180893],[127.70282038908827,37.78232815817169],[127.69382718545103,37.78232815817169]]]}},{"type":"Feature","properties":{"jobs":99,"pop":31633,"pointCount":1,"homeWorkCommuteMedian":6516,"workHomeCommuteMedian":-1},"geometry":{"type":"Polygon","coordinates":[[[127.69382718545103,37.84528058363241],[127.69382718545103,37.854273787269655],[127.70282038908827,37.854273787269655],[127.70282038908827,37.84528058363241],[127.69382718545103,37.84528058363241]]]}},{"type":"Feature","properties":{"jobs":160,"pop":0,"pointCount":1,"homeWorkCommuteMedian":-1,"workHomeCommuteMedian":1639},"geometry":{"type":"Polygon","coordinates":[[[127.69382718545103,37.854273787269655],[127.69382718545103,37.8632669909069],[127.70282038908827,37.8632669909069],[127.70282038908827,37.854273787269655],[127.69382718545103,37.854273787269655]]]}},{"type":"Feature","properties":{"jobs":349,"pop":0,"pointCount":1,"homeWorkCommuteMedian":-1,"workHomeCommuteMedian":12595},"geometry":{"type":"Polygon","coordinates":[[[127.69382718545103,37.87226019454415],[127.69382718545103,37.88125339818139],[127.70282038908827,37.88125339818139],[127.70282038908827,37.87226019454415],[127.69382718545103,37.87226019454415]]]}},{"type":"Feature","properties":{"jobs":104,"pop":0,"pointCount":3,"homeWorkCommuteMedian":-1,"workHomeCommuteMedian":8066},"geometry":{"type":"Polygon","coordinates":[[[127.69382718545103,37.899239805455885],[127.69382718545103,37.90823300909313],[127.70282038908827,37.90823300909313],[127.70282038908827,37.899239805455885],[127.69382718545103,37.899239805455885]]]}},{"type":"Feature","properties":{"jobs":277,"pop":0,"pointCount":1,"homeWorkCommuteMedian":-1,"workHomeCommuteMedian":49258},"geometry":{"type":"Polygon","coordinates":[[[127.69382718545103,37.97118543455385],[127.69382718545103,37.9801786381911],[127.70282038908827,37.9801786381911],[127.70282038908827,37.97118543455385],[127.69382718545103,37.97118543455385]]]}},{"type":"Feature","properties":{"jobs":2162,"pop":681,"pointCount":1,"homeWorkCommuteMedian":6634,"workHomeCommuteMedian":6887},"geometry":{"type":"Polygon","coordinates":[[[127.70282038908827,37.82729417635792],[127.70282038908827,37.83628737999516],[127.71181359272552,37.83628737999516],[127.71181359272552,37.82729417635792],[127.70282038908827,37.82729417635792]]]}},{"type":"Feature","properties":{"jobs":10511,"pop":6864,"pointCount":3,"homeWorkCommuteMedian":7199,"workHomeCommuteMedian":7030},"geometry":{"type":"Polygon","coordinates":[[[127.70282038908827,37.83628737999516],[127.70282038908827,37.84528058363241],[127.71181359272552,37.84528058363241],[127.71181359272552,37.83628737999516],[127.70282038908827,37.83628737999516]]]}},{"type":"Feature","properties":{"jobs":8425,"pop":5564,"pointCount":1,"homeWorkCommuteMedian":5974,"workHomeCommuteMedian":6014},"geometry":{"type":"Polygon","coordinates":[[[127.70282038908827,37.854273787269655],[127.70282038908827,37.8632669909069],[127.71181359272552,37.8632669909069],[127.71181359272552,37.854273787269655],[127.70282038908827,37.854273787269655]]]}},{"type":"Feature","properties":{"jobs":18734,"pop":3000,"pointCount":4,"homeWorkCommuteMedian":5110,"workHomeCommuteMedian":4467},"geometry":{"type":"Polygon","coordinates":[[[127.70282038908827,37.8632669909069],[127.70282038908827,37.87226019454415],[127.71181359272552,37.87226019454415],[127.71181359272552,37.8632669909069],[127.70282038908827,37.8632669909069]]]}},{"type":"Feature","properties":{"jobs":6570,"pop":4329,"pointCount":3,"homeWorkCommuteMedian":5178,"workHomeCommuteMedian":5183},"geometry":{"type":"Polygon","coordinates":[[[127.70282038908827,37.87226019454415],[127.70282038908827,37.88125339818139],[127.71181359272552,37.88125339818139],[127.71181359272552,37.87226019454415],[127.70282038908827,37.87226019454415]]]}},{"type":"Feature","properties":{"jobs":8,"pop":0,"pointCount":1,"homeWorkCommuteMedian":-1,"workHomeCommuteMedian":3902},"geometry":{"type":"Polygon","coordinates":[[[127.70282038908827,37.92621941636762],[127.70282038908827,37.93521262000487],[127.71181359272552,37.93521262000487],[127.71181359272552,37.92621941636762],[127.70282038908827,37.92621941636762]]]}},{"type":"Feature","properties":{"jobs":1206,"pop":92,"pointCount":2,"homeWorkCommuteMedian":8134,"workHomeCommuteMedian":22260},"geometry":{"type":"Polygon","coordinates":[[[127.71181359272552,37.809307769083425],[127.71181359272552,37.81830097272067],[127.72080679636277,37.81830097272067],[127.72080679636277,37.809307769083425],[127.71181359272552,37.809307769083425]]]}},{"type":"Feature","properties":{"jobs":163,"pop":0,"pointCount":1,"homeWorkCommuteMedian":-1,"workHomeCommuteMedian":30214},"geometry":{"type":"Polygon","coordinates":[[[127.71181359272552,37.81830097272067],[127.71181359272552,37.82729417635792],[127.72080679636277,37.82729417635792],[127.72080679636277,37.81830097272067],[127.71181359272552,37.81830097272067]]]}},{"type":"Feature","properties":{"jobs":2633,"pop":0,"pointCount":5,"homeWorkCommuteMedian":-1,"workHomeCommuteMedian":5542},"geometry":{"type":"Polygon","coordinates":[[[127.71181359272552,37.83628737999516],[127.71181359272552,37.84528058363241],[127.72080679636277,37.84528058363241],[127.72080679636277,37.83628737999516],[127.71181359272552,37.83628737999516]]]}},{"type":"Feature","properties":{"jobs":1574,"pop":353,"pointCount":1,"homeWorkCommuteMedian":4121,"workHomeCommuteMedian":4121},"geometry":{"type":"Polygon","coordinates":[[[127.71181359272552,37.84528058363241],[127.71181359272552,37.854273787269655],[127.72080679636277,37.854273787269655],[127.72080679636277,37.84528058363241],[127.71181359272552,37.84528058363241]]]}},{"type":"Feature","properties":{"jobs":3980,"pop":542,"pointCount":4,"homeWorkCommuteMedian":4422,"workHomeCommuteMedian":3453},"geometry":{"type":"Polygon","coordinates":[[[127.71181359272552,37.854273787269655],[127.71181359272552,37.8632669909069],[127.72080679636277,37.8632669909069],[127.72080679636277,37.854273787269655],[127.71181359272552,37.854273787269655]]]}},{"type":"Feature","properties":{"jobs":23548,"pop":239,"pointCount":8,"homeWorkCommuteMedian":4422,"workHomeCommuteMedian":4055},"geometry":{"type":"Polygon","coordinates":[[[127.71181359272552,37.8632669909069],[127.71181359272552,37.87226019454415],[127.72080679636277,37.87226019454415],[127.72080679636277,37.8632669909069],[127.71181359272552,37.8632669909069]]]}},{"type":"Feature","properties":{"jobs":6861,"pop":0,"pointCount":3,"homeWorkCommuteMedian":-1,"workHomeCommuteMedian":3247},"geometry":{"type":"Polygon","coordinates":[[[127.71181359272552,37.87226019454415],[127.71181359272552,37.88125339818139],[127.72080679636277,37.88125339818139],[127.72080679636277,37.87226019454415],[127.71181359272552,37.87226019454415]]]}},{"type":"Feature","properties":{"jobs":41,"pop":0,"pointCount":1,"homeWorkCommuteMedian":-1,"workHomeCommuteMedian":38312},"geometry":{"type":"Polygon","coordinates":[[[127.71181359272552,37.91722621273038],[127.71181359272552,37.92621941636762],[127.72080679636277,37.92621941636762],[127.72080679636277,37.91722621273038],[127.71181359272552,37.91722621273038]]]}},{"type":"Feature","properties":{"jobs":208,"pop":0,"pointCount":1,"homeWorkCommuteMedian":-1,"workHomeCommuteMedian":24423},"geometry":{"type":"Polygon","coordinates":[[[127.72080679636277,37.73736213998546],[127.72080679636277,37.7463553436227],[127.72980000000001,37.7463553436227],[127.72980000000001,37.73736213998546],[127.72080679636277,37.73736213998546]]]}},{"type":"Feature","properties":{"jobs":27,"pop":0,"pointCount":1,"homeWorkCommuteMedian":-1,"workHomeCommuteMedian":30077},"geometry":{"type":"Polygon","coordinates":[[[127.72080679636277,37.81830097272067],[127.72080679636277,37.82729417635792],[127.72980000000001,37.82729417635792],[127.72980000000001,37.81830097272067],[127.72080679636277,37.81830097272067]]]}},{"type":"Feature","properties":{"jobs":13441,"pop":6626,"pointCount":3,"homeWorkCommuteMedian":4530,"workHomeCommuteMedian":4422},"geometry":{"type":"Polygon","coordinates":[[[127.72080679636277,37.84528058363241],[127.72080679636277,37.854273787269655],[127.72980000000001,37.854273787269655],[127.72980000000001,37.84528058363241],[127.72080679636277,37.84528058363241]]]}},{"type":"Feature","properties":{"jobs":21144,"pop":1679,"pointCount":10,"homeWorkCommuteMedian":3625,"workHomeCommuteMedian":3297},"geometry":{"type":"Polygon","coordinates":[[[127.72080679636277,37.854273787269655],[127.72080679636277,37.8632669909069],[127.72980000000001,37.8632669909069],[127.72980000000001,37.854273787269655],[127.72080679636277,37.854273787269655]]]}},{"type":"Feature","properties":{"jobs":4510,"pop":14474,"pointCount":6,"homeWorkCommuteMedian":3160,"workHomeCommuteMedian":3075},"geometry":{"type":"Polygon","coordinates":[[[127.72080679636277,37.8632669909069],[127.72080679636277,37.87226019454415],[127.72980000000001,37.87226019454415],[127.72980000000001,37.8632669909069],[127.72080679636277,37.8632669909069]]]}},{"type":"Feature","properties":{"jobs":32081,"pop":6051,"pointCount":15,"homeWorkCommuteMedian":3437,"workHomeCommuteMedian":3483},"geometry":{"type":"Polygon","coordinates":[[[127.72080679636277,37.87226019454415],[127.72080679636277,37.88125339818139],[127.72980000000001,37.88125339818139],[127.72980000000001,37.87226019454415],[127.72080679636277,37.87226019454415]]]}},{"type":"Feature","properties":{"jobs":6931,"pop":10472,"pointCount":6,"homeWorkCommuteMedian":3592,"workHomeCommuteMedian":4895},"geometry":{"type":"Polygon","coordinates":[[[127.72080679636277,37.88125339818139],[127.72080679636277,37.89024660181864],[127.72980000000001,37.89024660181864],[127.72980000000001,37.88125339818139],[127.72080679636277,37.88125339818139]]]}},{"type":"Feature","properties":{"jobs":75226,"pop":7881,"pointCount":4,"homeWorkCommuteMedian":4693,"workHomeCommuteMedian":4108},"geometry":{"type":"Polygon","coordinates":[[[127.72080679636277,37.89024660181864],[127.72080679636277,37.899239805455885],[127.72980000000001,37.899239805455885],[127.72980000000001,37.89024660181864],[127.72080679636277,37.89024660181864]]]}},{"type":"Feature","properties":{"jobs":7348,"pop":2957,"pointCount":5,"homeWorkCommuteMedian":7433,"workHomeCommuteMedian":7199},"geometry":{"type":"Polygon","coordinates":[[[127.72080679636277,37.899239805455885],[127.72080679636277,37.90823300909313],[127.72980000000001,37.90823300909313],[127.72980000000001,37.899239805455885],[127.72080679636277,37.899239805455885]]]}},{"type":"Feature","properties":{"jobs":1752,"pop":211,"pointCount":3,"homeWorkCommuteMedian":8291,"workHomeCommuteMedian":6763},"geometry":{"type":"Polygon","coordinates":[[[127.72080679636277,37.90823300909313],[127.72080679636277,37.91722621273038],[127.72980000000001,37.91722621273038],[127.72980000000001,37.90823300909313],[127.72080679636277,37.90823300909313]]]}},{"type":"Feature","properties":{"jobs":394,"pop":0,"pointCount":1,"homeWorkCommuteMedian":-1,"workHomeCommuteMedian":20636},"geometry":{"type":"Polygon","coordinates":[[[127.72080679636277,37.91722621273038],[127.72080679636277,37.92621941636762],[127.72980000000001,37.92621941636762],[127.72980000000001,37.91722621273038],[127.72080679636277,37.91722621273038]]]}},{"type":"Feature","properties":{"jobs":1833,"pop":397,"pointCount":1,"homeWorkCommuteMedian":4602,"workHomeCommuteMedian":4781},"geometry":{"type":"Polygon","coordinates":[[[127.72980000000001,37.83628737999516],[127.72980000000001,37.84528058363241],[127.73879320363726,37.84528058363241],[127.73879320363726,37.83628737999516],[127.72980000000001,37.83628737999516]]]}},{"type":"Feature","properties":{"jobs":24461,"pop":42777,"pointCount":7,"homeWorkCommuteMedian":3765,"workHomeCommuteMedian":4121},"geometry":{"type":"Polygon","coordinates":[[[127.72980000000001,37.84528058363241],[127.72980000000001,37.854273787269655],[127.73879320363726,37.854273787269655],[127.73879320363726,37.84528058363241],[127.72980000000001,37.84528058363241]]]}},{"type":"Feature","properties":{"jobs":14663,"pop":3636,"pointCount":11,"homeWorkCommuteMedian":3350,"workHomeCommuteMedian":3104},"geometry":{"type":"Polygon","coordinates":[[[127.72980000000001,37.854273787269655],[127.72980000000001,37.8632669909069],[127.73879320363726,37.8632669909069],[127.73879320363726,37.854273787269655],[127.72980000000001,37.854273787269655]]]}},{"type":"Feature","properties":{"jobs":8294,"pop":22346,"pointCount":7,"homeWorkCommuteMedian":2939,"workHomeCommuteMedian":3127},"geometry":{"type":"Polygon","coordinates":[[[127.72980000000001,37.8632669909069],[127.72980000000001,37.87226019454415],[127.73879320363726,37.87226019454415],[127.73879320363726,37.8632669909069],[127.72980000000001,37.8632669909069]]]}},{"type":"Feature","properties":{"jobs":8049,"pop":61366,"pointCount":7,"homeWorkCommuteMedian":3060,"workHomeCommuteMedian":4359},"geometry":{"type":"Polygon","coordinates":[[[127.72980000000001,37.87226019454415],[127.72980000000001,37.88125339818139],[127.73879320363726,37.88125339818139],[127.73879320363726,37.87226019454415],[127.72980000000001,37.87226019454415]]]}},{"type":"Feature","properties":{"jobs":5200,"pop":48,"pointCount":4,"homeWorkCommuteMedian":8155,"workHomeCommuteMedian":4286},"geometry":{"type":"Polygon","coordinates":[[[127.72980000000001,37.88125339818139],[127.72980000000001,37.89024660181864],[127.73879320363726,37.89024660181864],[127.73879320363726,37.88125339818139],[127.72980000000001,37.88125339818139]]]}},{"type":"Feature","properties":{"jobs":13226,"pop":468,"pointCount":2,"homeWorkCommuteMedian":6887,"workHomeCommuteMedian":4477},"geometry":{"type":"Polygon","coordinates":[[[127.72980000000001,37.89024660181864],[127.72980000000001,37.899239805455885],[127.73879320363726,37.899239805455885],[127.73879320363726,37.89024660181864],[127.72980000000001,37.89024660181864]]]}},{"type":"Feature","properties":{"jobs":10480,"pop":6303,"pointCount":2,"homeWorkCommuteMedian":7670,"workHomeCommuteMedian":7492},"geometry":{"type":"Polygon","coordinates":[[[127.72980000000001,37.899239805455885],[127.72980000000001,37.90823300909313],[127.73879320363726,37.90823300909313],[127.73879320363726,37.899239805455885],[127.72980000000001,37.899239805455885]]]}},{"type":"Feature","properties":{"jobs":1387,"pop":190,"pointCount":2,"homeWorkCommuteMedian":8762,"workHomeCommuteMedian":9117},"geometry":{"type":"Polygon","coordinates":[[[127.72980000000001,37.90823300909313],[127.72980000000001,37.91722621273038],[127.73879320363726,37.91722621273038],[127.73879320363726,37.90823300909313],[127.72980000000001,37.90823300909313]]]}},{"type":"Feature","properties":{"jobs":34,"pop":15694,"pointCount":1,"homeWorkCommuteMedian":4908,"workHomeCommuteMedian":-1},"geometry":{"type":"Polygon","coordinates":[[[127.72980000000001,37.91722621273038],[127.72980000000001,37.92621941636762],[127.73879320363726,37.92621941636762],[127.73879320363726,37.91722621273038],[127.72980000000001,37.91722621273038]]]}},{"type":"Feature","properties":{"jobs":56,"pop":0,"pointCount":1,"homeWorkCommuteMedian":-1,"workHomeCommuteMedian":23997},"geometry":{"type":"Polygon","coordinates":[[[127.73879320363726,37.7463553436227],[127.73879320363726,37.75534854725995],[127.7477864072745,37.75534854725995],[127.7477864072745,37.7463553436227],[127.73879320363726,37.7463553436227]]]}},{"type":"Feature","properties":{"jobs":3517,"pop":822,"pointCount":2,"homeWorkCommuteMedian":4917,"workHomeCommuteMedian":4944},"geometry":{"type":"Polygon","coordinates":[[[127.73879320363726,37.83628737999516],[127.73879320363726,37.84528058363241],[127.7477864072745,37.84528058363241],[127.7477864072745,37.83628737999516],[127.73879320363726,37.83628737999516]]]}},{"type":"Feature","properties":{"jobs":23749,"pop":7576,"pointCount":13,"homeWorkCommuteMedian":4550,"workHomeCommuteMedian":4422},"geometry":{"type":"Polygon","coordinates":[[[127.73879320363726,37.84528058363241],[127.73879320363726,37.854273787269655],[127.7477864072745,37.854273787269655],[127.7477864072745,37.84528058363241],[127.73879320363726,37.84528058363241]]]}},{"type":"Feature","properties":{"jobs":9166,"pop":990,"pointCount":10,"homeWorkCommuteMedian":4015,"workHomeCommuteMedian":3488},"geometry":{"type":"Polygon","coordinates":[[[127.73879320363726,37.854273787269655],[127.73879320363726,37.8632669909069],[127.7477864072745,37.8632669909069],[127.7477864072745,37.854273787269655],[127.73879320363726,37.854273787269655]]]}},{"type":"Feature","properties":{"jobs":4138,"pop":1250,"pointCount":3,"homeWorkCommuteMedian":3902,"workHomeCommuteMedian":3865},"geometry":{"type":"Polygon","coordinates":[[[127.73879320363726,37.8632669909069],[127.73879320363726,37.87226019454415],[127.7477864072745,37.87226019454415],[127.7477864072745,37.8632669909069],[127.73879320363726,37.8632669909069]]]}},{"type":"Feature","properties":{"jobs":12136,"pop":19902,"pointCount":11,"homeWorkCommuteMedian":3565,"workHomeCommuteMedian":4253},"geometry":{"type":"Polygon","coordinates":[[[127.73879320363726,37.87226019454415],[127.73879320363726,37.88125339818139],[127.7477864072745,37.88125339818139],[127.7477864072745,37.87226019454415],[127.73879320363726,37.87226019454415]]]}},{"type":"Feature","properties":{"jobs":3675,"pop":9830,"pointCount":8,"homeWorkCommuteMedian":3327,"workHomeCommuteMedian":2896},"geometry":{"type":"Polygon","coordinates":[[[127.73879320363726,37.88125339818139],[127.73879320363726,37.89024660181864],[127.7477864072745,37.89024660181864],[127.7477864072745,37.88125339818139],[127.73879320363726,37.88125339818139]]]}},{"type":"Feature","properties":{"jobs":749,"pop":70,"pointCount":2,"homeWorkCommuteMedian":6922,"workHomeCommuteMedian":5262},"geometry":{"type":"Polygon","coordinates":[[[127.73879320363726,37.89024660181864],[127.73879320363726,37.899239805455885],[127.7477864072745,37.899239805455885],[127.7477864072745,37.89024660181864],[127.73879320363726,37.89024660181864]]]}},{"type":"Feature","properties":{"jobs":640,"pop":0,"pointCount":2,"homeWorkCommuteMedian":-1,"workHomeCommuteMedian":3496},"geometry":{"type":"Polygon","coordinates":[[[127.73879320363726,37.899239805455885],[127.73879320363726,37.90823300909313],[127.7477864072745,37.90823300909313],[127.7477864072745,37.899239805455885],[127.73879320363726,37.899239805455885]]]}},{"type":"Feature","properties":{"jobs":12500,"pop":0,"pointCount":1,"homeWorkCommuteMedian":-1,"workHomeCommuteMedian":5582},"geometry":{"type":"Polygon","coordinates":[[[127.73879320363726,37.90823300909313],[127.73879320363726,37.91722621273038],[127.7477864072745,37.91722621273038],[127.7477864072745,37.90823300909313],[127.73879320363726,37.90823300909313]]]}},{"type":"Feature","properties":{"jobs":718,"pop":22,"pointCount":1,"homeWorkCommuteMedian":14416,"workHomeCommuteMedian":14416},"geometry":{"type":"Polygon","coordinates":[[[127.73879320363726,37.91722621273038],[127.73879320363726,37.92621941636762],[127.7477864072745,37.92621941636762],[127.7477864072745,37.91722621273038],[127.73879320363726,37.91722621273038]]]}},{"type":"Feature","properties":{"jobs":8,"pop":0,"pointCount":1,"homeWorkCommuteMedian":-1,"workHomeCommuteMedian":1706},"geometry":{"type":"Polygon","coordinates":[[[127.73879320363726,37.92621941636762],[127.73879320363726,37.93521262000487],[127.7477864072745,37.93521262000487],[127.7477864072745,37.92621941636762],[127.73879320363726,37.92621941636762]]]}},{"type":"Feature","properties":{"jobs":295,"pop":0,"pointCount":1,"homeWorkCommuteMedian":-1,"workHomeCommuteMedian":47423},"geometry":{"type":"Polygon","coordinates":[[[127.7477864072745,37.77333495453444],[127.7477864072745,37.78232815817169],[127.75677961091175,37.78232815817169],[127.75677961091175,37.77333495453444],[127.7477864072745,37.77333495453444]]]}},{"type":"Feature","properties":{"jobs":60,"pop":0,"pointCount":1,"homeWorkCommuteMedian":-1,"workHomeCommuteMedian":12129},"geometry":{"type":"Polygon","coordinates":[[[127.7477864072745,37.78232815817169],[127.7477864072745,37.79132136180893],[127.75677961091175,37.79132136180893],[127.75677961091175,37.78232815817169],[127.7477864072745,37.78232815817169]]]}},{"type":"Feature","properties":{"jobs":1089,"pop":152,"pointCount":1,"homeWorkCommuteMedian":6079,"workHomeCommuteMedian":6067},"geometry":{"type":"Polygon","coordinates":[[[127.7477864072745,37.83628737999516],[127.7477864072745,37.84528058363241],[127.75677961091175,37.84528058363241],[127.75677961091175,37.83628737999516],[127.7477864072745,37.83628737999516]]]}},{"type":"Feature","properties":{"jobs":12929,"pop":4930,"pointCount":5,"homeWorkCommuteMedian":4093,"workHomeCommuteMedian":4073},"geometry":{"type":"Polygon","coordinates":[[[127.7477864072745,37.84528058363241],[127.7477864072745,37.854273787269655],[127.75677961091175,37.854273787269655],[127.75677961091175,37.84528058363241],[127.7477864072745,37.84528058363241]]]}},{"type":"Feature","properties":{"jobs":5929,"pop":29632,"pointCount":7,"homeWorkCommuteMedian":3896,"workHomeCommuteMedian":3533},"geometry":{"type":"Polygon","coordinates":[[[127.7477864072745,37.854273787269655],[127.7477864072745,37.8632669909069],[127.75677961091175,37.8632669909069],[127.75677961091175,37.854273787269655],[127.7477864072745,37.854273787269655]]]}},{"type":"Feature","properties":{"jobs":37419,"pop":5630,"pointCount":15,"homeWorkCommuteMedian":3596,"workHomeCommuteMedian":3327},"geometry":{"type":"Polygon","coordinates":[[[127.7477864072745,37.8632669909069],[127.7477864072745,37.87226019454415],[127.75677961091175,37.87226019454415],[127.75677961091175,37.8632669909069],[127.7477864072745,37.8632669909069]]]}},{"type":"Feature","properties":{"jobs":15314,"pop":34393,"pointCount":12,"homeWorkCommuteMedian":3809,"workHomeCommuteMedian":3898},"geometry":{"type":"Polygon","coordinates":[[[127.7477864072745,37.87226019454415],[127.7477864072745,37.88125339818139],[127.75677961091175,37.88125339818139],[127.75677961091175,37.87226019454415],[127.7477864072745,37.87226019454415]]]}},{"type":"Feature","properties":{"jobs":5322,"pop":952,"pointCount":5,"homeWorkCommuteMedian":5944,"workHomeCommuteMedian":5715},"geometry":{"type":"Polygon","coordinates":[[[127.7477864072745,37.88125339818139],[127.7477864072745,37.89024660181864],[127.75677961091175,37.89024660181864],[127.75677961091175,37.88125339818139],[127.7477864072745,37.88125339818139]]]}},{"type":"Feature","properties":{"jobs":4507,"pop":1809,"pointCount":4,"homeWorkCommuteMedian":5401,"workHomeCommuteMedian":4253},"geometry":{"type":"Polygon","coordinates":[[[127.7477864072745,37.89024660181864],[127.7477864072745,37.899239805455885],[127.75677961091175,37.899239805455885],[127.75677961091175,37.89024660181864],[127.7477864072745,37.89024660181864]]]}},{"type":"Feature","properties":{"jobs":42,"pop":0,"pointCount":1,"homeWorkCommuteMedian":-1,"workHomeCommuteMedian":3480},"geometry":{"type":"Polygon","coordinates":[[[127.7477864072745,37.90823300909313],[127.7477864072745,37.91722621273038],[127.75677961091175,37.91722621273038],[127.75677961091175,37.90823300909313],[127.7477864072745,37.90823300909313]]]}},{"type":"Feature","properties":{"jobs":211,"pop":0,"pointCount":2,"homeWorkCommuteMedian":-1,"workHomeCommuteMedian":6220},"geometry":{"type":"Polygon","coordinates":[[[127.7477864072745,37.92621941636762],[127.7477864072745,37.93521262000487],[127.75677961091175,37.93521262000487],[127.75677961091175,37.92621941636762],[127.7477864072745,37.92621941636762]]]}},{"type":"Feature","properties":{"jobs":81,"pop":0,"pointCount":1,"homeWorkCommuteMedian":-1,"workHomeCommuteMedian":21163},"geometry":{"type":"Polygon","coordinates":[[[127.7477864072745,37.944205823642115],[127.7477864072745,37.95319902727936],[127.75677961091175,37.95319902727936],[127.75677961091175,37.944205823642115],[127.7477864072745,37.944205823642115]]]}},{"type":"Feature","properties":{"jobs":17,"pop":1567,"pointCount":1,"homeWorkCommuteMedian":7391,"workHomeCommuteMedian":-1},"geometry":{"type":"Polygon","coordinates":[[[127.7477864072745,37.95319902727936],[127.7477864072745,37.96219223091661],[127.75677961091175,37.96219223091661],[127.75677961091175,37.95319902727936],[127.7477864072745,37.95319902727936]]]}},{"type":"Feature","properties":{"jobs":337,"pop":0,"pointCount":1,"homeWorkCommuteMedian":-1,"workHomeCommuteMedian":27019},"geometry":{"type":"Polygon","coordinates":[[[127.75677961091175,37.73736213998546],[127.75677961091175,37.7463553436227],[127.765772814549,37.7463553436227],[127.765772814549,37.73736213998546],[127.75677961091175,37.73736213998546]]]}},{"type":"Feature","properties":{"jobs":6259,"pop":4206,"pointCount":1,"homeWorkCommuteMedian":6619,"workHomeCommuteMedian":6993},"geometry":{"type":"Polygon","coordinates":[[[127.75677961091175,37.82729417635792],[127.75677961091175,37.83628737999516],[127.765772814549,37.83628737999516],[127.765772814549,37.82729417635792],[127.75677961091175,37.82729417635792]]]}},{"type":"Feature","properties":{"jobs":1091,"pop":152,"pointCount":1,"homeWorkCommuteMedian":8420,"workHomeCommuteMedian":9714},"geometry":{"type":"Polygon","coordinates":[[[127.75677961091175,37.83628737999516],[127.75677961091175,37.84528058363241],[127.765772814549,37.84528058363241],[127.765772814549,37.83628737999516],[127.75677961091175,37.83628737999516]]]}},{"type":"Feature","properties":{"jobs":3217,"pop":1439,"pointCount":1,"homeWorkCommuteMedian":4431,"workHomeCommuteMedian":4477},"geometry":{"type":"Polygon","coordinates":[[[127.75677961091175,37.84528058363241],[127.75677961091175,37.854273787269655],[127.765772814549,37.854273787269655],[127.765772814549,37.84528058363241],[127.75677961091175,37.84528058363241]]]}},{"type":"Feature","properties":{"jobs":3431,"pop":92,"pointCount":2,"homeWorkCommuteMedian":8185,"workHomeCommuteMedian":4018},"geometry":{"type":"Polygon","coordinates":[[[127.75677961091175,37.854273787269655],[127.75677961091175,37.8632669909069],[127.765772814549,37.8632669909069],[127.765772814549,37.854273787269655],[127.75677961091175,37.854273787269655]]]}},{"type":"Feature","properties":{"jobs":5559,"pop":0,"pointCount":3,"homeWorkCommuteMedian":-1,"workHomeCommuteMedian":3283},"geometry":{"type":"Polygon","coordinates":[[[127.75677961091175,37.8632669909069],[127.75677961091175,37.87226019454415],[127.765772814549,37.87226019454415],[127.765772814549,37.8632669909069],[127.75677961091175,37.8632669909069]]]}},{"type":"Feature","properties":{"jobs":5166,"pop":613,"pointCount":7,"homeWorkCommuteMedian":6526,"workHomeCommuteMedian":5544},"geometry":{"type":"Polygon","coordinates":[[[127.75677961091175,37.87226019454415],[127.75677961091175,37.88125339818139],[127.765772814549,37.88125339818139],[127.765772814549,37.87226019454415],[127.75677961091175,37.87226019454415]]]}},{"type":"Feature","properties":{"jobs":951,"pop":0,"pointCount":3,"homeWorkCommuteMedian":-1,"workHomeCommuteMedian":3625},"geometry":{"type":"Polygon","coordinates":[[[127.75677961091175,37.88125339818139],[127.75677961091175,37.89024660181864],[127.765772814549,37.89024660181864],[127.765772814549,37.88125339818139],[127.75677961091175,37.88125339818139]]]}},{"type":"Feature","properties":{"jobs":1490,"pop":0,"pointCount":1,"homeWorkCommuteMedian":-1,"workHomeCommuteMedian":5633},"geometry":{"type":"Polygon","coordinates":[[[127.75677961091175,37.89024660181864],[127.75677961091175,37.899239805455885],[127.765772814549,37.899239805455885],[127.765772814549,37.89024660181864],[127.75677961091175,37.89024660181864]]]}},{"type":"Feature","properties":{"jobs":8,"pop":0,"pointCount":1,"homeWorkCommuteMedian":-1,"workHomeCommuteMedian":1049},"geometry":{"type":"Polygon","coordinates":[[[127.75677961091175,37.944205823642115],[127.75677961091175,37.95319902727936],[127.765772814549,37.95319902727936],[127.765772814549,37.944205823642115],[127.75677961091175,37.944205823642115]]]}},{"type":"Feature","properties":{"jobs":203,"pop":0,"pointCount":1,"homeWorkCommuteMedian":-1,"workHomeCommuteMedian":29314},"geometry":{"type":"Polygon","coordinates":[[[127.75677961091175,38.00715824910284],[127.75677961091175,38.01615145274008],[127.765772814549,38.01615145274008],[127.765772814549,38.00715824910284],[127.75677961091175,38.00715824910284]]]}},{"type":"Feature","properties":{"jobs":746,"pop":23,"pointCount":1,"homeWorkCommuteMedian":10558,"workHomeCommuteMedian":10472},"geometry":{"type":"Polygon","coordinates":[[[127.765772814549,37.82729417635792],[127.765772814549,37.83628737999516],[127.77476601818624,37.83628737999516],[127.77476601818624,37.82729417635792],[127.765772814549,37.82729417635792]]]}},{"type":"Feature","properties":{"jobs":1003,"pop":101,"pointCount":1,"homeWorkCommuteMedian":10541,"workHomeCommuteMedian":34507},"geometry":{"type":"Polygon","coordinates":[[[127.765772814549,37.83628737999516],[127.765772814549,37.84528058363241],[127.77476601818624,37.84528058363241],[127.77476601818624,37.83628737999516],[127.765772814549,37.83628737999516]]]}},{"type":"Feature","properties":{"jobs":1415,"pop":100,"pointCount":3,"homeWorkCommuteMedian":9654,"workHomeCommuteMedian":4504},"geometry":{"type":"Polygon","coordinates":[[[127.765772814549,37.84528058363241],[127.765772814549,37.854273787269655],[127.77476601818624,37.854273787269655],[127.77476601818624,37.84528058363241],[127.765772814549,37.84528058363241]]]}},{"type":"Feature","properties":{"jobs":1583,"pop":0,"pointCount":2,"homeWorkCommuteMedian":-1,"workHomeCommuteMedian":4742},"geometry":{"type":"Polygon","coordinates":[[[127.765772814549,37.91722621273038],[127.765772814549,37.92621941636762],[127.77476601818624,37.92621941636762],[127.77476601818624,37.91722621273038],[127.765772814549,37.91722621273038]]]}},{"type":"Feature","properties":{"jobs":282,"pop":0,"pointCount":1,"homeWorkCommuteMedian":-1,"workHomeCommuteMedian":22209},"geometry":{"type":"Polygon","coordinates":[[[127.765772814549,37.9801786381911],[127.765772814549,37.989171841828345],[127.77476601818624,37.989171841828345],[127.77476601818624,37.9801786381911],[127.765772814549,37.9801786381911]]]}},{"type":"Feature","properties":{"jobs":2,"pop":216,"pointCount":1,"homeWorkCommuteMedian":19336,"workHomeCommuteMedian":-1},"geometry":{"type":"Polygon","coordinates":[[[127.77476601818624,37.77333495453444],[127.77476601818624,37.78232815817169],[127.78375922182349,37.78232815817169],[127.78375922182349,37.77333495453444],[127.77476601818624,37.77333495453444]]]}},{"type":"Feature","properties":{"jobs":730,"pop":9528,"pointCount":2,"homeWorkCommuteMedian":7411,"workHomeCommuteMedian":10993},"geometry":{"type":"Polygon","coordinates":[[[127.77476601818624,37.82729417635792],[127.77476601818624,37.83628737999516],[127.78375922182349,37.83628737999516],[127.78375922182349,37.82729417635792],[127.77476601818624,37.82729417635792]]]}},{"type":"Feature","properties":{"jobs":738,"pop":22,"pointCount":1,"homeWorkCommuteMedian":10512,"workHomeCommuteMedian":10594},"geometry":{"type":"Polygon","coordinates":[[[127.77476601818624,37.83628737999516],[127.77476601818624,37.84528058363241],[127.78375922182349,37.84528058363241],[127.78375922182349,37.83628737999516],[127.77476601818624,37.83628737999516]]]}},{"type":"Feature","properties":{"jobs":979,"pop":98,"pointCount":1,"homeWorkCommuteMedian":9405,"workHomeCommuteMedian":9381},"geometry":{"type":"Polygon","coordinates":[[[127.77476601818624,37.84528058363241],[127.77476601818624,37.854273787269655],[127.78375922182349,37.854273787269655],[127.78375922182349,37.84528058363241],[127.77476601818624,37.84528058363241]]]}},{"type":"Feature","properties":{"jobs":1135,"pop":158,"pointCount":1,"homeWorkCommuteMedian":9028,"workHomeCommuteMedian":8759},"geometry":{"type":"Polygon","coordinates":[[[127.77476601818624,37.854273787269655],[127.77476601818624,37.8632669909069],[127.78375922182349,37.8632669909069],[127.78375922182349,37.854273787269655],[127.77476601818624,37.854273787269655]]]}},{"type":"Feature","properties":{"jobs":3261,"pop":0,"pointCount":1,"homeWorkCommuteMedian":-1,"workHomeCommuteMedian":5596},"geometry":{"type":"Polygon","coordinates":[[[127.77476601818624,37.8632669909069],[127.77476601818624,37.87226019454415],[127.78375922182349,37.87226019454415],[127.78375922182349,37.8632669909069],[127.77476601818624,37.8632669909069]]]}},{"type":"Feature","properties":{"jobs":1998,"pop":0,"pointCount":1,"homeWorkCommuteMedian":-1,"workHomeCommuteMedian":4579},"geometry":{"type":"Polygon","coordinates":[[[127.77476601818624,37.899239805455885],[127.77476601818624,37.90823300909313],[127.78375922182349,37.90823300909313],[127.78375922182349,37.899239805455885],[127.77476601818624,37.899239805455885]]]}},{"type":"Feature","properties":{"jobs":920,"pop":0,"pointCount":1,"homeWorkCommuteMedian":-1,"workHomeCommuteMedian":5334},"geometry":{"type":"Polygon","coordinates":[[[127.77476601818624,37.91722621273038],[127.77476601818624,37.92621941636762],[127.78375922182349,37.92621941636762],[127.78375922182349,37.91722621273038],[127.77476601818624,37.91722621273038]]]}},{"type":"Feature","properties":{"jobs":5,"pop":0,"pointCount":1,"homeWorkCommuteMedian":-1,"workHomeCommuteMedian":23654},"geometry":{"type":"Polygon","coordinates":[[[127.78375922182349,37.7463553436227],[127.78375922182349,37.75534854725995],[127.79275242546073,37.75534854725995],[127.79275242546073,37.7463553436227],[127.78375922182349,37.7463553436227]]]}},{"type":"Feature","properties":{"jobs":816,"pop":46,"pointCount":1,"homeWorkCommuteMedian":12624,"workHomeCommuteMedian":12628},"geometry":{"type":"Polygon","coordinates":[[[127.78375922182349,37.854273787269655],[127.78375922182349,37.8632669909069],[127.79275242546073,37.8632669909069],[127.79275242546073,37.854273787269655],[127.78375922182349,37.854273787269655]]]}},{"type":"Feature","properties":{"jobs":121,"pop":0,"pointCount":1,"homeWorkCommuteMedian":-1,"workHomeCommuteMedian":15468},"geometry":{"type":"Polygon","coordinates":[[[127.78375922182349,37.87226019454415],[127.78375922182349,37.88125339818139],[127.79275242546073,37.88125339818139],[127.79275242546073,37.87226019454415],[127.78375922182349,37.87226019454415]]]}},{"type":"Feature","properties":{"jobs":2104,"pop":793,"pointCount":1,"homeWorkCommuteMedian":12545,"workHomeCommuteMedian":13043},"geometry":{"type":"Polygon","coordinates":[[[127.78375922182349,37.92621941636762],[127.78375922182349,37.93521262000487],[127.79275242546073,37.93521262000487],[127.79275242546073,37.92621941636762],[127.78375922182349,37.92621941636762]]]}},{"type":"Feature","properties":{"jobs":1322,"pop":290,"pointCount":1,"homeWorkCommuteMedian":10080,"workHomeCommuteMedian":10582},"geometry":{"type":"Polygon","coordinates":[[[127.79275242546073,37.89024660181864],[127.79275242546073,37.899239805455885],[127.80174562909798,37.899239805455885],[127.80174562909798,37.89024660181864],[127.79275242546073,37.89024660181864]]]}},{"type":"Feature","properties":{"jobs":1196,"pop":189,"pointCount":1,"homeWorkCommuteMedian":12001,"workHomeCommuteMedian":11816},"geometry":{"type":"Polygon","coordinates":[[[127.79275242546073,37.90823300909313],[127.79275242546073,37.91722621273038],[127.80174562909798,37.91722621273038],[127.80174562909798,37.90823300909313],[127.79275242546073,37.90823300909313]]]}},{"type":"Feature","properties":{"jobs":2000,"pop":0,"pointCount":1,"homeWorkCommuteMedian":-1,"workHomeCommuteMedian":6297},"geometry":{"type":"Polygon","coordinates":[[[127.80174562909798,37.854273787269655],[127.80174562909798,37.8632669909069],[127.81073883273523,37.8632669909069],[127.81073883273523,37.854273787269655],[127.80174562909798,37.854273787269655]]]}},{"type":"Feature","properties":{"jobs":1385,"pop":303,"pointCount":1,"homeWorkCommuteMedian":12507,"workHomeCommuteMedian":12657},"geometry":{"type":"Polygon","coordinates":[[[127.80174562909798,37.90823300909313],[127.80174562909798,37.91722621273038],[127.81073883273523,37.91722621273038],[127.81073883273523,37.90823300909313],[127.80174562909798,37.90823300909313]]]}},{"type":"Feature","properties":{"jobs":2329,"pop":412,"pointCount":2,"homeWorkCommuteMedian":12985,"workHomeCommuteMedian":12913},"geometry":{"type":"Polygon","coordinates":[[[127.80174562909798,37.91722621273038],[127.80174562909798,37.92621941636762],[127.81073883273523,37.92621941636762],[127.81073883273523,37.91722621273038],[127.80174562909798,37.91722621273038]]]}},{"type":"Feature","properties":{"jobs":9,"pop":343,"pointCount":1,"homeWorkCommuteMedian":27923,"workHomeCommuteMedian":-1},"geometry":{"type":"Polygon","coordinates":[[[127.81073883273523,37.719375732710965],[127.81073883273523,37.72836893634821],[127.81973203637247,37.72836893634821],[127.81973203637247,37.719375732710965],[127.81073883273523,37.719375732710965]]]}},{"type":"Feature","properties":{"jobs":881,"pop":6986,"pointCount":1,"homeWorkCommuteMedian":17620,"workHomeCommuteMedian":19616},"geometry":{"type":"Polygon","coordinates":[[[127.82872524000972,37.87226019454415],[127.82872524000972,37.88125339818139],[127.83771844364696,37.88125339818139],[127.83771844364696,37.87226019454415],[127.82872524000972,37.87226019454415]]]}},{"type":"Feature","properties":{"jobs":692,"pop":21,"pointCount":1,"homeWorkCommuteMedian":34450,"workHomeCommuteMedian":35678},"geometry":{"type":"Polygon","coordinates":[[[127.84671164728421,37.84528058363241],[127.84671164728421,37.854273787269655],[127.85570485092146,37.854273787269655],[127.85570485092146,37.84528058363241],[127.84671164728421,37.84528058363241]]]}},{"type":"Feature","properties":{"jobs":818,"pop":46,"pointCount":1,"homeWorkCommuteMedian":32293,"workHomeCommuteMedian":30669},"geometry":{"type":"Polygon","coordinates":[[[127.8646980545587,37.81830097272067],[127.8646980545587,37.82729417635792],[127.87369125819595,37.82729417635792],[127.87369125819595,37.81830097272067],[127.8646980545587,37.81830097272067]]]}},{"type":"Feature","properties":{"jobs":554,"pop":0,"pointCount":1,"homeWorkCommuteMedian":-1,"workHomeCommuteMedian":29244},"geometry":{"type":"Polygon","coordinates":[[[127.8826844618332,37.82729417635792],[127.8826844618332,37.83628737999516],[127.89167766547044,37.83628737999516],[127.89167766547044,37.82729417635792],[127.8826844618332,37.82729417635792]]]}},{"type":"Feature","properties":{"jobs":1448,"pop":337,"pointCount":1,"homeWorkCommuteMedian":28722,"workHomeCommuteMedian":28514},"geometry":{"type":"Polygon","coordinates":[[[127.89167766547044,37.809307769083425],[127.89167766547044,37.81830097272067],[127.90067086910769,37.81830097272067],[127.90067086910769,37.809307769083425],[127.89167766547044,37.809307769083425]]]}}],"properties":{"residentWeightedNearestNeighborKm":{"p10":0.037188614447221505,"p25":0.08954349125441557,"p50":0.21673203463238133,"p75":0.37637442430539186,"p90":0.6376185155447801,"mean":0.3332688067386971},"workerWeightedNearestNeighborKm":{"p10":0.08109925272112531,"p25":0.10186588903330218,"p50":0.16863233272120304,"p75":0.314386981769209,"p90":0.6690931577895977,"mean":0.31575685136645054},"commuteDistanceKm":{"p10":2097,"p25":3042,"p50":4477,"p75":6600,"p90":9979,"mean":6001.960901259112},"residentCellDensity":{"p10":48,"p25":190,"p50":952,"p75":6303,"p90":15694,"mean":5712.402597402597},"workerCellDensity":{"p10":34,"p25":195,"p50":1089,"p75":4510,"p90":12500,"mean":4278.103703703704},"detail":{"radiusKm":0.19117538694997072,"expectedPointSpacingKm":0.6132247289902172,"normalizedRadius":0.3117542034953071,"activityPerPoint":1412.949044779193,"playableAreaKm2":380,"playableAreaPerPointKm2":1.0584958217270195,"playableCatchmentRadiusKm":0.5804564449981976,"localityScore":1,"deaggregationScore":1,"score":1},"polycentrism":{"activity":{"score":0,"continuousScore":0.07107351674550888,"detectedCenterCount":1,"effectiveCenterCount":1,"largestCenterShare":1,"bandwidthKm":1.3,"reliabilityScore":1,"supportLevel":"high","usedFallback":false,"topCenters":[{"longitude":127.7258426641171,"latitude":37.86807912836471,"massShare":1,"assignedMass":1024589,"assignedPointCount":359,"prominenceRatio":1}],"debug":{"rawPeakCount":24,"mergedPeakCount":24,"filteredPeakCount":1,"prominenceThreshold":0.22,"minPointsPerCenter":10,"rejectedCenters":[{"longitude":127.5194078445822,"latitude":37.81933864489058,"massShare":0.03291270938883786,"assignedMass":33722,"assignedPointCount":19,"prominenceRatio":1,"strongestCompetitorDistanceKm":20.043092062634926,"strongestCompetitorPotential":324027.83886743255,"localConsolidatedShare":0.03291270938883786,"localConsolidatedMass":33722,"localContributorCount":1,"localContributorDistancesKm":[],"rejectionReasons":["below_secondary_share_floor"]},{"longitude":127.53464856133265,"latitude":37.72335143866734,"massShare":0.009667290982042555,"assignedMass":9905,"assignedPointCount":2,"prominenceRatio":1,"strongestCompetitorDistanceKm":24.26213499755207,"strongestCompetitorPotential":324027.83886743255,"localConsolidatedShare":0.009667290982042555,"localConsolidatedMass":9905,"localContributorCount":1,"localContributorDistancesKm":[],"rejectionReasons":["below_min_points_per_center"]},{"longitude":127.83148048204158,"latitude":37.8707952268431,"massShare":0.010326091730440206,"assignedMass":10580,"assignedPointCount":3,"prominenceRatio":0.9999999925601567,"strongestCompetitorDistanceKm":8.704928557627586,"strongestCompetitorPotential":324027.83886743255,"localConsolidatedShare":0.010326091730440206,"localConsolidatedMass":10580,"localContributorCount":1,"localContributorDistancesKm":[],"rejectionReasons":["below_min_points_per_center"]},{"longitude":127.78809639366484,"latitude":37.92476483807903,"massShare":0.01432769627626297,"assignedMass":14680,"assignedPointCount":13,"prominenceRatio":0.9999968624323062,"strongestCompetitorDistanceKm":7.458047183434006,"strongestCompetitorPotential":324027.83886743255,"localConsolidatedShare":0.01432769627626297,"localConsolidatedMass":14680,"localContributorCount":1,"localContributorDistancesKm":[],"rejectionReasons":["below_secondary_share_floor"]},{"longitude":127.656,"latitude":37.899,"massShare":0.0046321012620670335,"assignedMass":4746,"assignedPointCount":1,"prominenceRatio":0.9999985910122138,"strongestCompetitorDistanceKm":7.718285813108884,"strongestCompetitorPotential":324027.83886743255,"localConsolidatedShare":0.0046321012620670335,"localConsolidatedMass":4746,"localContributorCount":1,"localContributorDistancesKm":[],"rejectionReasons":["below_min_points_per_center"]},{"longitude":127.59286578707224,"latitude":37.73253774738593,"massShare":0.004107012665566388,"assignedMass":4208,"assignedPointCount":2,"prominenceRatio":1,"strongestCompetitorDistanceKm":20.01006108090955,"strongestCompetitorPotential":324027.83886743255,"localConsolidatedShare":0.004107012665566388,"localConsolidatedMass":4208,"localContributorCount":1,"localContributorDistancesKm":[],"rejectionReasons":["below_min_points_per_center"]},{"longitude":127.62973277818595,"latitude":37.770911130195174,"massShare":0.004250484828550765,"assignedMass":4355,"assignedPointCount":8,"prominenceRatio":1,"strongestCompetitorDistanceKm":15.0359807833222,"strongestCompetitorPotential":324027.83886743255,"localConsolidatedShare":0.004250484828550765,"localConsolidatedMass":4355,"localContributorCount":1,"localContributorDistancesKm":[],"rejectionReasons":["below_min_points_per_center"]},{"longitude":127.57993185289256,"latitude":37.977718040495866,"massShare":0.002361922683144168,"assignedMass":2420,"assignedPointCount":2,"prominenceRatio":1,"strongestCompetitorDistanceKm":18.122454403055848,"strongestCompetitorPotential":324027.83886743255,"localConsolidatedShare":0.002361922683144168,"localConsolidatedMass":2420,"localContributorCount":1,"localContributorDistancesKm":[],"rejectionReasons":["below_min_points_per_center"]},{"longitude":127.88656891788948,"latitude":37.82088295348111,"massShare":0.003126131551285442,"assignedMass":3203,"assignedPointCount":3,"prominenceRatio":1,"strongestCompetitorDistanceKm":15.073440345435744,"strongestCompetitorPotential":324027.83886743255,"localConsolidatedShare":0.003126131551285442,"localConsolidatedMass":3203,"localContributorCount":1,"localContributorDistancesKm":[],"rejectionReasons":["below_min_points_per_center"]},{"longitude":127.62271863322884,"latitude":37.84560159247649,"massShare":0.0012453774147487431,"assignedMass":1276,"assignedPointCount":2,"prominenceRatio":0.9999999999998844,"strongestCompetitorDistanceKm":10.955167161868854,"strongestCompetitorPotential":324027.83886743255,"localConsolidatedShare":0.0012453774147487431,"localConsolidatedMass":1276,"localContributorCount":1,"localContributorDistancesKm":[],"rejectionReasons":["below_min_points_per_center"]},{"longitude":127.94909999999999,"latitude":37.764,"massShare":0.0010130891508692754,"assignedMass":1038,"assignedPointCount":1,"prominenceRatio":1,"strongestCompetitorDistanceKm":22.15576547507261,"strongestCompetitorPotential":324027.83886743255,"localConsolidatedShare":0.0010130891508692754,"localConsolidatedMass":1038,"localContributorCount":1,"localContributorDistancesKm":[],"rejectionReasons":["below_min_points_per_center"]},{"longitude":127.58490497986575,"latitude":37.823175604026844,"massShare":0.00087254499121111,"assignedMass":894,"assignedPointCount":2,"prominenceRatio":1,"strongestCompetitorDistanceKm":14.299516103881293,"strongestCompetitorPotential":324027.83886743255,"localConsolidatedShare":0.00087254499121111,"localConsolidatedMass":894,"localContributorCount":1,"localContributorDistancesKm":[],"rejectionReasons":["below_min_points_per_center"]},{"longitude":127.7463357112211,"latitude":37.74180146864686,"massShare":0.0005914566718947793,"assignedMass":606,"assignedPointCount":4,"prominenceRatio":1,"strongestCompetitorDistanceKm":14.643800025917123,"strongestCompetitorPotential":324027.83886743255,"localConsolidatedShare":0.0005914566718947793,"localConsolidatedMass":606,"localContributorCount":1,"localContributorDistancesKm":[],"rejectionReasons":["below_min_points_per_center"]},{"longitude":127.73312110909092,"latitude":37.781470109090904,"massShare":0.0005368006098054927,"assignedMass":550,"assignedPointCount":3,"prominenceRatio":0.9999999999963606,"strongestCompetitorDistanceKm":10.583722269950503,"strongestCompetitorPotential":324027.83886743255,"localConsolidatedShare":0.0005368006098054927,"localConsolidatedMass":550,"localContributorCount":1,"localContributorDistancesKm":[],"rejectionReasons":["below_min_points_per_center"]},{"longitude":127.9485,"latitude":37.9215,"massShare":0.00034648039360172714,"assignedMass":355,"assignedPointCount":1,"prominenceRatio":1,"strongestCompetitorDistanceKm":19.36485021067685,"strongestCompetitorPotential":324027.83886743255,"localConsolidatedShare":0.00034648039360172714,"localConsolidatedMass":355,"localContributorCount":1,"localContributorDistancesKm":[],"rejectionReasons":["below_min_points_per_center"]},{"longitude":127.81349999999999,"latitude":37.728,"massShare":0.00034355239027551536,"assignedMass":352,"assignedPointCount":1,"prominenceRatio":1,"strongestCompetitorDistanceKm":17.36329046942128,"strongestCompetitorPotential":324027.83886743255,"localConsolidatedShare":0.00034355239027551536,"localConsolidatedMass":352,"localContributorCount":1,"localContributorDistancesKm":[],"rejectionReasons":["below_min_points_per_center"]},{"longitude":127.69580699999999,"latitude":37.979249,"massShare":0.00027035230712022087,"assignedMass":277,"assignedPointCount":1,"prominenceRatio":1,"strongestCompetitorDistanceKm":12.461735282274883,"strongestCompetitorPotential":324027.83886743255,"localConsolidatedShare":0.00027035230712022087,"localConsolidatedMass":277,"localContributorCount":1,"localContributorDistancesKm":[],"rejectionReasons":["below_min_points_per_center"]},{"longitude":127.782,"latitude":37.7775,"massShare":0.00021276824170472257,"assignedMass":218,"assignedPointCount":1,"prominenceRatio":0.9999999999999183,"strongestCompetitorDistanceKm":11.225912962230863,"strongestCompetitorPotential":324027.83886743255,"localConsolidatedShare":0.00021276824170472257,"localConsolidatedMass":218,"localContributorCount":1,"localContributorDistancesKm":[],"rejectionReasons":["below_min_points_per_center"]},{"longitude":127.76673104742268,"latitude":37.994158480412366,"massShare":0.00047336053773757087,"assignedMass":485,"assignedPointCount":2,"prominenceRatio":1,"strongestCompetitorDistanceKm":15.85184287769982,"strongestCompetitorPotential":324027.83886743255,"localConsolidatedShare":0.00047336053773757087,"localConsolidatedMass":485,"localContributorCount":1,"localContributorDistancesKm":[],"rejectionReasons":["below_min_points_per_center"]},{"longitude":127.639389,"latitude":37.962515,"massShare":0.00006148806985044734,"assignedMass":63,"assignedPointCount":1,"prominenceRatio":1,"strongestCompetitorDistanceKm":13.218231253128007,"strongestCompetitorPotential":324027.83886743255,"localConsolidatedShare":0.00006148806985044734,"localConsolidatedMass":63,"localContributorCount":1,"localContributorDistancesKm":[],"rejectionReasons":["below_min_points_per_center"]},{"longitude":127.66202,"latitude":37.736435,"massShare":0,"assignedMass":0,"assignedPointCount":0,"prominenceRatio":1,"strongestCompetitorDistanceKm":16.44849032316294,"strongestCompetitorPotential":324027.83886743255,"localConsolidatedShare":0,"localConsolidatedMass":0,"localContributorCount":1,"localContributorDistancesKm":[],"rejectionReasons":["below_min_points_per_center"]},{"longitude":127.834911,"latitude":38.0525,"massShare":0.00001659201884853341,"assignedMass":17,"assignedPointCount":1,"prominenceRatio":1,"strongestCompetitorDistanceKm":21.833608551124804,"strongestCompetitorPotential":324027.83886743255,"localConsolidatedShare":0.00001659201884853341,"localConsolidatedMass":17,"localContributorCount":1,"localContributorDistancesKm":[],"rejectionReasons":["below_min_points_per_center"]},{"longitude":127.64243,"latitude":38.025546,"massShare":0.000010736012196109855,"assignedMass":11,"assignedPointCount":1,"prominenceRatio":1,"strongestCompetitorDistanceKm":18.984834268531802,"strongestCompetitorPotential":324027.83886743255,"localConsolidatedShare":0.000010736012196109855,"localConsolidatedMass":11,"localContributorCount":1,"localContributorDistancesKm":[],"rejectionReasons":["below_min_points_per_center"]}]}}}}}
